{
"type": "FeatureCollection",
"name": "azov_10_emax_iso",
"crs": { "type": "name", "properties": { "name": "urn:ogc:def:crs:OGC:1.3:CRS84" } },
"features": [
{ "type": "Feature", "properties": { "gid": 1, "objectid": 1.0, "z": 10.0, "index": 0.0, "shape_leng": 7.2288885024100002 }, "geometry": { "type": "MultiLineString", "coordinates": [ [ [ 36.844829757452317, 46.680000000003929 ], [ 36.845460524919169, 46.682204275278153 ], [ 36.847658345452743, 46.687926846310368 ], [ 36.85099505979597, 46.695251655442341 ], [ 36.854686338061754, 46.702275106717195 ], [ 36.861788773519635, 46.71428379279071 ], [ 36.865946263280755, 46.720732508548714 ], [ 36.870362552449492, 46.727212097959622 ], [ 36.8748627295411, 46.733441751821125 ], [ 36.880054520029724, 46.740178498513529 ], [ 36.887871716394748, 46.749604122879248 ], [ 36.893779595674054, 46.756326141222246 ], [ 36.917158561126804, 46.781341201275609 ], [ 36.925895934465046, 46.790303931467569 ], [ 36.931100156760408, 46.795323833533189 ], [ 36.935509774519389, 46.799314896060359 ], [ 36.941817939740396, 46.804612550228022 ], [ 36.94725223092118, 46.808807469713479 ], [ 36.956430350091438, 46.815129555212316 ], [ 36.966197973937987, 46.820897547483078 ], [ 36.976613222235422, 46.82614294694816 ], [ 36.982593949450234, 46.828806129104805 ], [ 36.990264537090425, 46.83190055223546 ], [ 36.997676865202173, 46.834602067266516 ], [ 37.011564007684775, 46.839059373715187 ], [ 37.049202990203028, 46.849699517989698 ], [ 37.075873126615576, 46.857500745811031 ], [ 37.090542823495689, 46.861182354229705 ], [ 37.101792063074789, 46.863346724823153 ], [ 37.110234982260884, 46.864619761199883 ], [ 37.117011722084285, 46.865430038494658 ], [ 37.130061530330465, 46.866489093036201 ], [ 37.142298873056916, 46.866887681314822 ], [ 37.149934050409811, 46.866850568861629 ], [ 37.157409629724405, 46.866601737700968 ], [ 37.164879259246156, 46.8661420202138 ], [ 37.175284053876503, 46.865147989109417 ], [ 37.189724605503464, 46.863158018689724 ], [ 37.198051237317742, 46.861680436498695 ], [ 37.209705325213257, 46.859228531888647 ], [ 37.221267297082647, 46.856429883199645 ], [ 37.250118492016696, 46.848908924530825 ], [ 37.259644643216312, 46.846697159943723 ], [ 37.270539602590631, 46.844737368790696 ], [ 37.278969552877854, 46.843725712063566 ], [ 37.290134824511547, 46.843152656682953 ], [ 37.295592069885863, 46.843233629280853 ], [ 37.302557617445288, 46.843694560517001 ], [ 37.309482183611991, 46.844561525201684 ], [ 37.31558837347292, 46.845683132463797 ], [ 37.321639748703156, 46.847125986357007 ], [ 37.329218993530169, 46.849393105770446 ], [ 37.337022373491685, 46.85221757537753 ], [ 37.34333816823888, 46.854835285380204 ], [ 37.356169285786905, 46.860875936542939 ], [ 37.391206479465957, 46.879517346204125 ], [ 37.411061552085329, 46.889583826107121 ], [ 37.424522977183933, 46.895789961064516 ], [ 37.435009538617877, 46.900211047052899 ], [ 37.443270090933495, 46.903410808156778 ], [ 37.451602111661636, 46.906355696270822 ], [ 37.457407075212181, 46.908215993306023 ], [ 37.46323978684098, 46.909916368503566 ], [ 37.471902797005413, 46.912097588042187 ], [ 37.478192842730785, 46.913379850249129 ], [ 37.484489211486121, 46.914372895338545 ], [ 37.491935879889759, 46.915117508324293 ], [ 37.498822903294808, 46.915342200382959 ], [ 37.505633765416128, 46.915117428924916 ], [ 37.511135860915751, 46.91460013448728 ], [ 37.519864811795117, 46.913129083857129 ], [ 37.524687606000285, 46.911931300351327 ], [ 37.529335216450235, 46.910477796643136 ], [ 37.532353939987836, 46.909349556413062 ], [ 37.538571101907898, 46.90639646393096 ], [ 37.542591064597637, 46.903846698357597 ], [ 37.545084612970122, 46.901886058724173 ], [ 37.548783062789653, 46.89819468766575 ], [ 37.550234020015402, 46.896357520276389 ], [ 37.552947387456321, 46.891954513067773 ], [ 37.554649934833883, 46.887939948565233 ], [ 37.555488127087933, 46.885158861976919 ], [ 37.556467184374142, 46.879775803416933 ], [ 37.556725676143095, 46.876600346840419 ], [ 37.556692824278159, 46.871175627659817 ], [ 37.556285175582097, 46.866739639462729 ], [ 37.555571137639681, 46.862215088314954 ], [ 37.554418548619033, 46.857132777976169 ], [ 37.552263196618313, 46.8501597755426 ], [ 37.549032906713727, 46.841864955795941 ], [ 37.539344464546865, 46.819911476397365 ], [ 37.535774139484055, 46.810777568387529 ], [ 37.533624545056888, 46.804272728726311 ], [ 37.531671982163765, 46.797044829772602 ], [ 37.53016204311394, 46.789748724831959 ], [ 37.528724422651251, 46.779991943503653 ], [ 37.527764705010881, 46.77013973106655 ], [ 37.525658029133915, 46.739983868666535 ], [ 37.52461664066616, 46.729827708321139 ], [ 37.523352561495528, 46.719798352647757 ], [ 37.521175533579139, 46.705504208755926 ], [ 37.519355453375219, 46.695339104989067 ], [ 37.517173451421897, 46.685206840077718 ], [ 37.515995578618366, 46.680646147046396 ], [ 37.514503827784139, 46.675673858371809 ], [ 37.511492254448285, 46.667473991237038 ], [ 37.509009625784834, 46.661976622856315 ], [ 37.50484446559777, 46.65431752332767 ], [ 37.500828779109284, 46.647916718743453 ], [ 37.495804571828131, 46.640611888830364 ], [ 37.484049477964554, 46.624643662166122 ], [ 37.480592032619619, 46.619643179898361 ], [ 37.478386541651687, 46.616102886519919 ], [ 37.476515978904693, 46.612617991626195 ], [ 37.475105826121812, 46.609295483513371 ], [ 37.474428848690799, 46.607137617793661 ], [ 37.473774433344019, 46.601520032461217 ], [ 37.474730394113749, 46.597042127391873 ], [ 37.475609019560494, 46.595138962462329 ], [ 37.478647285348025, 46.591132336549272 ], [ 37.483137768956553, 46.587439652047188 ], [ 37.487119424580996, 46.585003214847426 ], [ 37.491547527536888, 46.582742131035062 ], [ 37.497220140524284, 46.580220960282503 ], [ 37.502828540538992, 46.577963206874848 ], [ 37.533327641688118, 46.566504402875076 ], [ 37.551962914062997, 46.558822723551579 ], [ 37.560537075373361, 46.554901585259863 ], [ 37.567803069269083, 46.55130483852944 ], [ 37.574420678388591, 46.547749143894528 ], [ 37.580474829155868, 46.544206620318128 ], [ 37.590026650939954, 46.537976668524777 ], [ 37.596995167006476, 46.532905333731861 ], [ 37.601651150671927, 46.529286100866585 ], [ 37.612986374873152, 46.519943380172002 ], [ 37.634970930975548, 46.500726530012209 ], [ 37.649978708140125, 46.487393699322354 ], [ 37.662285468648705, 46.476159966231386 ], [ 37.67593566757666, 46.463160289401394 ], [ 37.689694678088671, 46.449639565134653 ], [ 37.702774390947773, 46.436236417041243 ], [ 37.715514265044376, 46.422585804460141 ], [ 37.751790959614866, 46.382201741343536 ], [ 37.758540181842605, 46.375377009372329 ], [ 37.761804370384034, 46.372290642810469 ], [ 37.765294197353029, 46.36913888239161 ], [ 37.773329679828628, 46.362480562454756 ], [ 37.784387041395853, 46.354245111366019 ], [ 37.799309698380789, 46.34368765534952 ], [ 37.807269238769351, 46.337855710113956 ], [ 37.815613458918151, 46.331231444335195 ], [ 37.824444383162657, 46.323519832386566 ], [ 37.829885916981802, 46.318322857730479 ], [ 37.835980893767889, 46.312016992421334 ], [ 37.842057580368909, 46.305259580461716 ], [ 37.849286935983159, 46.296383249871468 ], [ 37.855076436548842, 46.288032878415599 ], [ 37.857761879323782, 46.283485391414928 ], [ 37.859980665521626, 46.279247255229734 ], [ 37.861478014733827, 46.276075428434908 ], [ 37.864293832554509, 46.269039127035832 ], [ 37.865138456944678, 46.266413794700298 ], [ 37.866537383994363, 46.26066900208054 ], [ 37.866839649717683, 46.258864020440697 ], [ 37.867384383946721, 46.249807497222207 ], [ 37.866722067714782, 46.241863349144872 ], [ 37.865659951652319, 46.23639297383032 ], [ 37.863975238525178, 46.230463119584861 ], [ 37.86113723357937, 46.22316328057925 ], [ 37.857660048636234, 46.216472247421009 ], [ 37.854399615820782, 46.211176345323722 ], [ 37.851469075234526, 46.206825700369791 ], [ 37.84809513247852, 46.20217180021158 ], [ 37.84371100575094, 46.196558705379466 ], [ 37.831786637912323, 46.181875217582814 ], [ 37.828843680267809, 46.178048571397341 ], [ 37.82615649012245, 46.174224865732619 ], [ 37.824071184255239, 46.17078193515443 ], [ 37.821773756006777, 46.165782909490623 ], [ 37.820600364451515, 46.161712613362447 ], [ 37.819956207310788, 46.157848067708976 ], [ 37.819658147531229, 46.151165717317426 ], [ 37.819963115873989, 46.146034376331002 ], [ 37.821366036571199, 46.135244567411355 ], [ 37.823998152291786, 46.119224926307375 ], [ 37.824555474673332, 46.111068028008717 ], [ 37.824394675665943, 46.097936656086631 ], [ 37.824505642838766, 46.093239459751231 ], [ 37.82480056252448, 46.089121042344651 ], [ 37.825393758460628, 46.084407692957534 ], [ 37.826176034332704, 46.079959317679219 ], [ 37.82849019541333, 46.070430967405692 ], [ 37.83140488655949, 46.061138297689531 ], [ 37.843817219904366, 46.02698430280968 ], [ 37.846609828400851, 46.018705911903801 ], [ 37.849292347927303, 46.009401812415042 ], [ 37.85135777851584, 46.001072726931881 ], [ 37.853007481362653, 45.992489230048655 ], [ 37.853858870055127, 45.986024175002669 ], [ 37.854381156955938, 45.979644030842501 ], [ 37.854603232583599, 45.973628077165749 ], [ 37.854350933335937, 45.962710028854588 ], [ 37.853524130677926, 45.952550673642676 ], [ 37.85299171862691, 45.948081643341425 ], [ 37.851759112990706, 45.939675637521006 ], [ 37.849978672464758, 45.929452902353944 ], [ 37.847720101192607, 45.918311948848569 ], [ 37.845217239702912, 45.907513519331665 ], [ 37.842153088198984, 45.896138753497027 ], [ 37.840287366058014, 45.889990216022589 ], [ 37.837071918532466, 45.880418114838982 ], [ 37.833168167483471, 45.870404114314013 ], [ 37.829747753387146, 45.862657177854722 ], [ 37.824905720251635, 45.852751914169673 ], [ 37.818025784700787, 45.840229459324043 ], [ 37.812434591760464, 45.831178329528782 ], [ 37.80868940907488, 45.825716436908067 ], [ 37.804875256104864, 45.820572216123054 ], [ 37.79678457838537, 45.810664512938295 ], [ 37.788802968153284, 45.801975876276657 ], [ 37.782105629387097, 45.79543624023723 ], [ 37.770389650918005, 45.785038472814101 ], [ 37.75949468103753, 45.77603660873028 ], [ 37.750365589427389, 45.768848655422019 ], [ 37.729506074505458, 45.753177583941138 ], [ 37.719746337198863, 45.746290536978528 ], [ 37.711912540138741, 45.741105945590306 ], [ 37.702070748892922, 45.735003800848958 ], [ 37.6895728900585, 45.727758610213186 ], [ 37.677115835694302, 45.720907183452546 ], [ 37.650199638686857, 45.706691456381861 ], [ 37.642464164107039, 45.702430487774514 ], [ 37.6349004645256, 45.697959796639793 ], [ 37.625448027741662, 45.691676886998039 ], [ 37.619534682498141, 45.687213468343799 ], [ 37.615428269683818, 45.683814058348524 ], [ 37.609523922422433, 45.678492692747184 ], [ 37.602987999865, 45.671917697886791 ], [ 37.598715558829348, 45.667035662685628 ], [ 37.591698785427603, 45.657721541809906 ], [ 37.584392991312583, 45.64637902974804 ], [ 37.568345886421604, 45.619923686663789 ], [ 37.561932329263264, 45.609697734602392 ], [ 37.554016448492582, 45.597769361693267 ], [ 37.547419330715954, 45.588685212901915 ], [ 37.540807174994917, 45.58078336166178 ], [ 37.535361805198015, 45.57504079094614 ], [ 37.532188857238417, 45.571995684350739 ], [ 37.527216357086161, 45.567678198370913 ], [ 37.523602403685594, 45.564885534171111 ], [ 37.520736856226137, 45.562859519755406 ], [ 37.514783101068808, 45.559115413274114 ], [ 37.508578732333824, 45.555791116255925 ], [ 37.504225407160732, 45.553769201425084 ], [ 37.499781207370745, 45.551933516854646 ], [ 37.494634051688948, 45.550065419296132 ], [ 37.489392401463377, 45.5484380911182 ], [ 37.482935467141616, 45.546805133834482 ], [ 37.476373332070601, 45.545519224240977 ], [ 37.470081247796813, 45.544605529434662 ], [ 37.462281401339176, 45.54387247722638 ], [ 37.454417516437466, 45.543509055973786 ], [ 37.443421702031266, 45.54351779805129 ], [ 37.430614839142947, 45.54410337204677 ], [ 37.405517292675441, 45.546044968376883 ], [ 37.393707845584174, 45.546706413849762 ], [ 37.382674978713908, 45.546728918626101 ], [ 37.374841048560448, 45.546239818239108 ], [ 37.365697016602567, 45.544986457980777 ], [ 37.357869192177603, 45.543364315346686 ], [ 37.350075808221213, 45.541412403971904 ], [ 37.32944494745422, 45.535691834604634 ], [ 37.31691702113536, 45.532413882977892 ], [ 37.298577441638081, 45.527874486030235 ], [ 37.289521376210992, 45.525849795528615 ], [ 37.274295429892518, 45.523056823127277 ], [ 37.261271142961569, 45.521094162057317 ], [ 37.245084505664003, 45.519247517819302 ], [ 37.2299382420318, 45.51815197673325 ], [ 37.209950605108638, 45.517153907613604 ], [ 37.176409329104466, 45.516040042853973 ], [ 37.162348094117455, 45.515331208414899 ], [ 37.150330648311915, 45.514366419029599 ], [ 37.143130339307625, 45.513508794152571 ], [ 37.136937367713038, 45.512555411056404 ], [ 37.130785110803373, 45.511385023179798 ], [ 37.124336715136707, 45.509902646901111 ], [ 37.11018420782365, 45.505934659201444 ], [ 37.097167144170669, 45.501740686538135 ], [ 37.063485587742541, 45.490303629833292 ], [ 37.043327472735314, 45.48383538769685 ], [ 37.023703579185302, 45.478211052102402 ], [ 37.009836040137365, 45.47473099708666 ], [ 37.001039751282981, 45.472771999236485 ], [ 36.992206437432351, 45.471025220505737 ], [ 36.979173784324942, 45.468905593910819 ], [ 36.96987601519654, 45.467740866334815 ], [ 36.962224885249711, 45.467007807054301 ], [ 36.949998062390982, 45.466211224558705 ], [ 36.941134833652491, 45.465907597869879 ], [ 36.921940516546627, 45.46586868392766 ], [ 36.903342640704743, 45.46643521318925 ], [ 36.877580669450658, 45.467814990591485 ], [ 36.826686495965028, 45.47114150155447 ], [ 36.802803780734493, 45.472233466697787 ], [ 36.783629741236581, 45.472758021840043 ], [ 36.763758543337495, 45.472897981473253 ], [ 36.750034085777642, 45.47266980636828 ], [ 36.695585745808359, 45.470325163471259 ], [ 36.669990056255706, 45.469878264533953 ], [ 36.649999147725104, 45.470062368688531 ], [ 36.635958915471747, 45.470432231075414 ], [ 36.621551918165764, 45.471014897448953 ], [ 36.598182212102799, 45.472281076419343 ], [ 36.570015265252437, 45.474127144213462 ], [ 36.550028096414778, 45.475759924824807 ], [ 36.520666207435134, 45.478746099449687 ], [ 36.498171016422603, 45.481533909213731 ], [ 36.418187601302847, 45.493110151107444 ], [ 36.39549692710608, 45.496640962766563 ], [ 36.380480909550506, 45.499228530996504 ], [ 36.344272189148924, 45.506256191070563 ], [ 36.32312511013901, 45.509865730852134 ], [ 36.304148738745155, 45.512516654221614 ], [ 36.28989375956084, 45.513941584416933 ], [ 36.269981569928341, 45.515226261343528 ], [ 36.255499225559824, 45.515847711938783 ], [ 36.236107852471228, 45.516417990534194 ], [ 36.216701122312791, 45.516705896142291 ], [ 36.190023374197494, 45.516620669336383 ], [ 36.124979200094174, 45.515348252489211 ], [ 36.089992421090749, 45.515040341704093 ], [ 36.049987838232575, 45.515325080589008 ], [ 36.015918590202681, 45.51623650315198 ], [ 36.003124895528885, 45.516801285871516 ], [ 35.985166092971966, 45.517868780620887 ], [ 35.968063298946163, 45.519207853004538 ], [ 35.951349749404272, 45.520819958333881 ], [ 35.935107569741817, 45.522668781210406 ], [ 35.919170349285906, 45.524753670703085 ], [ 35.889986335715172, 45.529259877315461 ], [ 35.849951490442038, 45.536298842777427 ], [ 35.821621714908147, 45.541818419905937 ], [ 35.80219514742074, 45.5462198650118 ], [ 35.762280006218802, 45.556123236166272 ], [ 35.730005622337366, 45.564813959170692 ], [ 35.710304053829603, 45.570665311819667 ], [ 35.702713900249378, 45.573149246676422 ], [ 35.690105499948892, 45.577569235046539 ], [ 35.664717220943977, 45.587215162322146 ], [ 35.650019635196493, 45.593117469186147 ], [ 35.630032734819132, 45.601578789092144 ], [ 35.604946942243913, 45.612858597837516 ], [ 35.5879382124687, 45.620948584389602 ], [ 35.576024272137595, 45.627018271343033 ], [ 35.565170067264212, 45.632779688011212 ], [ 35.517913607484431, 45.658787417047478 ], [ 35.449238633582631, 45.695044249682333 ], [ 35.439948999916588, 45.699746586807713 ], [ 35.410219920709451, 45.714115719023319 ], [ 35.370255753220832, 45.735201640252278 ], [ 35.356079435238392, 45.743420761869025 ], [ 35.347771142506694, 45.74864575281984 ], [ 35.338452719990755, 45.754778703215123 ], [ 35.331612216056953, 45.759600344202909 ], [ 35.327219829856041, 45.762932051556938 ], [ 35.317366739846868, 45.77123552707198 ], [ 35.307960229777869, 45.779993145479096 ], [ 35.295349838603642, 45.792371598524653 ], [ 35.288457491217045, 45.79937344656804 ], [ 35.276169923100973, 45.81242476795429 ], [ 35.269889166719388, 45.818726993350843 ], [ 35.250831212038662, 45.836386575835249 ], [ 35.238754040309466, 45.847915661269077 ], [ 35.218983787880092, 45.865845592996884 ], [ 35.211084498928017, 45.873450719459449 ], [ 35.193334568256738, 45.891743705729453 ], [ 35.187220209499316, 45.897826366093504 ], [ 35.180080495052344, 45.904521840180188 ], [ 35.173035855186463, 45.910762961374566 ], [ 35.166206412797223, 45.916473573696173 ], [ 35.143747864721114, 45.933814842701494 ], [ 35.140093003024901, 45.936873473915227 ], [ 35.134028776449377, 45.942420112913574 ], [ 35.129089120500865, 45.947836653282657 ], [ 35.12543396453799, 45.953314499172471 ], [ 35.123775956200909, 45.957004541214793 ], [ 35.121823285561952, 45.963239491919353 ], [ 35.11814867588641, 45.976925238157413 ], [ 35.112865376203018, 45.992617627831549 ], [ 35.110181814073087, 46.002736929653828 ], [ 35.10909330444705, 46.008521329375377 ], [ 35.108725362804954, 46.012064969164562 ], [ 35.108635955848683, 46.01542450336585 ], [ 35.109220608773384, 46.02320990076111 ], [ 35.110442420469369, 46.029588245587746 ], [ 35.112445003575722, 46.036196330159456 ], [ 35.114544859801896, 46.041602682438118 ], [ 35.117997397784009, 46.04897162135741 ], [ 35.120441241524595, 46.053434260439069 ], [ 35.123742212206658, 46.058808110917312 ], [ 35.129437721804038, 46.066808198649035 ], [ 35.132157971906686, 46.070105194208956 ], [ 35.136673299157891, 46.075031370186032 ], [ 35.139539132864805, 46.077893289215936 ], [ 35.144331722662322, 46.082342278152723 ], [ 35.149316926841429, 46.086659984002544 ], [ 35.161146810575332, 46.096192678896493 ], [ 35.179733260363555, 46.110185172160129 ], [ 35.191228149100994, 46.118455271357668 ], [ 35.20267067524167, 46.126188311692303 ], [ 35.216150899106388, 46.134760811317555 ], [ 35.222192324642243, 46.138421006154964 ], [ 35.249078588327308, 46.154019082485071 ], [ 35.255803136251231, 46.158167598255751 ], [ 35.262347509005103, 46.162516256818364 ], [ 35.267480020182582, 46.166237104048747 ], [ 35.271836768837467, 46.169667743823645 ], [ 35.276037535150095, 46.173261184781154 ], [ 35.279768560549641, 46.176738408537702 ], [ 35.284586176420618, 46.181669512298178 ], [ 35.290079702257835, 46.187726140878439 ], [ 35.30465073510247, 46.204584012871663 ], [ 35.315383277256672, 46.217508653391675 ], [ 35.3210315276892, 46.224886230601875 ], [ 35.32592702379263, 46.231850133670726 ], [ 35.336691204083429, 46.248742535973591 ], [ 35.342333853380573, 46.257011341811243 ], [ 35.346098417980301, 46.261892166724103 ], [ 35.351338854149041, 46.268021152760632 ], [ 35.357438321312365, 46.27446671928567 ], [ 35.362511277782787, 46.279448836767401 ], [ 35.370707492327732, 46.287008848323779 ], [ 35.379648124692459, 46.294679881338148 ], [ 35.391104997994042, 46.303695788329378 ], [ 35.404006984592378, 46.312846672659802 ], [ 35.436114866703903, 46.334146321582473 ], [ 35.445985587585973, 46.34114699310782 ], [ 35.454510206796293, 46.347617498283896 ], [ 35.462505212067242, 46.354240792147479 ], [ 35.466441842950523, 46.3577790487643 ], [ 35.472362842788954, 46.363577665169672 ], [ 35.48578490085302, 46.378294636684416 ], [ 35.493215521000145, 46.385659012056557 ], [ 35.498559047001315, 46.390426532297589 ], [ 35.508901731033916, 46.398797023441318 ], [ 35.518457464197283, 46.405882040512743 ], [ 35.537851564780908, 46.419446469279116 ], [ 35.553331974632975, 46.429620990674842 ], [ 35.580234766926722, 46.446716554562656 ], [ 35.588811657552725, 46.452560112698421 ], [ 35.609846029927489, 46.467398802661961 ], [ 35.618945955638871, 46.473232575214695 ], [ 35.626204220529743, 46.47739862298382 ], [ 35.636082225129826, 46.482468728657139 ], [ 35.669171008235679, 46.497991814943532 ], [ 35.702616249087406, 46.514200401968758 ], [ 35.713329252046684, 46.518931739498761 ], [ 35.721894572919602, 46.522313192241405 ], [ 35.730573687710738, 46.525333054049426 ], [ 35.740492144071624, 46.528238716099366 ], [ 35.74548441957316, 46.52947984364797 ], [ 35.750509717761283, 46.53057036766532 ], [ 35.758907205998547, 46.532023471909959 ], [ 35.764486196247859, 46.532754306344053 ], [ 35.770091079545537, 46.533322363119048 ], [ 35.781167533105766, 46.534038868050715 ], [ 35.789875953736761, 46.534330820873343 ], [ 35.799524484964614, 46.534439708008883 ], [ 35.831706960703507, 46.53424296314801 ], [ 35.87670945955648, 46.535916596770292 ], [ 35.890166746916279, 46.536045673889191 ], [ 35.899276512920849, 46.535895110809307 ], [ 35.924380261001261, 46.534987393589979 ], [ 35.938857077135161, 46.534097779425615 ], [ 35.949944171685694, 46.532977138438497 ], [ 35.957280877625834, 46.531913380605303 ], [ 35.964541563683348, 46.530556480083128 ], [ 35.969369075670699, 46.529460977412995 ], [ 35.97577308736988, 46.527734979091647 ], [ 35.984336763515223, 46.524900815623042 ], [ 35.988483617845532, 46.523282002275124 ], [ 35.995170386759078, 46.520280839551319 ], [ 36.004404283915129, 46.515299800881607 ], [ 36.012604257548887, 46.510018233025491 ], [ 36.021329487568366, 46.503645807448208 ], [ 36.06305283436145, 46.470658138099687 ], [ 36.073922228642211, 46.462547348115905 ], [ 36.082119140073715, 46.456830547047858 ], [ 36.090654713789448, 46.451342122163616 ], [ 36.100206392349904, 46.445636246047052 ], [ 36.111006802382967, 46.439879586132299 ], [ 36.120214802277623, 46.435458965935943 ], [ 36.131212933598469, 46.430834877642262 ], [ 36.144248873126678, 46.425996650631191 ], [ 36.151094837500551, 46.423709483831729 ], [ 36.163107024706051, 46.42005095013247 ], [ 36.176106827902828, 46.416626388348476 ], [ 36.186127940486593, 46.414580616077039 ], [ 36.191004788869876, 46.413864850102357 ], [ 36.196652623386363, 46.413327069519561 ], [ 36.202194138213905, 46.41314345430299 ], [ 36.209026727851487, 46.413477020892081 ], [ 36.212581337117932, 46.413945314040141 ], [ 36.219037019016419, 46.415407690727434 ], [ 36.224928881965241, 46.417614899313897 ], [ 36.230445940035253, 46.42085692064358 ], [ 36.234555990605855, 46.424644743110761 ], [ 36.237539966911029, 46.429113182715966 ], [ 36.239115078066092, 46.433357495059333 ], [ 36.239719973652271, 46.43691199477643 ], [ 36.239879371463495, 46.439571084452716 ], [ 36.239590513320863, 46.446425066469693 ], [ 36.238893877178427, 46.453659735591707 ], [ 36.238480818229519, 46.460198032463303 ], [ 36.238543307174837, 46.465751751487019 ], [ 36.238758819135413, 46.468480882853655 ], [ 36.239548996779703, 46.473598178639399 ], [ 36.240333090538364, 46.476846761514707 ], [ 36.243059050522859, 46.484402539227055 ], [ 36.244372472393756, 46.487202318192274 ], [ 36.246841547420615, 46.491714008001622 ], [ 36.250212070198955, 46.496903587228239 ], [ 36.253858891824613, 46.501666456074076 ], [ 36.259767261190262, 46.508202820553628 ], [ 36.264974662766861, 46.513230172006367 ], [ 36.271616491858921, 46.518992369715612 ], [ 36.279740065280031, 46.525339829108958 ], [ 36.290260058243327, 46.532740285657887 ], [ 36.299336818366363, 46.538412125394025 ], [ 36.310369163027538, 46.5444572716397 ], [ 36.317753571451831, 46.548009915917746 ], [ 36.329923477575136, 46.553171479405044 ], [ 36.339182096701812, 46.55668064508464 ], [ 36.36887388513226, 46.567431608101792 ], [ 36.381338533031517, 46.572453303631761 ], [ 36.389064057686447, 46.575869095195934 ], [ 36.435345641396424, 46.597394475872889 ], [ 36.449261344117332, 46.604018178519773 ], [ 36.457288185125861, 46.60810583518208 ], [ 36.468742412300934, 46.614481052248379 ], [ 36.480805971961303, 46.621991371560476 ], [ 36.493202751190523, 46.630524928253266 ], [ 36.510990976474282, 46.643854062763658 ], [ 36.523898585249938, 46.652872149547541 ], [ 36.533063998819756, 46.658554213515458 ], [ 36.54125501045764, 46.662999288220917 ], [ 36.549665160368434, 46.666912154053463 ], [ 36.558048208574419, 46.670115221263501 ], [ 36.564384063960667, 46.672086496192769 ], [ 36.570809842563108, 46.673699931087739 ], [ 36.576261917859256, 46.674761895386851 ], [ 36.583174880001138, 46.675723405842461 ], [ 36.592270808199785, 46.676350798798261 ], [ 36.600938347802824, 46.67628799765982 ], [ 36.609614464223583, 46.675629584456416 ], [ 36.614687730276259, 46.674978854183472 ], [ 36.624641763096115, 46.673204475466555 ], [ 36.629517697993769, 46.67211855002769 ], [ 36.638154150865226, 46.669872581056246 ], [ 36.649495060847272, 46.666380591980818 ], [ 36.657598607707058, 46.663521137589164 ], [ 36.669266823269126, 46.658861863176917 ], [ 36.679924832367767, 46.654035253007763 ], [ 36.688710736139875, 46.649607727725396 ], [ 36.699014151420172, 46.643903200348994 ], [ 36.716079151093751, 46.634059548575486 ], [ 36.725325884317911, 46.629166873722369 ], [ 36.731608032055057, 46.626258315232469 ], [ 36.737700622315579, 46.623824847935907 ], [ 36.744825882329948, 46.621523523476057 ], [ 36.7510590416179, 46.620045275203211 ], [ 36.755864783731262, 46.619247301057207 ], [ 36.760692278409444, 46.618733858775826 ], [ 36.769702684951284, 46.618548871864157 ], [ 36.777019835401589, 46.619212310401622 ], [ 36.784797993949127, 46.621120639451519 ], [ 36.789605311799797, 46.622906168127443 ], [ 36.793783858043795, 46.62481432646927 ], [ 36.803575831993527, 46.630525528085577 ], [ 36.812976745210534, 46.637636959576 ], [ 36.81549707527379, 46.639836875573728 ], [ 36.821597865971732, 46.645729921936898 ], [ 36.827124716859728, 46.651843790195493 ], [ 36.831687184522934, 46.657563508524305 ], [ 36.835612521159845, 46.663083867872842 ], [ 36.83858211489914, 46.667729744002507 ], [ 36.842223823798776, 46.674169439035644 ], [ 36.843997123671159, 46.677780623164452 ], [ 36.844829757452317, 46.680000000003929 ] ] ] } },
{ "type": "Feature", "properties": { "gid": 2, "objectid": 2.0, "z": 20.0, "index": 0.0, "shape_leng": 5.0511680420099996 }, "geometry": { "type": "MultiLineString", "coordinates": [ [ [ 35.556663381899853, 45.913331690951964 ], [ 35.555782452970014, 45.913566151957959 ], [ 35.553924360200583, 45.914399836913589 ], [ 35.547727275142705, 45.917734465120397 ], [ 35.52666018433235, 45.930422511426563 ], [ 35.517596208534947, 45.936099511033696 ], [ 35.470006660439694, 45.967792332669624 ], [ 35.464290301141496, 45.971884230753822 ], [ 35.459792779360704, 45.975339975108774 ], [ 35.449157391980116, 45.983940598298119 ], [ 35.444206431739985, 45.988193314634238 ], [ 35.436998873174865, 45.995051591245499 ], [ 35.430787185318991, 46.001881771154089 ], [ 35.42344839126816, 46.010896495305779 ], [ 35.416041386767844, 46.020445663009063 ], [ 35.410452246192065, 46.028329869322604 ], [ 35.407416753080128, 46.03306178656522 ], [ 35.402999087667112, 46.040769434592576 ], [ 35.400527107934657, 46.045588868115217 ], [ 35.396958897336027, 46.053490882478528 ], [ 35.394509645548709, 46.059814419859933 ], [ 35.390899914300157, 46.070891080061514 ], [ 35.388732940166662, 46.080373973830064 ], [ 35.387448387829124, 46.089233902988681 ], [ 35.386609192800385, 46.098086170336607 ], [ 35.386384862538527, 46.101986395813036 ], [ 35.386263875443341, 46.109381156497228 ], [ 35.386752886218538, 46.118866672120113 ], [ 35.38773635464679, 46.127062509732013 ], [ 35.389751749850078, 46.140469414827258 ], [ 35.391720407429283, 46.150627518468134 ], [ 35.393873312720636, 46.160195541669786 ], [ 35.397086490900492, 46.170977635539685 ], [ 35.400238238417913, 46.179762368399942 ], [ 35.402439820913301, 46.185012100242552 ], [ 35.404519145005892, 46.189454004152182 ], [ 35.408987848072613, 46.197698570521283 ], [ 35.412415140913197, 46.202918554674191 ], [ 35.415480707375927, 46.207054386476749 ], [ 35.421060380494218, 46.213806416356427 ], [ 35.426915120920341, 46.219998037993193 ], [ 35.432291430525268, 46.224863503572578 ], [ 35.435430537211928, 46.227403828330772 ], [ 35.442283032304807, 46.232368863188285 ], [ 35.449490179614628, 46.236923893988134 ], [ 35.456112669155551, 46.240628578993892 ], [ 35.463109481686402, 46.24415064879868 ], [ 35.470247096280652, 46.247415754029241 ], [ 35.480338437413742, 46.251609513716055 ], [ 35.49527169309814, 46.257511547206427 ], [ 35.501335827380558, 46.260066544115595 ], [ 35.506970708126197, 46.262700714225574 ], [ 35.512780729590048, 46.265820765629663 ], [ 35.519149566798291, 46.269899206404936 ], [ 35.5251071666233, 46.274484620177013 ], [ 35.52956726947972, 46.278500948227013 ], [ 35.533149198023523, 46.282059046521404 ], [ 35.538303280961202, 46.287614959878752 ], [ 35.541922628258156, 46.291856927727011 ], [ 35.545729783457439, 46.296674607703842 ], [ 35.54979319751714, 46.302346652311662 ], [ 35.559911337560038, 46.318134773178855 ], [ 35.563536808289477, 46.323151994086828 ], [ 35.566444188005505, 46.326784250475683 ], [ 35.569835130200651, 46.330607338527038 ], [ 35.573433888713964, 46.334279168449612 ], [ 35.577551856692999, 46.338104106645538 ], [ 35.583219217353943, 46.342854927320523 ], [ 35.591493300727734, 46.348961530503317 ], [ 35.598882448554036, 46.353732127186859 ], [ 35.606573406782324, 46.358111170638296 ], [ 35.616864666492262, 46.363140048518062 ], [ 35.622947747986942, 46.365758016748103 ], [ 35.629962644318603, 46.368531887532825 ], [ 35.641475969246443, 46.372646217909697 ], [ 35.655817037248717, 46.377312299068869 ], [ 35.668716386690654, 46.381261276023452 ], [ 35.681142234819802, 46.384812160237139 ], [ 35.689942332217839, 46.387080220602762 ], [ 35.69840943362648, 46.388994772996213 ], [ 35.710074027239244, 46.391121573078095 ], [ 35.722679501077899, 46.392706310597838 ], [ 35.735346461826374, 46.393612267440858 ], [ 35.749822082831244, 46.393872495663167 ], [ 35.758343624346367, 46.393681234263887 ], [ 35.769796765248003, 46.393069519795567 ], [ 35.786793981671856, 46.391560710573827 ], [ 35.807199355581801, 46.389024426352456 ], [ 35.829903943838843, 46.385590702670029 ], [ 35.936114724751235, 46.367419700800568 ], [ 35.970077907350841, 46.361892238753924 ], [ 35.993894810790074, 46.358422216458514 ], [ 36.050010394869865, 46.350979148853867 ], [ 36.063036041224457, 46.349039308900579 ], [ 36.076434138998096, 46.346798405323305 ], [ 36.089982303123961, 46.344271659429708 ], [ 36.109927528689305, 46.340078782469597 ], [ 36.125358919642053, 46.336387838826063 ], [ 36.170436246029496, 46.3249375492748 ], [ 36.176034395361725, 46.323719300681205 ], [ 36.185821218680324, 46.321971070933913 ], [ 36.19287836441282, 46.321092466526018 ], [ 36.201336832150886, 46.320536904679763 ], [ 36.209741398898963, 46.32060434298667 ], [ 36.217173935502302, 46.32127070505922 ], [ 36.22449759640255, 46.322538319841371 ], [ 36.228432554230366, 46.32349816832528 ], [ 36.232747032800162, 46.32480367741551 ], [ 36.240014938614181, 46.327567174327349 ], [ 36.249088295508379, 46.331870253515667 ], [ 36.256902112145603, 46.336217206592771 ], [ 36.264507343749663, 46.340930101047526 ], [ 36.273763686446678, 46.347266394825752 ], [ 36.282472942396758, 46.353782037980643 ], [ 36.29503199242081, 46.363521322624756 ], [ 36.304696334307934, 46.370555664367501 ], [ 36.31119885200625, 46.374711014666417 ], [ 36.317509568835433, 46.378160784940839 ], [ 36.321906077867268, 46.380237162761489 ], [ 36.326937673268581, 46.382315586605024 ], [ 36.332075664620561, 46.384143124736198 ], [ 36.338037956384227, 46.385929188819134 ], [ 36.344620418017861, 46.387540038944259 ], [ 36.351299279619653, 46.388837282292471 ], [ 36.358007711934405, 46.389839475164912 ], [ 36.370847170423851, 46.391123361377346 ], [ 36.398532612878725, 46.392578369285644 ], [ 36.40643633859797, 46.393147935042201 ], [ 36.417013781225798, 46.394400694768585 ], [ 36.424085598980021, 46.395737310908466 ], [ 36.427555718630188, 46.396603047090757 ], [ 36.432477575241435, 46.398135996549414 ], [ 36.437122733419514, 46.39998287240612 ], [ 36.443106215662759, 46.403178847451237 ], [ 36.446691228674631, 46.405822081051099 ], [ 36.448328841525182, 46.407319416507924 ], [ 36.452113400446535, 46.411604890252292 ], [ 36.4534002691978, 46.41332057537074 ], [ 36.456901910711963, 46.418478678870578 ], [ 36.470153080738257, 46.438963223402602 ], [ 36.473961289917497, 46.44512096085419 ], [ 36.477359994210538, 46.45140358057116 ], [ 36.480229878074496, 46.45825056306721 ], [ 36.481278208935336, 46.461661864414857 ], [ 36.48216273671143, 46.465546476064304 ], [ 36.483139194235982, 46.471795287898736 ], [ 36.484872259437445, 46.485649937679526 ], [ 36.486243223489986, 46.492845892008937 ], [ 36.487695893670931, 46.497578681470507 ], [ 36.489364034980127, 46.501442017474112 ], [ 36.491416476931199, 46.505179115800416 ], [ 36.493564142601763, 46.508446203477035 ], [ 36.495255773638277, 46.510722307442165 ], [ 36.498484901105336, 46.514562646793578 ], [ 36.502036213564608, 46.518231585118748 ], [ 36.506751102655748, 46.522453881573796 ], [ 36.511839681325498, 46.526391439733793 ], [ 36.518912112448831, 46.531052388463031 ], [ 36.523253719358387, 46.533530739899028 ], [ 36.529120369282928, 46.536451558531475 ], [ 36.533551073025322, 46.538344740972178 ], [ 36.541517188203684, 46.541191377931298 ], [ 36.549743584023261, 46.543548447603662 ], [ 36.556807784356785, 46.545199197165864 ], [ 36.569264257853966, 46.547473764039871 ], [ 36.578327177935456, 46.54874369628142 ], [ 36.589629044673927, 46.549983040292389 ], [ 36.609356946580256, 46.551461673844003 ], [ 36.663036905426551, 46.554051937243607 ], [ 36.678998165323343, 46.555095317859134 ], [ 36.689794592651594, 46.556010632383781 ], [ 36.703048903641076, 46.557467040380139 ], [ 36.716292633888443, 46.559380180678573 ], [ 36.729331374471748, 46.561844845137081 ], [ 36.741575252086868, 46.56476390235737 ], [ 36.755285764850136, 46.568606764008578 ], [ 36.7700711155791, 46.573333211266117 ], [ 36.78810269563899, 46.579599812304906 ], [ 36.809947654563864, 46.587674422411652 ], [ 36.825699017362901, 46.593789113246125 ], [ 36.83569932513376, 46.597984742037113 ], [ 36.857566794091348, 46.607613438790594 ], [ 36.883261629125194, 46.61921441517844 ], [ 36.891249188551512, 46.622613746769154 ], [ 36.898212395240932, 46.625315587327094 ], [ 36.910409159332907, 46.629618226257634 ], [ 36.923764484053855, 46.633783677684328 ], [ 36.930490935929029, 46.635607269755212 ], [ 36.941304485823444, 46.63806391638559 ], [ 36.949947408853788, 46.639613753731723 ], [ 36.960220709681671, 46.64092747604937 ], [ 36.965007643249287, 46.641295773547512 ], [ 36.969788776545904, 46.641478958665928 ], [ 36.978815154581767, 46.641325813430385 ], [ 36.996266899419894, 46.640312914941994 ], [ 37.002307754381718, 46.640122300136092 ], [ 37.010001576557087, 46.640240608750631 ], [ 37.017896658409505, 46.640936529917319 ], [ 37.025773072314074, 46.642117614362867 ], [ 37.034783362374597, 46.643894084154695 ], [ 37.041938024987516, 46.645598148194011 ], [ 37.049023995514446, 46.647598488926022 ], [ 37.056918003127706, 46.650287106757929 ], [ 37.064625781144777, 46.653481520612111 ], [ 37.069342604437637, 46.655777586231473 ], [ 37.074643031852617, 46.658674713031246 ], [ 37.079871084712913, 46.661772408614183 ], [ 37.096386777875722, 46.671981190514764 ], [ 37.110930433543913, 46.68046718711313 ], [ 37.119101800207545, 46.684946131080572 ], [ 37.127400268270108, 46.689186506319409 ], [ 37.138089121367322, 46.694021492711173 ], [ 37.144552374908365, 46.696565280763437 ], [ 37.151564516938102, 46.698996504922135 ], [ 37.158738168786655, 46.701111866096191 ], [ 37.165138041724397, 46.702668643525953 ], [ 37.171584111129597, 46.703897687198229 ], [ 37.178051611506717, 46.704763644438657 ], [ 37.184534542869123, 46.705274527044317 ], [ 37.191065099039164, 46.705431037168523 ], [ 37.197697736605043, 46.705200045822259 ], [ 37.204268235222777, 46.704556396751087 ], [ 37.21023068924071, 46.703573395829324 ], [ 37.217696746048858, 46.70173982845386 ], [ 37.223555441602599, 46.699815795269515 ], [ 37.229235673270118, 46.69749798972358 ], [ 37.233790702885187, 46.695267173304885 ], [ 37.238138044355487, 46.692795366177272 ], [ 37.24257328245217, 46.689878409462921 ], [ 37.246763899344842, 46.686659410141317 ], [ 37.253221506844156, 46.680460052584117 ], [ 37.256014799211179, 46.677147727047441 ], [ 37.258450633543127, 46.673833188997222 ], [ 37.262752096589828, 46.666718774095777 ], [ 37.266235127151425, 46.659192478174738 ], [ 37.267901283431335, 46.654621637110942 ], [ 37.269289047472853, 46.650059687205214 ], [ 37.27120119116109, 46.641975475485914 ], [ 37.272556528723463, 46.63343338422748 ], [ 37.273087218033858, 46.627165467068266 ], [ 37.273217676626146, 46.620869544076974 ], [ 37.272979665003803, 46.61490110162147 ], [ 37.272656415693049, 46.61125024393975 ], [ 37.271696837895959, 46.604470023468714 ], [ 37.270644743286333, 46.599174523027521 ], [ 37.26884711174403, 46.59211034687312 ], [ 37.266351474229928, 46.58435291353954 ], [ 37.259508619711063, 46.566439503161078 ], [ 37.257801948253693, 46.561530825486344 ], [ 37.256793074516395, 46.558068065240981 ], [ 37.255449840525593, 46.550366520528179 ], [ 37.255366131522401, 46.548412367362111 ], [ 37.255849631854964, 46.542709623849788 ], [ 37.256378923145128, 46.540505233756441 ], [ 37.258432796827762, 46.535526896817146 ], [ 37.260256607385266, 46.532670371090198 ], [ 37.264423107393888, 46.528008830770347 ], [ 37.269582001092765, 46.523824993783713 ], [ 37.273790096783038, 46.52107708698825 ], [ 37.27783333845997, 46.51877488410021 ], [ 37.286471842978109, 46.514499808553964 ], [ 37.309609170349177, 46.504407398424128 ], [ 37.317189496505826, 46.500850261527134 ], [ 37.324592170671998, 46.49699913460897 ], [ 37.328447072680348, 46.494778281253986 ], [ 37.335380390969078, 46.490279937785722 ], [ 37.341311243606313, 46.485738947186576 ], [ 37.346469412918538, 46.481005330292838 ], [ 37.351050737181986, 46.475893566953125 ], [ 37.354673127540728, 46.470943493816868 ], [ 37.357169498273848, 46.466845001676568 ], [ 37.358784628708129, 46.463746740227791 ], [ 37.361209164953699, 46.458079119731096 ], [ 37.361907261639459, 46.45610672650912 ], [ 37.363843342457827, 46.449075534025823 ], [ 37.364659859577699, 46.444566328823065 ], [ 37.365182200322067, 46.439647583502179 ], [ 37.36516065428232, 46.430600339258945 ], [ 37.363925444200362, 46.421363475643417 ], [ 37.361495072874682, 46.412236971322955 ], [ 37.359821491216863, 46.40773759732798 ], [ 37.355440216407317, 46.398352238726737 ], [ 37.351799168924714, 46.391872341815414 ], [ 37.348580952917636, 46.386847930081224 ], [ 37.345578376821855, 46.382639482952897 ], [ 37.339430059807405, 46.375071878852182 ], [ 37.336028830651628, 46.371291928388203 ], [ 37.330608884829026, 46.365661414539986 ], [ 37.324989357385974, 46.360187011596722 ], [ 37.281534237065181, 46.320038301739508 ], [ 37.268179704510487, 46.3082257273416 ], [ 37.254171787748845, 46.296497582191691 ], [ 37.246148360903739, 46.290223000451213 ], [ 37.239846822819871, 46.285565524619678 ], [ 37.232763526228716, 46.280654751207059 ], [ 37.223545253345883, 46.274802470722676 ], [ 37.217794081745808, 46.271479234639735 ], [ 37.209278353093914, 46.267018841675423 ], [ 37.20297353187555, 46.264044034448034 ], [ 37.196585139894083, 46.261281371979464 ], [ 37.188956983167465, 46.258312975286913 ], [ 37.181409119249096, 46.255785288516599 ], [ 37.17375220564417, 46.253642864970985 ], [ 37.166395448523019, 46.251979726270463 ], [ 37.158036309504872, 46.25049583504677 ], [ 37.144157664347269, 46.248719187082166 ], [ 37.125730015785386, 46.246857679036374 ], [ 37.118702082192556, 46.245985234681051 ], [ 37.111856988018452, 46.244839107460827 ], [ 37.108888299658318, 46.244203770356769 ], [ 37.101732168406905, 46.242208474082084 ], [ 37.095006378716199, 46.239443453708652 ], [ 37.090963794725099, 46.237169311077317 ], [ 37.087099916489777, 46.234547437207539 ], [ 37.08457242831328, 46.232620225955607 ], [ 37.079439143723192, 46.228297128766499 ], [ 37.065217828803739, 46.215269664753215 ], [ 37.05691673337526, 46.208238048461716 ], [ 37.042613196620579, 46.197154290858855 ], [ 37.032609607028114, 46.189695816013106 ], [ 37.021969439756859, 46.182048932980166 ], [ 37.016262819713972, 46.177602189721128 ], [ 37.012577031678063, 46.174198737382298 ], [ 37.006669583677528, 46.16730489993887 ], [ 37.003690439163883, 46.163057034987602 ], [ 37.000533244199211, 46.157674189884418 ], [ 36.997146059037746, 46.149995354970351 ], [ 36.995799723666536, 46.14576486266369 ], [ 36.994290424683619, 46.137956984586609 ], [ 36.994002012636692, 46.130633403186451 ], [ 36.99429059755267, 46.126222680850638 ], [ 36.995152580448675, 46.119871241032477 ], [ 36.997024580442122, 46.11056773598493 ], [ 37.000765254232029, 46.096431703274668 ], [ 37.01781326517149, 46.041494952400399 ], [ 37.021887009019899, 46.029047702993232 ], [ 37.024631515795491, 46.019836393788495 ], [ 37.027324865604271, 46.009888821695739 ], [ 37.030638949765724, 45.995592077538973 ], [ 37.032374154988133, 45.98720315347601 ], [ 37.033658548694014, 45.979532334178245 ], [ 37.034514060429025, 45.972945710822486 ], [ 37.035270370877313, 45.962698141777786 ], [ 37.03541193973561, 45.949881882917886 ], [ 37.034964284198416, 45.940140231996267 ], [ 37.034025067107834, 45.930392851475681 ], [ 37.032573924016027, 45.921554978455276 ], [ 37.030507030133705, 45.91228028014902 ], [ 37.028184433417245, 45.904477040082362 ], [ 37.025583438508718, 45.897226658893153 ], [ 37.02262277436737, 45.889847729587558 ], [ 37.02059663935389, 45.885211598585322 ], [ 37.016628393626782, 45.876867642462017 ], [ 37.009814345350115, 45.864055819399923 ], [ 37.00355793562013, 45.853820894195593 ], [ 36.998203301269349, 45.846341337798997 ], [ 36.990860651739155, 45.837090881236961 ], [ 36.985559507768009, 45.830795657815344 ], [ 36.980690764764873, 45.825387955430962 ], [ 36.975044336652239, 45.81943948448388 ], [ 36.966747059738793, 45.811125336128171 ], [ 36.9579882858663, 45.803162043271541 ], [ 36.951570719274152, 45.797978689018322 ], [ 36.93789927808821, 45.78746950716414 ], [ 36.930695197626264, 45.781645616053005 ], [ 36.926228393312073, 45.778408852278332 ], [ 36.914501596351634, 45.770881048902417 ], [ 36.897475506416015, 45.760542813043472 ], [ 36.889256440838977, 45.756027198841252 ], [ 36.884137796415963, 45.753407134370285 ], [ 36.879698099952911, 45.751252285165187 ], [ 36.86974500746819, 45.746820024417943 ], [ 36.86121896931342, 45.74337955439438 ], [ 36.850165824589837, 45.739285017242267 ], [ 36.83774173931991, 45.735088886816214 ], [ 36.830289544014555, 45.732747087926541 ], [ 36.81555283004527, 45.728458730469704 ], [ 36.803683926328937, 45.725308306839224 ], [ 36.79010392297004, 45.722043301666879 ], [ 36.783026527930893, 45.720503834983681 ], [ 36.763150459078588, 45.716740515926439 ], [ 36.75013967565733, 45.714634122240895 ], [ 36.735713975006746, 45.712518279132347 ], [ 36.708332799269066, 45.708857789892662 ], [ 36.63718687384825, 45.699953408672812 ], [ 36.602139273784964, 45.695840595622023 ], [ 36.576276159271579, 45.693168193641853 ], [ 36.560515711933839, 45.691762678974918 ], [ 36.54995989732253, 45.690964541125737 ], [ 36.529981497863254, 45.689863991175827 ], [ 36.511885342718969, 45.689294392240662 ], [ 36.499093723620817, 45.689108421865569 ], [ 36.479047789733322, 45.689107706988452 ], [ 36.460152062649286, 45.689373671607271 ], [ 36.44047394771701, 45.689854914439962 ], [ 36.42086498853881, 45.690550127372887 ], [ 36.401873448900801, 45.691499353111226 ], [ 36.390012923345552, 45.692256603784365 ], [ 36.364524589301915, 45.694335195295075 ], [ 36.342577219508556, 45.696676258129081 ], [ 36.289916049718933, 45.703636882958236 ], [ 36.250012359079797, 45.708589291365953 ], [ 36.234366064865426, 45.710708711839423 ], [ 36.219268011046779, 45.713120768275125 ], [ 36.210150360933419, 45.714777581244071 ], [ 36.190237231535171, 45.718947390610424 ], [ 36.174503102039985, 45.722791092873571 ], [ 36.149621797259549, 45.729318455504099 ], [ 36.102194928219546, 45.740582241284997 ], [ 36.075857223927926, 45.74738321772103 ], [ 36.042693069987095, 45.756361812095562 ], [ 35.997154456113911, 45.769000047687101 ], [ 35.983975996518168, 45.772922528690899 ], [ 35.942975854764107, 45.785958103621667 ], [ 35.923900364507134, 45.791596918780144 ], [ 35.909888988254963, 45.795452458487013 ], [ 35.862174305578314, 45.807987172174265 ], [ 35.8300135613922, 45.816679419577483 ], [ 35.800077507144117, 45.825045912306244 ], [ 35.746823655553833, 45.840362904311952 ], [ 35.699695379128286, 45.854907121603055 ], [ 35.682458772084786, 45.860679196945661 ], [ 35.670503539600709, 45.865074572648467 ], [ 35.66351472016288, 45.867862406232298 ], [ 35.65287838238244, 45.872503316261835 ], [ 35.622074434061211, 45.887471855099811 ], [ 35.607428996492331, 45.893921857609556 ], [ 35.583721927478877, 45.903284944197658 ], [ 35.563095161669722, 45.911093541188627 ], [ 35.556663381899853, 45.913331690951964 ] ] ] } },
{ "type": "Feature", "properties": { "gid": 3, "objectid": 3.0, "z": 30.0, "index": 0.0, "shape_leng": 1.6637683748300001 }, "geometry": { "type": "MultiLineString", "coordinates": [ [ [ 36.470000000001164, 46.054763445710705 ], [ 36.469411388220102, 46.053894534004449 ], [ 36.467565034339508, 46.052085167304668 ], [ 36.463084491710262, 46.048303807484245 ], [ 36.459626016563092, 46.045681132743766 ], [ 36.454534971832018, 46.042143498530933 ], [ 36.447427892034803, 46.037703153228541 ], [ 36.439417395905352, 46.033153958976484 ], [ 36.431360293660454, 46.028886670941588 ], [ 36.403041608831963, 46.014833831289728 ], [ 36.39567958027925, 46.011363779102652 ], [ 36.388801245305032, 46.008352838301228 ], [ 36.382735468802053, 46.005972704875212 ], [ 36.334736740360967, 45.989000860778731 ], [ 36.322052450665048, 45.984715029309733 ], [ 36.312902124988966, 45.981959305175849 ], [ 36.307464209902285, 45.980509040921589 ], [ 36.298720111517653, 45.978436635838889 ], [ 36.289912865090756, 45.97658395650047 ], [ 36.270066534874644, 45.972959086202408 ], [ 36.250870647858676, 45.970013210702888 ], [ 36.242111220433408, 45.968883791420609 ], [ 36.235728316357466, 45.968191149306399 ], [ 36.223514432853939, 45.967263050494232 ], [ 36.21002781454726, 45.966796419653846 ], [ 36.197920307420205, 45.966893357295085 ], [ 36.183677575635812, 45.967631030921559 ], [ 36.170313283568753, 45.968931636168044 ], [ 36.161287434813048, 45.970143387064674 ], [ 36.153137621118113, 45.971452233325941 ], [ 36.116540768613874, 45.978049833287827 ], [ 36.083658534018106, 45.983314231125057 ], [ 36.070064877679492, 45.985651846746144 ], [ 36.056426043357277, 45.988263124203478 ], [ 36.035776046614984, 45.992569874520001 ], [ 35.984362582752162, 46.003642648063121 ], [ 35.964598031903535, 46.008344281306115 ], [ 35.952043348928498, 46.011834365292913 ], [ 35.928584044861118, 46.01900524075667 ], [ 35.901805616696699, 46.026528466428694 ], [ 35.891478226341732, 46.029918897151433 ], [ 35.883637660090258, 46.033000470429819 ], [ 35.858013848517587, 46.044506406991253 ], [ 35.848824195661791, 46.048844543599934 ], [ 35.840633572119117, 46.053359168100748 ], [ 35.835709403248188, 46.05664458531615 ], [ 35.830173320911385, 46.061175456167234 ], [ 35.825100386489716, 46.066208302234593 ], [ 35.820468610338168, 46.071614466640682 ], [ 35.816616766186364, 46.076796598297953 ], [ 35.814546882887136, 46.079885006984341 ], [ 35.811761818576649, 46.08450359719636 ], [ 35.809252352870651, 46.089544525531991 ], [ 35.807926365163233, 46.092968763689981 ], [ 35.806509975811274, 46.098304816621585 ], [ 35.805771736848072, 46.103736539345839 ], [ 35.805660234891171, 46.109180457366591 ], [ 35.8063472561591, 46.115728423254971 ], [ 35.807980483870182, 46.122009967491309 ], [ 35.809267399541447, 46.125167018538377 ], [ 35.811575524405072, 46.129265242005069 ], [ 35.814454854374858, 46.133125752349756 ], [ 35.81830816640835, 46.137247122034722 ], [ 35.824163634159, 46.142358567008955 ], [ 35.828283170216743, 46.145531962043883 ], [ 35.833645631621749, 46.149409969097313 ], [ 35.839235142353914, 46.153193021172534 ], [ 35.845031153565728, 46.15682664953232 ], [ 35.85408734825775, 46.161856359724908 ], [ 35.860694190906543, 46.165127825651631 ], [ 35.874657234429456, 46.171536971236591 ], [ 35.881989950704714, 46.174616613022948 ], [ 35.89028430911398, 46.177651662678002 ], [ 35.894502909305864, 46.178957596479862 ], [ 35.901895575907673, 46.180920138418948 ], [ 35.916456776036718, 46.183996153705962 ], [ 35.948741655006209, 46.189922852448014 ], [ 35.981891020463287, 46.197167955587993 ], [ 35.992828898222349, 46.199185787648375 ], [ 36.001388588491857, 46.200441975110891 ], [ 36.009987074554743, 46.201465756528059 ], [ 36.024132991606102, 46.2027680948285 ], [ 36.069873605958357, 46.205846729954466 ], [ 36.089889625718428, 46.207446336721162 ], [ 36.109930595741893, 46.209311590518126 ], [ 36.129446371369681, 46.211410025047577 ], [ 36.144312148136294, 46.213437686123839 ], [ 36.185119904896197, 46.219475001832585 ], [ 36.250024297825917, 46.227179890837384 ], [ 36.266239021901178, 46.229292178905503 ], [ 36.277324836093449, 46.230976319766064 ], [ 36.289740685501101, 46.233187495396798 ], [ 36.302260160691965, 46.235792588491563 ], [ 36.340062006065473, 46.244930320268857 ], [ 36.34943163883618, 46.246732402808384 ], [ 36.353593648037148, 46.247382685410876 ], [ 36.362122144235308, 46.24840307715138 ], [ 36.373480545065554, 46.249141058034361 ], [ 36.38348129956622, 46.249225198442424 ], [ 36.390646563430124, 46.249028117487349 ], [ 36.398933799585514, 46.248578873911349 ], [ 36.410446863596597, 46.247553081525652 ], [ 36.421924636811283, 46.246063826204654 ], [ 36.430083070846862, 46.244742743352717 ], [ 36.443307255645628, 46.242021599703591 ], [ 36.448891092191914, 46.240583427771647 ], [ 36.453699786139389, 46.239151282587336 ], [ 36.474201122217892, 46.231986080701624 ], [ 36.501402918614211, 46.224124264092509 ], [ 36.508537393075024, 46.221445322306188 ], [ 36.515790906501415, 46.217721386714864 ], [ 36.521856872438498, 46.213004878979085 ], [ 36.522457880030665, 46.212384241168728 ], [ 36.526733803049808, 46.206389277286959 ], [ 36.529101033572992, 46.200824001059971 ], [ 36.529715673154328, 46.198624534683447 ], [ 36.530671907858249, 46.192590019215466 ], [ 36.530784857803184, 46.190842933464097 ], [ 36.530680094843213, 46.184598336710714 ], [ 36.529603410228226, 46.177172700315204 ], [ 36.528223040759379, 46.171721564695495 ], [ 36.523669298731519, 46.158779012545423 ], [ 36.517702556569475, 46.140218644439692 ], [ 36.51170116322276, 46.119868334223796 ], [ 36.510578954419998, 46.116475443326294 ], [ 36.507051003493075, 46.107262685220682 ], [ 36.506150895435283, 46.105200285147021 ], [ 36.500759388387749, 46.094465401422895 ], [ 36.497177963988563, 46.088402811899094 ], [ 36.493404677457079, 46.082619718427168 ], [ 36.48908274426568, 46.076557373327468 ], [ 36.480573782399915, 46.065750175490678 ], [ 36.474207968918982, 46.05856718569413 ], [ 36.471077636467712, 46.055508985919069 ], [ 36.470000000001164, 46.054763445710705 ] ] ] } }
]
}
