{
"type": "FeatureCollection",
"name": "azov_10_hsig_iso",
"crs": { "type": "name", "properties": { "name": "urn:ogc:def:crs:OGC:1.3:CRS84" } },
"features": [
{ "type": "Feature", "properties": { "gid": 1, "objectid": 1.0, "z": 1.0, "index": 0.0, "shape_leng": 8.1139986542999996, "z1": 0.0, "z2": 0.0, "index1": 0.0, "index2": 0.0 }, "geometry": { "type": "MultiLineString", "coordinates": [ [ [ 35.79000000000093, 45.420000000000186 ], [ 35.785223485305892, 45.417755698733231 ], [ 35.773553262717598, 45.411365162406639 ], [ 35.766193564245441, 45.406989643551469 ], [ 35.758395604242196, 45.402013180203198 ], [ 35.7525239301591, 45.397966557181462 ], [ 35.74683918573453, 45.39371202976065 ], [ 35.742029814060686, 45.38979771947993 ], [ 35.724782104780331, 45.374788630045487 ], [ 35.719519198576847, 45.37040190744915 ], [ 35.71409581788015, 45.366237254198097 ], [ 35.708466212332382, 45.362390792407041 ], [ 35.702268588638447, 45.35877375062006 ], [ 35.695836310104482, 45.355598892239982 ], [ 35.689207854140307, 45.352863231274455 ], [ 35.663951574762336, 45.344558920327472 ], [ 35.643389719729157, 45.336923825589338 ], [ 35.636497468058792, 45.334484863091802 ], [ 35.629550538164494, 45.332259661458693 ], [ 35.610679781041028, 45.327162725802964 ], [ 35.583143601138545, 45.318956348099164 ], [ 35.569999847097847, 45.31571750408375 ], [ 35.549637211944685, 45.3116000709839 ], [ 35.536694176930439, 45.309764770413722 ], [ 35.523486053712531, 45.308365928133639 ], [ 35.516731073553103, 45.307846553372144 ], [ 35.509182630723899, 45.30770089543006 ], [ 35.500835642039306, 45.308055604949402 ], [ 35.492011029748483, 45.308795698488041 ], [ 35.47447639624545, 45.310783064474833 ], [ 35.466389725783642, 45.311870765461549 ], [ 35.452753953446233, 45.314149390499551 ], [ 35.443592007521488, 45.316159229881748 ] ], [ [ 37.590428627090205, 45.460683124418836 ], [ 37.589585607004665, 45.459887868529393 ], [ 37.588098605040784, 45.457414390016709 ], [ 37.578175920976491, 45.438365389345677 ], [ 37.574342377542507, 45.431677311083774 ], [ 37.568425777108587, 45.422452298807571 ], [ 37.56131565783835, 45.412958204827987 ], [ 37.554293735787041, 45.404934427635794 ], [ 37.546920571825353, 45.397623781544439 ], [ 37.539481782170526, 45.391255158582283 ], [ 37.534241905784938, 45.387372106420173 ], [ 37.525648589603975, 45.382021629519556 ], [ 37.519205436328377, 45.378471101197135 ], [ 37.514454405393508, 45.376073838887635 ], [ 37.509630720989378, 45.373811497281281 ], [ 37.501033604383565, 45.37014259259314 ], [ 37.492295789013156, 45.3668158992798 ], [ 37.48345098907231, 45.363821424125717 ], [ 37.474518993832703, 45.36118412338169 ], [ 37.465508551112578, 45.358963350891543 ], [ 37.45641926749812, 45.357254262888148 ], [ 37.449988508713432, 45.356411055843012 ], [ 37.443530763663773, 45.355828607763897 ], [ 37.437060362569071, 45.35546034850438 ], [ 37.417672786379057, 45.354882861262354 ], [ 37.410379841236022, 45.354492673730988 ], [ 37.403101441675801, 45.353912187506921 ], [ 37.395854509800927, 45.353091575498013 ], [ 37.391049458773978, 45.352382683327789 ], [ 37.384251804134976, 45.351128392439023 ], [ 37.377502233019641, 45.349639862745732 ], [ 37.353847656144978, 45.343685857318576 ], [ 37.34885348508891, 45.342630593163392 ], [ 37.336139329806144, 45.34052080543097 ], [ 37.328396067696247, 45.339566300190427 ], [ 37.320602936566502, 45.338809596394128 ], [ 37.313014460389468, 45.338240827647496 ], [ 37.297753003581306, 45.337452230625672 ], [ 37.275840276515737, 45.336894763357463 ], [ 37.195860382043634, 45.336747002687957 ], [ 37.161389565830461, 45.336276835496562 ], [ 37.139026991657772, 45.335764616817187 ] ], [ [ 36.030000000002531, 45.3799999999992 ], [ 36.015218891888708, 45.380002918901994 ], [ 36.006674216803674, 45.379577375248573 ], [ 35.945090237071724, 45.372787803879419 ] ], [ [ 36.035807802747058, 45.380527042585697 ], [ 36.030000000002531, 45.3799999999992 ] ], [ [ 36.030000000002531, 45.3799999999992 ], [ 36.035933886528142, 45.380643025736561 ] ], [ [ 36.041468479135801, 45.38573423956791 ], [ 36.030000000002531, 45.3799999999992 ] ], [ [ 36.720611696355263, 45.397315856952332 ], [ 36.698450829118372, 45.398513941697161 ], [ 36.688379168231052, 45.398841731623349 ], [ 36.680641915436127, 45.398650241586381 ], [ 36.665377477359016, 45.397741275501573 ], [ 36.65576252652636, 45.397335420514651 ], [ 36.648070873496124, 45.397247547211009 ], [ 36.64231319766526, 45.397428935079631 ], [ 36.636589924296459, 45.397889381136906 ], [ 36.632275864081237, 45.398651408316937 ], [ 36.62505334945007, 45.400553961886203 ], [ 36.616432395185143, 45.403255759761066 ] ], [ [ 35.792808220573136, 45.418340596561336 ], [ 35.79000000000093, 45.420000000000186 ] ], [ [ 35.79000000000093, 45.420000000000186 ], [ 35.793391035346303, 45.421695517673129 ] ], [ [ 36.560078874359874, 45.42049825483349 ], [ 36.545479550644586, 45.425027202547255 ], [ 36.542725345125518, 45.425713876010207 ], [ 36.5399103103382, 45.426071646610353 ], [ 36.535048338168053, 45.425885513954086 ], [ 36.511577228664123, 45.423701847209031 ] ], [ [ 35.848713570416464, 45.432277269328267 ], [ 35.855227317149399, 45.432513076710961 ], [ 35.859613308456915, 45.433072585723266 ], [ 35.861694991287322, 45.433562905142082 ], [ 35.863533373865948, 45.434236197782923 ], [ 35.865000799736151, 45.435125270626713 ], [ 35.865943771986679, 45.436146178015917 ], [ 35.866636150555564, 45.437305921539178 ], [ 35.868537985244245, 45.441209616206777 ], [ 35.871547608821061, 45.446239037127043 ], [ 35.872846050014402, 45.448955815739112 ], [ 35.873260132165001, 45.451225564856088 ], [ 35.873050986606529, 45.452977987456734 ], [ 35.872187189722752, 45.455011521908318 ], [ 35.871409564706255, 45.456173356968691 ], [ 35.866942480755881, 45.461549761065896 ], [ 35.864289129529652, 45.464202363120705 ], [ 35.862856998982522, 45.465371197306013 ], [ 35.861322698734966, 45.466363005537289 ], [ 35.859900956387662, 45.467035266503501 ], [ 35.858400507773581, 45.467561488274384 ], [ 35.855236450937298, 45.468291642140798 ], [ 35.851938978421117, 45.468713800940122 ], [ 35.846612712549245, 45.468907143192723 ], [ 35.84280309036069, 45.468748886018204 ], [ 35.838364709470454, 45.468104416519679 ], [ 35.833939114099792, 45.466960399977381 ], [ 35.831972728508902, 45.466214849825064 ], [ 35.829044677597608, 45.464558597905977 ], [ 35.828139768750418, 45.463811222897903 ], [ 35.827474445335554, 45.462969333329511 ] ], [ [ 36.466427632476496, 45.44511580811826 ], [ 36.462905921954018, 45.446205397169422 ], [ 36.453771587432527, 45.448313793243472 ], [ 36.447771116099943, 45.44946256600042 ], [ 36.439859187592901, 45.450656575446033 ], [ 36.434731773607268, 45.451202564546179 ], [ 36.428112038714914, 45.451661315471767 ], [ 36.409978910126881, 45.452471296307806 ], [ 36.404470875541335, 45.453059973972472 ], [ 36.398988453312768, 45.453942627847425 ], [ 36.393515573114314, 45.455051964894153 ], [ 36.3826139254586, 45.45777755074846 ], [ 36.371810046962935, 45.461054913085491 ], [ 36.362415629232089, 45.46436256217703 ], [ 36.343312944737761, 45.471734074222923 ], [ 36.333270956116849, 45.475203029475267 ], [ 36.328112428235215, 45.476642458044125 ], [ 36.322982209264865, 45.477750959391699 ], [ 36.318645032180711, 45.478435857988757 ], [ 36.309859891488998, 45.479257132952512 ], [ 36.304997930597324, 45.479426974852345 ], [ 36.295263165997596, 45.479217107776435 ], [ 36.290417161692687, 45.478828815732584 ], [ 36.284965302538183, 45.478143936701429 ], [ 36.27956881800128, 45.477237825758152 ], [ 36.264898390672329, 45.474083639161279 ], [ 36.255403193374718, 45.472315221110705 ], [ 36.245447335270057, 45.470983728295892 ], [ 36.215179517999161, 45.467964511853154 ], [ 36.200171439955227, 45.466116447239813 ], [ 36.187768835435463, 45.46411807440461 ], [ 36.183382158783672, 45.463150748318355 ], [ 36.180700908570316, 45.462350741527587 ], [ 36.179806604825501, 45.461853116622535 ] ], [ [ 37.849040439631494, 45.783652991503857 ], [ 37.839490617688284, 45.774593023528325 ], [ 37.834257767293309, 45.770303776297339 ], [ 37.831218246200024, 45.768243711462901 ], [ 37.829637975511673, 45.767327494016627 ], [ 37.826227158436325, 45.765711799477401 ], [ 37.811882474512402, 45.760439108992671 ], [ 37.806370275234599, 45.758132416167655 ], [ 37.797257160664799, 45.753672190610587 ], [ 37.793725376216969, 45.751709728506114 ], [ 37.79034312321005, 45.749536900181738 ], [ 37.785704759583894, 45.74573614140985 ], [ 37.779805919002001, 45.740039926392456 ], [ 37.772638061119324, 45.732494741235257 ], [ 37.767380563387405, 45.726428040858195 ] ], [ [ 34.860000000002401, 45.989999999999725 ], [ 34.855581876575286, 46.007467335716399 ], [ 34.850837166005419, 46.027906910900981 ], [ 34.848406116366675, 46.039806416715805 ], [ 34.846186213316685, 46.052055318477869 ], [ 34.844330741150031, 46.06416296419269 ], [ 34.842994223017968, 46.075636036527328 ], [ 34.84247412124671, 46.082442220086648 ], [ 34.842229680222999, 46.088648639676137 ], [ 34.842283507356001, 46.100419647150659 ], [ 34.843227637730195, 46.116768798221131 ], [ 34.844575168974472, 46.131307747552341 ], [ 34.847967584626531, 46.156344930055411 ], [ 34.849610871005837, 46.165648205125535 ], [ 34.850610531137932, 46.170188261110582 ], [ 34.851774108140148, 46.17462920012315 ], [ 34.853140146819158, 46.178949441991449 ], [ 34.854751633228716, 46.183124512000973 ], [ 34.856656657139411, 46.187126617464514 ], [ 34.859912044122837, 46.192447989418781 ], [ 34.863763604888845, 46.197369330624497 ], [ 34.866625475037495, 46.200424422990579 ], [ 34.872988323611025, 46.205957855211125 ], [ 34.878572913018331, 46.209748931806303 ], [ 34.884567658456831, 46.213040060098194 ], [ 34.890906037924026, 46.215844333979192 ], [ 34.896822195790378, 46.217956055721004 ], [ 34.909152655419177, 46.221461891619583 ], [ 34.922281754935341, 46.224691489521433 ], [ 34.935640277129892, 46.22776837109086 ], [ 34.962635362405706, 46.233680863366374 ], [ 35.002697627665214, 46.241946889231031 ], [ 35.009165219170768, 46.243412885957184 ], [ 35.023474292706965, 46.247255686835956 ], [ 35.043692511978691, 46.253253729365952 ], [ 35.056651249649576, 46.257425235046412 ], [ 35.063223987137519, 46.259788528727483 ], [ 35.076006281652099, 46.264968155826296 ], [ 35.082177883326267, 46.267836947065689 ], [ 35.090455342059443, 46.27215564047998 ], [ 35.096898596910876, 46.275777752361478 ], [ 35.109493793501827, 46.28347396781686 ], [ 35.116308842781734, 46.288029905892699 ], [ 35.13228000449044, 46.299376504338568 ], [ 35.140893351007719, 46.305101790262881 ], [ 35.148371328543249, 46.309470056882219 ], [ 35.155864538168828, 46.312765331928688 ], [ 35.161315808766403, 46.31434867844672 ], [ 35.166826368283751, 46.315317615827553 ], [ 35.172311679607844, 46.315704895060776 ], [ 35.17768187762158, 46.315519924330658 ], [ 35.182838741243017, 46.314748638053516 ], [ 35.187672364189552, 46.313353026628477 ], [ 35.19254689312578, 46.311008690159042 ], [ 35.196703928028228, 46.307880016961349 ], [ 35.199950610145834, 46.30400436538423 ], [ 35.201522671115242, 46.301000549310857 ], [ 35.202617178422088, 46.29772871038557 ], [ 35.203473533575789, 46.290619407810141 ], [ 35.203261427748316, 46.286889930004065 ], [ 35.202624237191685, 46.283110256341672 ], [ 35.201020910285592, 46.277751360867455 ], [ 35.198757311250404, 46.272401432685569 ], [ 35.196014847982383, 46.267072618417501 ], [ 35.192950181552419, 46.261774765167559 ], [ 35.18820129357357, 46.25440524213252 ], [ 35.184229462521273, 46.249128019019793 ], [ 35.169978198270769, 46.232041018803102 ], [ 35.156601828375472, 46.21720831167886 ], [ 35.150846812308771, 46.210517270043283 ], [ 35.144828281912567, 46.204053351499738 ], [ 35.141126966652962, 46.200680546790466 ], [ 35.137175063599102, 46.197489343405493 ], [ 35.133009650761835, 46.194460337933833 ], [ 35.128662388535929, 46.191578291115945 ], [ 35.122628760160183, 46.187945316139405 ], [ 35.116370290864666, 46.184538184755127 ], [ 35.109926199156405, 46.181353025833062 ], [ 35.103325101626808, 46.178397992002999 ], [ 35.096586322157123, 46.175693545932688 ], [ 35.089720952194455, 46.173273024426464 ], [ 35.083482045449614, 46.171362367430447 ], [ 35.063734321854952, 46.166028224448382 ], [ 35.049454003287281, 46.162403083879497 ], [ 35.023535984169371, 46.15667767673483 ], [ 35.010553511589194, 46.153228438739177 ], [ 35.004228241497174, 46.151260578547237 ], [ 34.998066490144595, 46.149085905612367 ], [ 34.992121303252702, 46.146657567246564 ], [ 34.985990390737925, 46.143682754209976 ], [ 34.980267147609652, 46.140339648889892 ], [ 34.975078692684576, 46.136403567384548 ], [ 34.96926863579705, 46.129686649959467 ], [ 34.96657733904965, 46.125445003997697 ], [ 34.964379181292827, 46.120948183065025 ], [ 34.96279861852895, 46.116239541412767 ], [ 34.961950940458678, 46.111366802522355 ], [ 34.962419232067361, 46.102505975231054 ], [ 34.963526008942836, 46.098214491682313 ], [ 34.965137525594685, 46.094152383404605 ], [ 34.969040038872379, 46.087691563741032 ], [ 34.970523499598357, 46.085842811345401 ], [ 34.973589777731831, 46.08268217493287 ], [ 34.976125501459535, 46.080615947475337 ], [ 34.978426527816168, 46.079102327218777 ], [ 34.98037829129072, 46.078117344043619 ], [ 34.98170201573015, 46.077763966975397 ], [ 34.982123823528411, 46.077876176471818 ] ], [ [ 37.870000000000914, 46.447466808582192 ], [ 37.869760122293712, 46.446378514792912 ], [ 37.870095882278292, 46.444678546311707 ], [ 37.870859715417964, 46.442316838105285 ], [ 37.873558908887276, 46.436401395660255 ], [ 37.874896307824997, 46.433932415579079 ], [ 37.879096968795352, 46.427110041713263 ], [ 37.884369468292789, 46.419572012634603 ], [ 37.891322021404676, 46.410484847182147 ], [ 37.900985987292643, 46.398861616277088 ], [ 37.907050308048269, 46.392050670095273 ], [ 37.915152830106877, 46.383522200224377 ], [ 37.922970748123817, 46.376012605568746 ], [ 37.930247699528309, 46.36985489853663 ], [ 37.937254449039756, 46.364617998894857 ], [ 37.941771344658548, 46.361646754611002 ], [ 37.946417135004197, 46.358892391650727 ], [ 37.951175758648674, 46.356345891523688 ], [ 37.956034882105143, 46.354005008573267 ], [ 37.960985560547101, 46.351874140809457 ], [ 37.966021923884341, 46.349964291297113 ], [ 37.971140919744414, 46.348293118977665 ], [ 37.977541747210182, 46.346590152388956 ], [ 37.984043754746438, 46.345271578901588 ], [ 37.990628983339434, 46.344340688259138 ], [ 38.000327876110873, 46.343678297321276 ], [ 38.010112673902086, 46.34373497409905 ], [ 38.016861370900131, 46.344131656225841 ], [ 38.023622329644979, 46.344730243333743 ], [ 38.043948091332084, 46.346879114866169 ], [ 38.05072823284695, 46.347444069061225 ], [ 38.060582858840746, 46.347905910698557 ], [ 38.070383549601388, 46.347896693692007 ], [ 38.076860425406664, 46.34760213375182 ], [ 38.083269457414019, 46.347045372409923 ], [ 38.089587912729598, 46.346188287572488 ], [ 38.094800212447808, 46.345216717518383 ], [ 38.099931719004587, 46.344049061248938 ], [ 38.109945876578308, 46.341295789699188 ], [ 38.115739660159591, 46.339461767957232 ], [ 38.121351665216537, 46.337422125216506 ], [ 38.126723600169896, 46.335074333644513 ], [ 38.134362857345195, 46.330902252910278 ], [ 38.140030014891295, 46.327518256933161 ], [ 38.151296074224888, 46.320238538305261 ], [ 38.159363026760388, 46.314259851197903 ], [ 38.163157991584001, 46.311062039291755 ], [ 38.166728855036922, 46.307695913403904 ], [ 38.172536277591007, 46.301262793271292 ], [ 38.175583474097152, 46.297524478190326 ], [ 38.178460188795611, 46.293674292474634 ], [ 38.181085864303554, 46.289667916920507 ], [ 38.183372167103244, 46.285456363231958 ], [ 38.185070195326318, 46.281483770036061 ], [ 38.18646296102537, 46.277335595227214 ], [ 38.187588191683744, 46.27304034294167 ], [ 38.188477619336481, 46.268623488396599 ], [ 38.189648388978981, 46.259514203683409 ], [ 38.190123321148803, 46.25016636989335 ], [ 38.189975030722337, 46.240715194785025 ], [ 38.189205767694432, 46.231283710088007 ], [ 38.187748741886537, 46.22199335785308 ], [ 38.186722088998863, 46.217441131644648 ], [ 38.185465911560186, 46.212974166304264 ], [ 38.18328495574616, 46.206821435965026 ], [ 38.180757745327128, 46.200825555395056 ], [ 38.171442735566586, 46.18099591137576 ], [ 38.167403418880497, 46.173160998688445 ], [ 38.164078349003603, 46.167621535878197 ], [ 38.157239263955319, 46.156942561474068 ], [ 38.148821689483384, 46.142856725906938 ], [ 38.144147377689364, 46.136507403735266 ], [ 38.138622373291014, 46.130979503041829 ], [ 38.126164636648582, 46.120642372179248 ], [ 38.120976766919398, 46.116897102719861 ], [ 38.115416807561417, 46.113287847218146 ], [ 38.109558453307955, 46.109793378749032 ], [ 38.095573806677066, 46.102284765120203 ], [ 38.08415354487181, 46.096761983248598 ], [ 38.070693514616323, 46.090839479947476 ], [ 38.051451115414636, 46.083181349890594 ], [ 38.03947045989753, 46.078129038054328 ], [ 38.026419907569334, 46.072284747340575 ], [ 38.010083147368505, 46.06448727624138 ], [ 38.002251406300388, 46.060412388510144 ], [ 37.993405384289872, 46.055418521830802 ], [ 37.985517131346398, 46.050605202399822 ], [ 37.978838191595628, 46.046242277405554 ], [ 37.972242589567145, 46.041525318383606 ], [ 37.969742743256745, 46.039437753779396 ], [ 37.96871135939881, 46.038250118713506 ], [ 37.96872116743549, 46.038081751916593 ] ], [ [ 34.982194175784912, 46.077805824215204 ], [ 34.983104746979507, 46.076962425494003 ], [ 34.983751728184302, 46.076597330005939 ], [ 34.988787679064274, 46.075295245404391 ], [ 34.990225175440401, 46.075104912137533 ], [ 34.992021421144784, 46.075505355287817 ] ], [ [ 35.24503600456211, 46.217493999489363 ], [ 35.245828946396045, 46.217336232437503 ], [ 35.247788298758906, 46.217460239606453 ], [ 35.250269380156851, 46.218139760917666 ], [ 35.25294911376659, 46.219350579658396 ], [ 35.255674687732608, 46.221063344767344 ], [ 35.256928220761438, 46.222049991307301 ], [ 35.260026352406726, 46.224961827455843 ], [ 35.271628013258123, 46.23668635801755 ], [ 35.274689829403769, 46.240224969696101 ], [ 35.287328702452896, 46.256887740874731 ], [ 35.290023941730169, 46.261624120675094 ], [ 35.291309233811319, 46.264778061934351 ], [ 35.292328233129297, 46.26814881941749 ] ], [ [ 35.327805161421452, 46.308683097089613 ], [ 35.353436320330331, 46.325482908453864 ], [ 35.356666101875874, 46.327805147127208 ], [ 35.359554670969089, 46.330424620781912 ], [ 35.361642887188964, 46.333368453584853 ], [ 35.363774241955241, 46.33773983545575 ], [ 35.364543154540229, 46.340036817568716 ], [ 35.365465777058148, 46.344875496490261 ], [ 35.366206785665725, 46.347753919569186 ], [ 35.368266494011436, 46.352986429547173 ], [ 35.369194530345112, 46.355972652679441 ] ], [ [ 37.796666664018744, 46.647305914447486 ], [ 37.796747724427576, 46.647528116472074 ], [ 37.796242478866475, 46.648677044581007 ], [ 37.795043411427514, 46.650631099139844 ], [ 37.793199466492638, 46.653211118570823 ], [ 37.790272425795536, 46.656818956916766 ], [ 37.786632806516536, 46.66081217873915 ], [ 37.782405183113895, 46.664959302777447 ], [ 37.778736669206808, 46.668203984239312 ], [ 37.770935989038719, 46.674294045167187 ], [ 37.763814063389816, 46.679134346710953 ], [ 37.759351293522741, 46.68190140982415 ], [ 37.755365525137734, 46.684061305954742 ], [ 37.751472022721941, 46.685824010372357 ], [ 37.747556467061486, 46.687107930721595 ], [ 37.743375521151961, 46.687792289885806 ], [ 37.739257846576265, 46.687792469393912 ], [ 37.735325545278897, 46.687118243932332 ], [ 37.731714832967327, 46.685723001636745 ], [ 37.728728206125311, 46.683702475709595 ], [ 37.726211367661449, 46.681097799727468 ], [ 37.724238302225785, 46.678012269060446 ], [ 37.722805818925281, 46.674310132297421 ], [ 37.721949910519299, 46.670320256821526 ], [ 37.721558731239895, 46.666193060730507 ], [ 37.721558939316139, 46.662061177639544 ], [ 37.721909023478304, 46.658049469404432 ], [ 37.723123137346988, 46.649684014515287 ], [ 37.723042790251782, 46.646018327892762 ], [ 37.722336917487269, 46.642465957322941 ], [ 37.721182563029174, 46.639476651873053 ], [ 37.716881053776035, 46.631106229660247 ], [ 37.715984295178714, 46.628314382927783 ], [ 37.715785312704668, 46.625117477874028 ], [ 37.716532504943586, 46.621978800174986 ], [ 37.717735815334322, 46.619772185146303 ], [ 37.719414084453888, 46.61767902491448 ], [ 37.721476779969237, 46.615678347068012 ], [ 37.726465733323494, 46.611885704689712 ], [ 37.732237637756839, 46.608280488806031 ], [ 37.752511808482041, 46.596929656957684 ], [ 37.760425873528334, 46.591916093085047 ], [ 37.764258519347891, 46.589246203486027 ], [ 37.771168815713793, 46.583811842286593 ], [ 37.780425502462492, 46.575491412069084 ], [ 37.782127243339914, 46.574158077586219 ], [ 37.783898877736988, 46.573050561136654 ] ], [ [ 37.401754857525475, 46.957055306110703 ], [ 37.403151430734908, 46.957527306307668 ], [ 37.407248656547551, 46.96015844140328 ], [ 37.413543743653406, 46.964681033223428 ], [ 37.421553823715385, 46.970725473505013 ], [ 37.440792389354272, 46.98588899600577 ], [ 37.46933342544861, 47.008904576446753 ], [ 37.476923704453725, 47.014638279043027 ], [ 37.483820915447893, 47.019507316847751 ], [ 37.490702186155659, 47.023999931054277 ], [ 37.495403956805603, 47.02685648527023 ], [ 37.504226504576025, 47.031809732329862 ], [ 37.515176787377243, 47.037240982959531 ], [ 37.524421329085385, 47.041333285309861 ], [ 37.530706858546182, 47.043806110305127 ], [ 37.54353730874999, 47.048211073340497 ], [ 37.556601864221022, 47.052114059589542 ], [ 37.57645210886318, 47.057361127679428 ], [ 37.596476818403175, 47.06202553146835 ], [ 37.609898104128433, 47.064747218841035 ], [ 37.623383206876667, 47.067009210614117 ], [ 37.630156154085284, 47.067901479663874 ], [ 37.640054026796236, 47.068861762207518 ], [ 37.656631260517429, 47.069797110743195 ], [ 37.679934316058961, 47.070304835839295 ], [ 37.756690659009507, 47.070362808360471 ], [ 37.790016340994896, 47.070757754719125 ], [ 37.809938022923006, 47.071434837262245 ], [ 37.819857042210515, 47.071987720013169 ], [ 37.829733184364727, 47.07274106606468 ], [ 37.859662089790561, 47.075700660771076 ], [ 37.870485239666266, 47.076481669613543 ], [ 37.880167896392436, 47.076625069605711 ], [ 37.889838423455842, 47.076131813738414 ], [ 37.896459087627932, 47.075405130585864 ], [ 37.903053362927437, 47.074396217812762 ], [ 37.909617276674737, 47.073143316745814 ], [ 37.916145669996808, 47.071674833599673 ], [ 37.922632081646043, 47.070010262306084 ], [ 37.929068642616642, 47.068160996359495 ], [ 37.950741341826699, 47.061400345169886 ], [ 37.989987820067995, 47.049822531271502 ], [ 38.009515105190587, 47.043844762459855 ], [ 38.018852179507121, 47.040726486888389 ], [ 38.029110110846716, 47.03680954521144 ], [ 38.061567315879302, 47.02273210753242 ], [ 38.066546719488031, 47.020884350311405 ], [ 38.071582423334689, 47.019277992938044 ], [ 38.077848933051655, 47.017685948249266 ], [ 38.084183953657032, 47.01654664554286 ], [ 38.090569255316893, 47.01590061061404 ], [ 38.096988086815031, 47.015779190142268 ], [ 38.103424700341975, 47.016120273613069 ], [ 38.109670121792931, 47.016838173310816 ], [ 38.116233292996753, 47.018004261065698 ], [ 38.122764135623129, 47.019542194332473 ], [ 38.12925264925741, 47.021401013953209 ], [ 38.135544453599493, 47.023498992860084 ], [ 38.141764865401854, 47.025874969506958 ], [ 38.150181967872868, 47.029550790824374 ], [ 38.156813041529574, 47.032643572962286 ], [ 38.210542608363482, 47.058960787587239 ], [ 38.22382133416653, 47.06524585712566 ], [ 38.230539545263809, 47.068172648912935 ], [ 38.23731746187417, 47.070905344203936 ], [ 38.244163730834316, 47.073395703817596 ], [ 38.251090002129615, 47.075585019338462 ], [ 38.257359359744896, 47.077254335029977 ], [ 38.263683898275644, 47.078709892575773 ], [ 38.289173652146644, 47.08385956454714 ], [ 38.310429692733351, 47.088775086680641 ], [ 38.319981651514638, 47.090786612265276 ], [ 38.343789932102197, 47.095654635506719 ], [ 38.350949698025261, 47.096910291888037 ], [ 38.360641979538116, 47.098151473466714 ], [ 38.37040939927158, 47.09893996175208 ], [ 38.380216445378153, 47.099356860728221 ], [ 38.3900294454495, 47.099448338388697 ], [ 38.403062790169088, 47.099082571024212 ], [ 38.409532182586588, 47.098676392905134 ], [ 38.419139632757265, 47.09774280138015 ], [ 38.428582224160834, 47.096340746672638 ], [ 38.438887302188732, 47.094177237577924 ], [ 38.457723522979848, 47.089538213014464 ], [ 38.474420725837717, 47.08487211323768 ], [ 38.480064604999768, 47.083496918149933 ], [ 38.485888004676042, 47.082327390486398 ], [ 38.501004118395883, 47.079992799818058 ], [ 38.51554882452939, 47.078141445122412 ], [ 38.525557795011707, 47.077134756114333 ], [ 38.539863669683598, 47.076407755395337 ], [ 38.550538391950454, 47.076197316059677 ], [ 38.560105543578857, 47.07581194415269 ], [ 38.569647244473344, 47.075108359679518 ], [ 38.590751738368226, 47.073059607960147 ], [ 38.600132066286335, 47.072796268355262 ], [ 38.609412253276048, 47.073201867723355 ], [ 38.615493560605046, 47.07388215471866 ], [ 38.621450356975913, 47.074935298537923 ], [ 38.627242897291922, 47.076415361486909 ], [ 38.631943698114469, 47.078021486511886 ], [ 38.636486344443426, 47.079941313726579 ], [ 38.640856509923424, 47.082147555325264 ], [ 38.64503604086417, 47.084619959931103 ], [ 38.648614935165085, 47.087033016023838 ], [ 38.657385888355805, 47.093443484209274 ], [ 38.66265281173753, 47.097412081008031 ], [ 38.674785138597088, 47.106985938910725 ], [ 38.680201199966632, 47.110907802373674 ], [ 38.685865234889661, 47.114609581769571 ], [ 38.691722345729545, 47.118083699980843 ], [ 38.69772469124797, 47.121312390257401 ], [ 38.703830237746558, 47.124266216091655 ], [ 38.710001504609409, 47.126902446880138 ], [ 38.721053541789615, 47.13082489763849 ], [ 38.730471628004352, 47.133789199255432 ], [ 38.734495989585014, 47.134887463275106 ], [ 38.742894360027492, 47.136407802051224 ], [ 38.751677453312197, 47.137079235487363 ], [ 38.757671980050304, 47.137093966940199 ], [ 38.763730631541705, 47.136769548748362 ], [ 38.769815387859921, 47.136097094674597 ], [ 38.776611523553413, 47.13493882116245 ], [ 38.790143462654044, 47.131819158356336 ], [ 38.802097575409334, 47.12861540321461 ], [ 38.807933923227154, 47.126787959168041 ], [ 38.814281150088107, 47.124482472837485 ], [ 38.820409144699909, 47.121954993942325 ], [ 38.833852775815785, 47.115696954287159 ], [ 38.838965243707662, 47.11356095389101 ], [ 38.849319207025701, 47.10980519137064 ], [ 38.857099138468243, 47.107315233011889 ], [ 38.865373564837398, 47.105592051737915 ], [ 38.874104454801625, 47.104632904095752 ], [ 38.883092111354472, 47.104305900920792 ], [ 38.892142368139901, 47.104522161139073 ], [ 38.911737667825889, 47.105820842428159 ], [ 38.919855819455222, 47.105729759492647 ], [ 38.927176027646283, 47.104862336474241 ], [ 38.931404003026216, 47.10378018453747 ], [ 38.934931391336193, 47.102223977068263 ], [ 38.937573538961146, 47.100115077509827 ], [ 38.938866975229132, 47.098135953186556 ], [ 38.939569999187654, 47.095879752380483 ], [ 38.939699962968689, 47.093429073131233 ], [ 38.93926236117818, 47.090862619788084 ], [ 38.937606528294737, 47.086944130280244 ], [ 38.935006644945418, 47.082933578703887 ], [ 38.931748821332747, 47.078820971670154 ], [ 38.926612019410982, 47.073214690850136 ], [ 38.922097705747092, 47.069185805457892 ], [ 38.91709091443613, 47.065331126055696 ], [ 38.911736956696757, 47.061641565980835 ], [ 38.906159167300927, 47.05811471141601 ], [ 38.894745108305358, 47.051577470705467 ], [ 38.887021954676527, 47.047738767114026 ], [ 38.878802757966298, 47.044776161652294 ], [ 38.870161840536184, 47.042533345796016 ], [ 38.84666213073001, 47.037990831744537 ], [ 38.840995308193783, 47.036792851321252 ], [ 38.83553001668929, 47.035429012629493 ], [ 38.811846107474651, 47.028574752369309 ], [ 38.806693380512229, 47.026928887491124 ], [ 38.801728516926175, 47.025068096397661 ], [ 38.797034027989071, 47.022897002902994 ], [ 38.793721566852184, 47.021025172950431 ], [ 38.784057433119301, 47.014874052785387 ], [ 38.764167428450207, 47.004014259138671 ], [ 38.758613974583682, 47.000714586331469 ], [ 38.745873826838704, 46.992346053469589 ], [ 38.740213092482293, 46.988810927432894 ], [ 38.734303998022142, 46.985429400510441 ], [ 38.728193868775463, 46.982211447606119 ], [ 38.721922208395824, 46.979173152441319 ], [ 38.715521970547115, 46.976337544361627 ], [ 38.709020836985189, 46.973735402535169 ], [ 38.684959425393288, 46.965248449649437 ], [ 38.672498963491023, 46.9603806671131 ], [ 38.662084601257448, 46.955888578950123 ], [ 38.65729516487005, 46.953388674629082 ], [ 38.644155181875703, 46.944891686771598 ], [ 38.637132525560958, 46.941024160065012 ], [ 38.624093281622152, 46.934539889647908 ], [ 38.609140368910403, 46.92682684174423 ], [ 38.605358377484208, 46.924991745521709 ], [ 38.597363570885761, 46.921791531416943 ], [ 38.588897577762168, 46.919010561967923 ], [ 38.575689687976762, 46.915288348891863 ], [ 38.568850809828859, 46.91376618592443 ], [ 38.559439488163036, 46.912246880601458 ], [ 38.549818020241105, 46.911220334335894 ], [ 38.540046931153256, 46.910551841791346 ], [ 38.523545317968171, 46.909967847131099 ], [ 38.510226008151335, 46.909795514066104 ], [ 38.459951345086552, 46.909875133243872 ], [ 38.436481728879244, 46.909695520803041 ], [ 38.419773318698674, 46.909188850591818 ], [ 38.409793282698388, 46.908620163459943 ], [ 38.396574257362715, 46.907391231336248 ], [ 38.390018535026513, 46.906504530303096 ], [ 38.382739022721239, 46.905267399447212 ], [ 38.348757848794946, 46.898763499636857 ], [ 38.327170603090337, 46.894456600891317 ], [ 38.317574209744407, 46.89294389608898 ], [ 38.295953475088822, 46.890042655427067 ], [ 38.290201212534555, 46.889138723760823 ], [ 38.282190506335724, 46.887507720705003 ], [ 38.275217159743988, 46.885346857823492 ], [ 38.270937753740043, 46.883269546427869 ], [ 38.267648259582302, 46.880823918815793 ], [ 38.265573398323852, 46.878065896139276 ], [ 38.26503372758765, 46.874045536356562 ], [ 38.266049021919798, 46.871371259140744 ], [ 38.267892143058873, 46.868650017397499 ], [ 38.270281639053906, 46.865750415603827 ], [ 38.274508139088141, 46.860941683902411 ], [ 38.286006762460374, 46.849413411113801 ], [ 38.294187515757699, 46.840401946735369 ], [ 38.297125168734226, 46.836761315481453 ], [ 38.299570562677388, 46.832877672500388 ], [ 38.30095514350802, 46.829717151216926 ], [ 38.301945206738537, 46.826369483109431 ], [ 38.302791738827239, 46.819311780210512 ], [ 38.302654083487482, 46.815696262555321 ], [ 38.302133438519775, 46.812084030684503 ], [ 38.301213066314517, 46.808520468833024 ], [ 38.299868017263691, 46.805051457646812 ], [ 38.297066812615697, 46.800116528719627 ], [ 38.293501163488827, 46.795411863227457 ], [ 38.289391195908536, 46.790859904435479 ], [ 38.269412779265167, 46.771250386104043 ], [ 38.248426591451675, 46.751760750777294 ], [ 38.244703017227096, 46.748492448083937 ], [ 38.237013198791715, 46.74218672186737 ], [ 38.229647796130791, 46.736403126400262 ], [ 38.226090997331141, 46.733783977136227 ], [ 38.220499147947407, 46.730152409305617 ], [ 38.214581472675661, 46.726858638245801 ], [ 38.208389115558816, 46.723903088773056 ], [ 38.199734679572259, 46.720415358460343 ], [ 38.156863940840651, 46.704521646056719 ], [ 38.131289498285355, 46.69617901263689 ], [ 38.124383101721378, 46.693724476321734 ], [ 38.11068656653714, 46.688343768405332 ], [ 38.075029735997362, 46.673360132652419 ], [ 38.063622879905154, 46.66901576944548 ], [ 38.048649433990704, 46.663949213921512 ], [ 38.039303634893088, 46.661439182884465 ], [ 38.023253448431376, 46.65792667693097 ], [ 38.010032445671072, 46.65542007486232 ], [ 37.989515423059231, 46.652234465595313 ], [ 37.983003445375005, 46.651494285004844 ], [ 37.969881978116518, 46.650472363684344 ], [ 37.959983251221274, 46.649994802063475 ], [ 37.929948107496614, 46.64918716600539 ], [ 37.918609364995234, 46.64841907218198 ], [ 37.906580451247123, 46.647051030970658 ], [ 37.898488195861376, 46.645776896816187 ], [ 37.890553926378516, 46.644194465846283 ], [ 37.88296025890304, 46.642292085110341 ], [ 37.872592785964457, 46.638835727829928 ], [ 37.863933392978652, 46.634722873344856 ], [ 37.860371872785208, 46.63249973083424 ], [ 37.854919203152633, 46.628321944284494 ], [ 37.8515792210992, 46.624988564904527 ], [ 37.850595134371872, 46.623169526170273 ] ], [ [ 35.830349391182096, 46.624617168899363 ], [ 35.837516574530582, 46.626690641158291 ], [ 35.878526879399942, 46.639500909552453 ], [ 35.888576249464393, 46.64241483809343 ], [ 35.898621299161505, 46.64511486528761 ], [ 35.908388992356436, 46.647463483080969 ], [ 35.918770403561041, 46.649554318947025 ], [ 35.928038238960255, 46.650990902358558 ], [ 35.943490208149399, 46.652653863663033 ], [ 35.956740049526559, 46.653642128233855 ], [ 36.005032488376344, 46.656763805601429 ], [ 36.03053690566486, 46.658758549569882 ], [ 36.04052803345644, 46.659291498584935 ], [ 36.050545916696706, 46.659605309015149 ], [ 36.070632862673335, 46.659671619726737 ], [ 36.080686691217409, 46.659426189212809 ], [ 36.090734898992253, 46.658966300093823 ], [ 36.118317511176372, 46.657085652204501 ], [ 36.125013038699876, 46.6567791236576 ], [ 36.138379754922994, 46.656449750481784 ], [ 36.158574804696457, 46.656251882332697 ], [ 36.165241423750956, 46.655971146422814 ], [ 36.171807412512692, 46.655386893376487 ], [ 36.17824218290923, 46.654391908374578 ], [ 36.184506199207078, 46.652977165013851 ], [ 36.190549165456787, 46.651145501603423 ], [ 36.196307884625298, 46.648882833798496 ], [ 36.200058934837614, 46.647074584881295 ], [ 36.20363925645762, 46.645086694808469 ], [ 36.208526640167634, 46.641909300113753 ], [ 36.212916218193811, 46.638351119201502 ], [ 36.215568714976939, 46.635654616278202 ], [ 36.217891889438647, 46.632758554926227 ], [ 36.221412789549674, 46.626430242420156 ], [ 36.223291159619123, 46.61907004498272 ], [ 36.223532536078892, 46.615237800679836 ], [ 36.223322453396804, 46.611362682501294 ], [ 36.222658470854071, 46.607486824163914 ], [ 36.221527993322411, 46.603651811863131 ], [ 36.218145790131473, 46.596635026787851 ], [ 36.213409659381682, 46.589935540477427 ], [ 36.207603725186175, 46.583591890093032 ], [ 36.201986591853313, 46.57850932763148 ], [ 36.195882152123261, 46.573689298696763 ], [ 36.189403319409053, 46.569107048754063 ], [ 36.16417709899639, 46.553105026364392 ], [ 36.157082950620634, 46.548388054628731 ], [ 36.150856180799451, 46.544073481391194 ], [ 36.141228788158287, 46.536839482325092 ], [ 36.134116474890561, 46.530900276964019 ], [ 36.12645774135251, 46.523852473016973 ], [ 36.118168670977695, 46.51528732845162 ], [ 36.114297189955892, 46.510615363698776 ], [ 36.111733611943293, 46.506842954278397 ], [ 36.109531985507601, 46.502396144726902 ], [ 36.108401883995327, 46.497989270333107 ], [ 36.108300091686374, 46.496453646466477 ], [ 36.109058619891755, 46.491673274707921 ], [ 36.11152433970625, 46.487125352804867 ], [ 36.113327435285555, 46.485121673324386 ], [ 36.11571936095288, 46.483165279235379 ], [ 36.119323952198954, 46.481078051378859 ], [ 36.12342685295414, 46.479440067992755 ], [ 36.129792501564282, 46.477885717763627 ], [ 36.135228533304939, 46.477300262396398 ], [ 36.140913985250108, 46.477283497760538 ], [ 36.146943713714222, 46.477850858645525 ], [ 36.151924394147102, 46.478713842194509 ], [ 36.156944845300018, 46.479882006096318 ], [ 36.161589068121089, 46.481191768152257 ], [ 36.166223072027378, 46.48271798776392 ], [ 36.170820471503987, 46.484466452703373 ], [ 36.175354379380451, 46.486449723353473 ], [ 36.180170114025657, 46.488882565170343 ], [ 36.184854774625364, 46.491608905355633 ], [ 36.192206148415607, 46.496667704885624 ], [ 36.199739487116176, 46.502796721971833 ], [ 36.206531238569198, 46.509225919726134 ], [ 36.214100154363223, 46.517435230526871 ], [ 36.218713962249524, 46.522840345737393 ], [ 36.22338943967344, 46.52871252265777 ], [ 36.227266033812612, 46.533958704549491 ], [ 36.235339447827641, 46.545595610800888 ], [ 36.249827083057767, 46.567569668983936 ], [ 36.254635567502191, 46.575302214178123 ], [ 36.258986119516464, 46.582716307447924 ], [ 36.262737035491114, 46.589648216944795 ], [ 36.266700610325984, 46.597928873445198 ], [ 36.269153490888698, 46.60383042478793 ], [ 36.270581724140357, 46.607794293189102 ], [ 36.270882615728794, 46.609167416760215 ] ], [ [ 36.470297780839701, 46.740000000001714 ], [ 36.478789864296743, 46.740007422723352 ], [ 36.491888957605454, 46.740384621911005 ], [ 36.508585726062904, 46.741335466058388 ], [ 36.542877989582394, 46.744028676009123 ], [ 36.554987600341349, 46.745471561178647 ], [ 36.569902624684744, 46.747937158492164 ], [ 36.583026532733584, 46.750639634679715 ], [ 36.596067321513431, 46.753862633592462 ], [ 36.611372197707226, 46.758172115442221 ], [ 36.617781773460024, 46.759716435758321 ], [ 36.624278263678548, 46.760985694334579 ], [ 36.630845979630578, 46.761974981349738 ], [ 36.637380962080499, 46.762668423286129 ], [ 36.643957150490508, 46.763111494627537 ], [ 36.650560215599796, 46.763330547862097 ], [ 36.657176738456485, 46.763334957083885 ], [ 36.663793295135235, 46.763117308414849 ], [ 36.670395490047952, 46.762652890637355 ], [ 36.677058438988638, 46.761900315672733 ], [ 36.683676507731263, 46.760871105753836 ], [ 36.690231881310012, 46.759565613134384 ], [ 36.69680967472641, 46.75794035137136 ], [ 36.70327377109146, 46.756005288238157 ], [ 36.709589640029321, 46.753733455267195 ], [ 36.714589699570695, 46.75161125490115 ], [ 36.719450527700701, 46.749251250904138 ], [ 36.723434323233846, 46.747090588189451 ], [ 36.729056245351558, 46.743699593902818 ], [ 36.735485055729612, 46.73911064307282 ], [ 36.739825635136981, 46.735495639087048 ], [ 36.743654442564718, 46.73195641201545 ], [ 36.747224654639524, 46.728216003511307 ], [ 36.749863129512562, 46.725021436961015 ], [ 36.7537540798956, 46.71937781937828 ], [ 36.756693549953354, 46.714109445685608 ], [ 36.758557707624618, 46.710296667583521 ], [ 36.76021928989195, 46.706416939729479 ], [ 36.766901622887701, 46.688998250899658 ], [ 36.769441993458315, 46.683861291183746 ], [ 36.770830926541009, 46.68162136104462 ], [ 36.774328960608727, 46.67764645773201 ], [ 36.778109641799404, 46.675411677539614 ], [ 36.782056087878004, 46.674488566572563 ], [ 36.785730530469607, 46.674712638932021 ], [ 36.78848012292093, 46.675619466962985 ], [ 36.790660810381041, 46.676755613539626 ], [ 36.792611536183983, 46.678213034832083 ] ], [ [ 36.363198594314213, 46.702690525725075 ], [ 36.378583858847321, 46.706898795953009 ], [ 36.385935308892329, 46.708588207676257 ], [ 36.392324752614684, 46.709462324532694 ], [ 36.40559025758489, 46.71007726449227 ], [ 36.409962984938602, 46.710507803184782 ], [ 36.414381367207909, 46.711354687749179 ], [ 36.418669365736775, 46.712604104165905 ], [ 36.420741085417774, 46.713396004809624 ], [ 36.424331235861359, 46.7152179408032 ], [ 36.432322516920294, 46.720468435712064 ], [ 36.440049425268285, 46.724855579753921 ], [ 36.469888580880308, 46.739944290441201 ] ], [ [ 37.170244248811798, 46.913333333997912 ], [ 37.174982760619457, 46.913331340641491 ], [ 37.182147536501191, 46.913585708632127 ], [ 37.190819132639433, 46.914238012888632 ], [ 37.199489143093842, 46.915261997040488 ], [ 37.223472984847547, 46.918984737718517 ], [ 37.2335509412448, 46.92002372273231 ], [ 37.243583156786826, 46.920419115883931 ], [ 37.253555687469316, 46.920344986397538 ], [ 37.260059893021378, 46.919882986941445 ], [ 37.263220147745471, 46.919428926977218 ], [ 37.266283045805437, 46.918748224562648 ], [ 37.269209606496815, 46.917756362611499 ], [ 37.27181174473094, 46.916470397116655 ], [ 37.274276369782001, 46.914895649589823 ], [ 37.278308604665597, 46.911634822589235 ], [ 37.282973279234682, 46.906794922108816 ], [ 37.284814625495585, 46.904466582076395 ], [ 37.286461719430633, 46.902036774161331 ], [ 37.287856254290261, 46.89949907738719 ], [ 37.289013276741116, 46.896690577492507 ], [ 37.29075024400197, 46.890983238769138 ], [ 37.291859810521373, 46.88816879241881 ], [ 37.293501734273889, 46.885556994759781 ], [ 37.295758508335894, 46.883400176922237 ], [ 37.298630930689569, 46.881869909475256 ], [ 37.301880066887179, 46.88089950246416 ], [ 37.305214259191303, 46.880370769463809 ], [ 37.308349450547041, 46.8801733865904 ], [ 37.311009403938272, 46.880203370278309 ], [ 37.313867907382019, 46.880552558292266 ] ] ] } },
{ "type": "Feature", "properties": { "gid": 2, "objectid": 2.0, "z": 2.0, "index": 0.0, "shape_leng": 7.3261641208899997, "z1": 1.0, "z2": 0.0, "index1": 0.0, "index2": 0.0 }, "geometry": { "type": "MultiLineString", "coordinates": [ [ [ 36.846000002860876, 46.680000000003986 ], [ 36.846377523256301, 46.682172811811121 ], [ 36.847804879821467, 46.687184747045691 ], [ 36.84895748404562, 46.690538745410919 ], [ 36.850453486438006, 46.69432986453279 ], [ 36.852566377980153, 46.698977871302262 ], [ 36.858196578854958, 46.709730054690553 ], [ 36.861616188989593, 46.715725122450024 ], [ 36.868508069110334, 46.726973748589621 ], [ 36.871890629684387, 46.732005579489829 ], [ 36.87589099476628, 46.737430178524697 ], [ 36.880040806314049, 46.74259771030809 ], [ 36.888326537400459, 46.75205688867981 ], [ 36.907669366565123, 46.772296819037066 ], [ 36.92003904259019, 46.785485055639683 ], [ 36.928213475130349, 46.79370130650836 ], [ 36.932496586249094, 46.797610904240486 ], [ 36.938039726325876, 46.80221395054005 ], [ 36.943789720945233, 46.80659395777888 ], [ 36.955380350909806, 46.814700897681533 ], [ 36.96119701363682, 46.818425549558064 ], [ 36.965903574788996, 46.821216258544112 ], [ 36.975578619873602, 46.826394114007847 ], [ 36.985552533408026, 46.831053785036616 ], [ 36.996984932181029, 46.835609724058813 ], [ 37.009886369191427, 46.839983876976795 ], [ 37.035865046875259, 46.847930296194349 ], [ 37.070349202200617, 46.858917480930245 ], [ 37.083484744901064, 46.862409460223653 ], [ 37.094921848782164, 46.864884805937052 ], [ 37.110586957520354, 46.86757481615831 ], [ 37.120354494155322, 46.868676147429916 ], [ 37.130185676510266, 46.869342826649479 ], [ 37.140053701460033, 46.869653694263448 ], [ 37.149934648600031, 46.869651674553928 ], [ 37.156517842360934, 46.869482565322798 ], [ 37.169643033678526, 46.868714900811575 ], [ 37.179420529698234, 46.867701474999635 ], [ 37.189107339749718, 46.866215071052693 ], [ 37.196254511763669, 46.864757473150775 ], [ 37.219970117519161, 46.859039750497146 ], [ 37.229458912477106, 46.856589325924901 ], [ 37.255755249360163, 46.849007897018843 ], [ 37.265849889754108, 46.846637940657871 ], [ 37.270680472396144, 46.84574315388366 ], [ 37.277139779985468, 46.844801120575774 ], [ 37.283608241292875, 46.844170529535354 ], [ 37.290072586349943, 46.84389018076282 ], [ 37.299597497583086, 46.844204690247402 ], [ 37.309018750147359, 46.845461323139574 ], [ 37.314216878829363, 46.846607245415861 ], [ 37.319365595632924, 46.848038842391645 ], [ 37.324469240065952, 46.849714040987052 ], [ 37.32953096023445, 46.851597516550164 ], [ 37.336217982603728, 46.854382990179367 ], [ 37.34283547522702, 46.85743260149259 ], [ 37.349381494811134, 46.860706408394016 ], [ 37.362233507272251, 46.867828975195408 ], [ 37.368517517144461, 46.871655223271183 ], [ 37.386021454300923, 46.883096301139524 ], [ 37.39769598821956, 46.890245284517952 ], [ 37.411673663784249, 46.897985024309577 ], [ 37.418204047967663, 46.901265341774398 ], [ 37.424846393290593, 46.904309554277518 ], [ 37.431596972983506, 46.907087934713573 ], [ 37.440805919089719, 46.910404450223773 ], [ 37.463996997058572, 46.918220655299564 ], [ 37.477938927513321, 46.922611198425486 ], [ 37.484949310695491, 46.924474331602227 ], [ 37.491996436793656, 46.92597720376223 ], [ 37.501502745094299, 46.927286337220551 ], [ 37.510988958703344, 46.927843795637806 ], [ 37.545093001028533, 46.927393336492926 ], [ 37.551524402804688, 46.92707063277345 ], [ 37.557082678048779, 46.926382628104825 ], [ 37.562377857159156, 46.925235876765917 ], [ 37.567312770305151, 46.923560460870235 ], [ 37.572270497222299, 46.920983181215732 ], [ 37.576492689570706, 46.917674274411752 ], [ 37.579799877957001, 46.913641956920515 ], [ 37.581416538854512, 46.91053275612299 ], [ 37.582563637415845, 46.907146061064616 ], [ 37.583272911308896, 46.903534706213733 ], [ 37.583566742866481, 46.899746400897087 ], [ 37.582952684562187, 46.891808698192818 ], [ 37.581091608518818, 46.884425922824832 ], [ 37.578271176864611, 46.876920096637164 ], [ 37.57477101405604, 46.869336427076028 ], [ 37.570815824079325, 46.86170581325797 ], [ 37.553778426172514, 46.830998347070008 ], [ 37.543461595977206, 46.810565891098079 ], [ 37.53947135518851, 46.801636550788231 ], [ 37.53763053115005, 46.796846849272157 ], [ 37.535060090229436, 46.787949996936135 ], [ 37.53407801499695, 46.783360055532647 ], [ 37.532580428183849, 46.773961024370024 ], [ 37.531167537990171, 46.759464647222991 ], [ 37.530573339262389, 46.749626873112135 ], [ 37.529265893437383, 46.71978032475743 ], [ 37.528665335448338, 46.709847644499504 ], [ 37.527805516806936, 46.699990620638026 ], [ 37.526551941173871, 46.690261052661306 ], [ 37.52572678607546, 46.685463988508268 ], [ 37.524737291555162, 46.680724952509664 ], [ 37.523555604239853, 46.676055347830349 ], [ 37.522150400305158, 46.671468220736806 ], [ 37.519010381096479, 46.663433953257012 ], [ 37.5152280337389, 46.655688905261727 ], [ 37.510969227928193, 46.648226791100541 ], [ 37.506374344829069, 46.641064256585203 ], [ 37.50156809277469, 46.634242255018755 ], [ 37.487207227382115, 46.615864357204842 ], [ 37.484311960039555, 46.611351381402791 ], [ 37.482348935662174, 46.606876616997155 ], [ 37.481700645985441, 46.603874458451784 ], [ 37.481616552175915, 46.600914300978168 ], [ 37.482101766603847, 46.598053468043616 ], [ 37.48317276218264, 46.595351725428586 ], [ 37.4850705840595, 46.592579667068634 ], [ 37.487623549781176, 46.590074488310812 ], [ 37.490381064023261, 46.588045793995832 ], [ 37.493513298670962, 46.586166710447451 ], [ 37.498314929783085, 46.583738162574811 ], [ 37.509169414131087, 46.579187199356774 ], [ 37.518794854563403, 46.575620440796037 ], [ 37.528877106688313, 46.572240172080093 ], [ 37.547512059160582, 46.56648109556604 ], [ 37.554458733592114, 46.564036728379875 ], [ 37.561352886684233, 46.561358946199242 ], [ 37.568181494563952, 46.55847286478577 ], [ 37.578270560017728, 46.553785320307085 ], [ 37.583230738195695, 46.551284663200846 ], [ 37.594524209389959, 46.545022432547341 ], [ 37.600757503691732, 46.541143995131492 ], [ 37.60678741629615, 46.537007799232335 ], [ 37.613789444128578, 46.531646302885726 ], [ 37.628956942095584, 46.518930886782258 ], [ 37.635836897243841, 46.512709753700719 ], [ 37.642557487391748, 46.506297746039763 ], [ 37.701405793036059, 46.446476575373218 ], [ 37.721583528069061, 46.426466036103974 ], [ 37.736012558185855, 46.412519698428 ], [ 37.76100116236821, 46.387320372391045 ], [ 37.768537498896059, 46.380088643978596 ], [ 37.775297039953408, 46.373820207499918 ], [ 37.783375682648064, 46.367270874861617 ], [ 37.791927024370388, 46.361094440481537 ], [ 37.809475644159818, 46.349034796110928 ], [ 37.815202448326154, 46.344885806603962 ], [ 37.820744391075429, 46.340567452633969 ], [ 37.826016957759201, 46.336007829080046 ], [ 37.832660248031111, 46.329467301163277 ], [ 37.845016964623014, 46.316493679289742 ], [ 37.851085342219079, 46.309783155622519 ], [ 37.85695862003503, 46.302926353783469 ], [ 37.862516801016383, 46.295908103387937 ], [ 37.867607910300087, 46.288699081276356 ], [ 37.870070092817151, 46.28479056709206 ], [ 37.876577080612783, 46.273380286392495 ], [ 37.880224170924201, 46.265829884681857 ], [ 37.883012028786183, 46.258119991722722 ], [ 37.884021453790403, 46.253943732460336 ], [ 37.884701155272133, 46.249723474219522 ], [ 37.885138163694037, 46.241248397555452 ], [ 37.884912375565669, 46.23704175459774 ], [ 37.884390940297315, 46.232888179210534 ], [ 37.882424858626877, 46.224841873823145 ], [ 37.880156684414729, 46.219134921293907 ], [ 37.868958828649468, 46.196536167971985 ], [ 37.861002211586886, 46.181403102293324 ], [ 37.858320561361893, 46.17552591888694 ], [ 37.856140552017848, 46.16928612513086 ], [ 37.854438132579816, 46.162749349270349 ], [ 37.853121123756814, 46.155975394852838 ], [ 37.852113152900607, 46.149013616784622 ], [ 37.851143512428088, 46.139507857382 ], [ 37.8504972097316, 46.129814923303968 ], [ 37.850088730599474, 46.119992133531611 ], [ 37.84976295910996, 46.100121197978268 ], [ 37.850008535394686, 46.075155773401271 ], [ 37.850503415543884, 46.060250854554688 ], [ 37.851028514049084, 46.05039951697659 ], [ 37.852231659128449, 46.035839727510009 ], [ 37.852778261737576, 46.031067955893434 ], [ 37.854157802958582, 46.021692469300866 ], [ 37.856014724095786, 46.012606835154159 ], [ 37.860461522795497, 45.996273011605354 ], [ 37.862227813621672, 45.988224306513118 ], [ 37.863098653929086, 45.979607449221213 ], [ 37.863119804080668, 45.97529347062418 ], [ 37.862864277591619, 45.970999704839613 ], [ 37.862061966550414, 45.964979096964534 ], [ 37.860928503648076, 45.958977537397345 ], [ 37.859062343930169, 45.950464000243329 ], [ 37.855358844328229, 45.936784987212093 ], [ 37.848981006454103, 45.910320178052494 ], [ 37.846474432297896, 45.901496028778674 ], [ 37.844382026679135, 45.895371598628266 ], [ 37.838849488969537, 45.880787226370011 ], [ 37.828546124385241, 45.856569450835138 ], [ 37.824329909743099, 45.848186650380903 ], [ 37.819716682407439, 45.840045951047294 ], [ 37.814743523500589, 45.832069117216207 ], [ 37.806769330447864, 45.820491089882367 ], [ 37.802789433402481, 45.815324562902056 ], [ 37.79853735340027, 45.810252215371293 ], [ 37.794057575333831, 45.80527247874906 ], [ 37.789384301371307, 45.800388501111257 ], [ 37.779548605609136, 45.790945199916919 ], [ 37.774411523473205, 45.786417904733298 ], [ 37.769132832980688, 45.782051272305829 ], [ 37.763423464478173, 45.777637706047706 ], [ 37.735006060087997, 45.756912408081782 ], [ 37.727958265724894, 45.751900189745172 ], [ 37.721959135377446, 45.747904120617129 ], [ 37.709580858622004, 45.740248711167403 ], [ 37.67855972547121, 45.722008990719281 ], [ 37.668902565199858, 45.716646352234143 ], [ 37.643883402840466, 45.703485912444975 ], [ 37.637922958191503, 45.700140300431251 ], [ 37.632121136529094, 45.69660193110581 ], [ 37.625512879402429, 45.692071876126434 ], [ 37.61923213779712, 45.687177865140619 ], [ 37.614918367255108, 45.683434918686892 ], [ 37.610759107329599, 45.679554936022257 ], [ 37.603414731101211, 45.67202702962301 ], [ 37.599755378926382, 45.667751495175956 ], [ 37.597819402179631, 45.66531036838969 ], [ 37.592965108753248, 45.658531291403996 ], [ 37.590434715064582, 45.654631882781239 ], [ 37.581042964594296, 45.639478657538177 ], [ 37.577724456669749, 45.633805368905868 ], [ 37.574603672706772, 45.628058176740971 ], [ 37.566592151012806, 45.611600405193379 ], [ 37.560462178263315, 45.600400103318336 ], [ 37.555588067251087, 45.592355657082372 ], [ 37.548147787994026, 45.580916091477462 ], [ 37.54287382792446, 45.574000351501041 ], [ 37.538324424201974, 45.569275400896252 ], [ 37.533278062824721, 45.564896919880873 ], [ 37.527832227287334, 45.560807064922265 ], [ 37.52206612733174, 45.556962798052531 ], [ 37.516043080299461, 45.553334805294426 ], [ 37.509812646363073, 45.549906727106425 ], [ 37.503412474406801, 45.546674741965674 ], [ 37.496869843232048, 45.543647526783865 ], [ 37.490202900739718, 45.540846605113188 ], [ 37.483421615149616, 45.538307082787313 ], [ 37.476528460008652, 45.536078757782583 ], [ 37.469518860718928, 45.534227573354705 ], [ 37.459929711599543, 45.532405285460868 ], [ 37.450178444115238, 45.531186172141609 ], [ 37.440316794279639, 45.530392945708336 ], [ 37.423736462519727, 45.529658393774525 ], [ 37.383800580564838, 45.528641295883887 ], [ 37.370590267285237, 45.527933815191147 ], [ 37.360761575044549, 45.527085027261904 ], [ 37.351028187885106, 45.525843740013059 ], [ 37.343845808780081, 45.524617189865523 ], [ 37.29610394406405, 45.515363369597765 ], [ 37.288930087872096, 45.51410770011573 ], [ 37.282464046203856, 45.513194945740892 ], [ 37.269413895800973, 45.511875615740756 ], [ 37.259558249921128, 45.511187631767825 ], [ 37.229931807739881, 45.509600813564631 ], [ 37.220133177987982, 45.50891395783114 ], [ 37.210433536076884, 45.507970427351395 ], [ 37.204046281325169, 45.507133118082947 ], [ 37.197743159147741, 45.506074572519999 ], [ 37.19154571780826, 45.504739625916976 ], [ 37.184765586816496, 45.502874065958657 ], [ 37.178144628686574, 45.500679322863363 ], [ 37.171685113442095, 45.498238951500426 ], [ 37.165396602209846, 45.495626281264052 ], [ 37.145738979372851, 45.486567712046963 ], [ 37.137815436488125, 45.483589049004742 ], [ 37.129654829905348, 45.481087743759801 ], [ 37.113364394830619, 45.476452591577207 ], [ 37.105423307622985, 45.473996331700597 ], [ 37.099918290231187, 45.472553114333948 ], [ 37.094207523439273, 45.471281802859728 ], [ 37.07012313016822, 45.466710933097445 ], [ 37.056289619795777, 45.463829473491771 ], [ 37.04300507685884, 45.461417384974006 ], [ 36.997926837984423, 45.455499162687225 ], [ 36.991264224992882, 45.454893467221758 ], [ 36.985388440501211, 45.454676985205211 ], [ 36.979621153962491, 45.454785585536591 ], [ 36.974000205901184, 45.455219676724468 ], [ 36.957173390370208, 45.457351638152353 ], [ 36.948206405560008, 45.458189289415699 ], [ 36.916717354385568, 45.460504563096613 ], [ 36.903823568810836, 45.461643842841319 ], [ 36.890935517517796, 45.463201084139172 ], [ 36.869391937298758, 45.466571316091652 ], [ 36.862906952950482, 45.467370734372231 ], [ 36.849823833052213, 45.468523893580233 ], [ 36.836634154413808, 45.469243991358766 ], [ 36.816730832137168, 45.469816316092427 ], [ 36.790085156564409, 45.4700781310259 ], [ 36.663297241616519, 45.469829600655743 ], [ 36.629993260666446, 45.469963632033036 ], [ 36.603470758666603, 45.4705780947574 ], [ 36.590298970792972, 45.471263558895387 ], [ 36.583748943617032, 45.471758098904253 ], [ 36.570749007045684, 45.473171091394718 ], [ 36.549183427505625, 45.476539950564309 ], [ 36.539479855828382, 45.477795865369124 ], [ 36.510162978921052, 45.480690035324855 ], [ 36.497171508674491, 45.482138294399682 ], [ 36.490715760458812, 45.483031799278983 ], [ 36.469198029722087, 45.486602682007863 ], [ 36.462744787737918, 45.48750678229964 ], [ 36.430241074417225, 45.491021166373613 ], [ 36.417297990068221, 45.492674299484833 ], [ 36.40552809797942, 45.494737028710865 ], [ 36.370494632559954, 45.502095288138577 ], [ 36.354553706174045, 45.505609454231703 ], [ 36.342815794829761, 45.507807666951749 ], [ 36.290030489448213, 45.515129160446087 ], [ 36.269447995821714, 45.517661670713025 ], [ 36.25637911164047, 45.518781896036799 ], [ 36.243207081215573, 45.519465186619577 ], [ 36.229967345442745, 45.519861672577022 ], [ 36.200044539748752, 45.520188673268684 ], [ 36.003261117354938, 45.519694088502938 ], [ 35.969953364435014, 45.519802449320309 ], [ 35.950049538798154, 45.520209851001425 ], [ 35.936854298586965, 45.520794823416388 ], [ 35.923758465261756, 45.521800890400677 ], [ 35.910814105897948, 45.523448611729435 ], [ 35.903662320796336, 45.524726951242783 ], [ 35.870357625255885, 45.53151493677089 ], [ 35.849096769216771, 45.536173874631494 ], [ 35.817060952914503, 45.541670275883625 ], [ 35.810688504824775, 45.542916615922181 ], [ 35.803610380120467, 45.544506998692135 ], [ 35.77693898411647, 45.551153715742579 ], [ 35.770675227724517, 45.552860501679099 ], [ 35.756805668537545, 45.557255770120655 ], [ 35.736147618417249, 45.564468446995718 ], [ 35.710662026547247, 45.572805410876619 ], [ 35.696982255765491, 45.578005017744736 ], [ 35.690201807359408, 45.580856675290505 ], [ 35.676721399282869, 45.586901149301404 ], [ 35.663312408328984, 45.593248518440369 ], [ 35.643271139565371, 45.603076540782006 ], [ 35.51660793185507, 45.666594087683343 ], [ 35.403047325584097, 45.723076048452441 ], [ 35.383199179863084, 45.733138124616836 ], [ 35.363753227690871, 45.743448990567742 ], [ 35.351238734495091, 45.750610451698805 ], [ 35.345197947229487, 45.754332153859359 ], [ 35.33935265099236, 45.758182535291034 ], [ 35.333751404514601, 45.762194808564814 ], [ 35.310150813375692, 45.780315276668922 ], [ 35.304714964449381, 45.784594249856283 ], [ 35.299417997740818, 45.789024383757322 ], [ 35.294340289335672, 45.793673123433791 ], [ 35.269027837700648, 45.819748321603491 ], [ 35.25593753070423, 45.832832217037215 ], [ 35.242504709244635, 45.845707081109751 ], [ 35.235655057375212, 45.851976839883037 ], [ 35.228703271231758, 45.858074301732444 ], [ 35.212080741823677, 45.872012827028762 ], [ 35.192794846300764, 45.888880552687873 ], [ 35.186222443280705, 45.894006339048595 ], [ 35.171082730342491, 45.904265235751495 ], [ 35.164105180839108, 45.909419923020515 ], [ 35.157351082025222, 45.914916471022281 ], [ 35.144094800479763, 45.926855326546281 ], [ 35.128316826569808, 45.940393916460899 ], [ 35.123124623753768, 45.945028671374679 ], [ 35.118166553707496, 45.949872071881387 ], [ 35.113581777672792, 45.955025643893414 ], [ 35.108714865203581, 45.961743659469306 ], [ 35.104534908712601, 45.968930729023121 ], [ 35.101008574786107, 45.97646755171499 ], [ 35.098156222697014, 45.984257517497632 ], [ 35.096054913603744, 45.992221369373745 ], [ 35.094843461498968, 46.000292192027587 ], [ 35.094731365670526, 46.00932519462561 ], [ 35.095181241227095, 46.013815278491258 ], [ 35.095980370114077, 46.018261424638183 ], [ 35.098294356188191, 46.026121367579655 ], [ 35.101538405249293, 46.033774251930595 ], [ 35.105512753229796, 46.04121024896768 ], [ 35.110077269011683, 46.048404620885364 ], [ 35.115363779635103, 46.055644456631512 ], [ 35.12100948227252, 46.062618150818601 ], [ 35.13003401034409, 46.072811882083371 ], [ 35.133309651372592, 46.076165835416155 ], [ 35.138510463231881, 46.080905821282684 ], [ 35.144034617121775, 46.085392163806091 ], [ 35.155703942715363, 46.09391386498794 ], [ 35.190613766749209, 46.118421156900467 ], [ 35.203002995648681, 46.126485391524504 ], [ 35.221088060547061, 46.137810150731752 ], [ 35.230569198682616, 46.143363007744057 ], [ 35.255598145654382, 46.157571275512474 ], [ 35.26120981351594, 46.160973035436967 ], [ 35.266636478276489, 46.164583959079721 ], [ 35.271967856803755, 46.168604619247468 ], [ 35.27703930653508, 46.172916510474231 ], [ 35.280277632969785, 46.175934444200095 ], [ 35.28640376343597, 46.182277491797798 ], [ 35.289469049430799, 46.185788435523421 ], [ 35.305424603212188, 46.204744078861097 ], [ 35.315351137970929, 46.216936876651395 ], [ 35.321253138847482, 46.224694020732727 ], [ 35.32605195294704, 46.231674922800387 ], [ 35.337050756208619, 46.249052616273097 ], [ 35.34229087665468, 46.256735425330277 ], [ 35.347105480000174, 46.262860393055625 ], [ 35.352300052779412, 46.268760857885162 ], [ 35.36340654182667, 46.280142230769137 ], [ 35.371760836358284, 46.288123538185218 ], [ 35.375767494061336, 46.291725487512608 ], [ 35.3842333264746, 46.299065061114469 ], [ 35.413353285286789, 46.323196592917334 ], [ 35.421306061783419, 46.330176186291943 ], [ 35.425104111305593, 46.333788053964327 ], [ 35.437795974421142, 46.346922966786487 ], [ 35.450574958015899, 46.359725695613626 ], [ 35.46380844553893, 46.372170561942319 ], [ 35.470592783599535, 46.378118540839068 ], [ 35.476031205783073, 46.382645172702667 ], [ 35.4940003863314, 46.397275327768412 ], [ 35.499573830591757, 46.401413107623519 ], [ 35.505391067646727, 46.405368427295386 ], [ 35.516005079109817, 46.411974350603124 ], [ 35.525399571719255, 46.417432495017366 ], [ 35.555728869617376, 46.434513372912996 ], [ 35.568276629795477, 46.442060968627743 ], [ 35.577400599853746, 46.448060266265429 ], [ 35.582170701064747, 46.451437230023416 ], [ 35.60656850781082, 46.469783560602529 ], [ 35.613640723398952, 46.474637446995942 ], [ 35.619256928324809, 46.477999644335014 ], [ 35.625045734322264, 46.481115167832122 ], [ 35.649048033217348, 46.492637635879774 ], [ 35.662058401658406, 46.499270187129575 ], [ 35.668475891353097, 46.502798935994598 ], [ 35.69490688251102, 46.518010259437631 ], [ 35.723046389508731, 46.533682148285493 ], [ 35.731175139517958, 46.53801292252939 ], [ 35.737708259599223, 46.541177919430517 ], [ 35.744350757476653, 46.544061026668679 ], [ 35.751103272334582, 46.546624649589646 ], [ 35.757234786184135, 46.548628697934333 ], [ 35.763431797444177, 46.550431786729227 ], [ 35.776674195792083, 46.553943940604626 ], [ 35.783720822686767, 46.555632467185482 ], [ 35.790831363739088, 46.557083592687093 ], [ 35.797259793354719, 46.55810957501815 ], [ 35.810275975716294, 46.559505348459567 ], [ 35.823435007628682, 46.560262451141966 ], [ 35.836672715507135, 46.560566352151596 ], [ 35.849938880151107, 46.560508855241615 ], [ 35.863189120203977, 46.560100488417859 ], [ 35.879658640312762, 46.558986947079539 ], [ 35.889448706542566, 46.557881659949864 ], [ 35.917591282972396, 46.553564111426233 ], [ 35.943499325884453, 46.550390380466247 ], [ 35.949901635851376, 46.549476864702115 ], [ 35.956237472989535, 46.548408585161724 ], [ 35.962483615138844, 46.547121764663324 ], [ 35.968612875257165, 46.545543859718421 ], [ 35.975295532357897, 46.543365557520723 ], [ 35.981786288362059, 46.540784995697074 ], [ 35.988070075926046, 46.537849733196545 ], [ 35.994121797695186, 46.534590176700156 ], [ 35.999905543992313, 46.531020615750087 ], [ 36.005373692669998, 46.52714001060334 ], [ 36.012268082463216, 46.521514947971973 ], [ 36.022459750085737, 46.512831170974358 ], [ 36.037797729471272, 46.498651086245737 ], [ 36.060112938767716, 46.479079972571938 ], [ 36.070521724947248, 46.470184783613043 ], [ 36.077324941014638, 46.464673028325493 ], [ 36.085405301437056, 46.4587309906874 ], [ 36.095092993425382, 46.452365910175892 ], [ 36.104355940250784, 46.446781244328669 ], [ 36.112462233455439, 46.442308688867946 ], [ 36.118538276488586, 46.43932748896534 ], [ 36.124736570369798, 46.436555728248287 ], [ 36.136182230442607, 46.431910091227252 ], [ 36.155537957642302, 46.424932701815763 ], [ 36.171036846054129, 46.419909500229792 ], [ 36.176158307870068, 46.418510692269408 ], [ 36.18124867065179, 46.417326219792486 ], [ 36.190232112434643, 46.415840787491042 ], [ 36.196242675002757, 46.41527946365288 ], [ 36.202053177358806, 46.415149914064877 ], [ 36.207596318139359, 46.415545564802919 ], [ 36.212791992776111, 46.416554288169273 ], [ 36.21754455812561, 46.41817556617292 ], [ 36.221739818630887, 46.420405955261742 ], [ 36.225241756643761, 46.423267398300887 ], [ 36.227165701446701, 46.425610079987358 ], [ 36.228749915288802, 46.428403052162089 ], [ 36.229900419186279, 46.431451556865142 ], [ 36.230661417426845, 46.434692250297772 ], [ 36.231124936860326, 46.438488592838112 ], [ 36.232183052933692, 46.458163502568532 ], [ 36.233052447715167, 46.465865943144635 ], [ 36.233653005395908, 46.468934372502034 ], [ 36.234865697937444, 46.473547871290322 ], [ 36.236427333844524, 46.478150339291787 ], [ 36.239614785885948, 46.485488626136728 ], [ 36.24352226094917, 46.492663330337976 ], [ 36.246482585514272, 46.497320189308624 ], [ 36.24844949981982, 46.500148637584907 ], [ 36.253550072092445, 46.506784636550243 ], [ 36.259233955204266, 46.513119312670703 ], [ 36.265361495015632, 46.519173334448752 ], [ 36.270390951299326, 46.523769401043104 ], [ 36.278645212167604, 46.530785006339727 ], [ 36.289361056971586, 46.539389403624483 ], [ 36.29483188092911, 46.543515854895773 ], [ 36.300401433403835, 46.54745702694629 ], [ 36.306094402046568, 46.551151951521419 ], [ 36.311941586467661, 46.554529916869193 ], [ 36.31761347295231, 46.557388593121345 ], [ 36.342342573231683, 46.568615105311459 ], [ 36.361735307538972, 46.57814833179733 ], [ 36.374246711452578, 46.584807130745801 ], [ 36.380300413067076, 46.588216452414969 ], [ 36.393876167109987, 46.596289665304113 ], [ 36.399813411231086, 46.599460763888501 ], [ 36.405983630145499, 46.602322459191036 ], [ 36.412360081756567, 46.604847357916633 ], [ 36.418216415369052, 46.606812296833958 ], [ 36.442312755528995, 46.613743508099368 ], [ 36.448316351747629, 46.615746260680588 ], [ 36.454937029937142, 46.61833304334202 ], [ 36.46144672088716, 46.621279266864079 ], [ 36.467834046507917, 46.624560230690435 ], [ 36.473778621246844, 46.627954058341189 ], [ 36.497723582310442, 46.642687571534971 ], [ 36.515472153888162, 46.652657410078582 ], [ 36.525340555457483, 46.657791809634737 ], [ 36.536983338811375, 46.66344123836145 ], [ 36.543694137871356, 46.666455191494897 ], [ 36.550447290709549, 46.669265473094669 ], [ 36.557245483324721, 46.671819499767054 ], [ 36.564093406964481, 46.674050033458258 ], [ 36.57099775047368, 46.675872519616306 ], [ 36.577222378450273, 46.677095602304433 ], [ 36.58347250820195, 46.677962033686043 ], [ 36.589722030498265, 46.678511171780556 ], [ 36.595944484827328, 46.678769097597389 ], [ 36.602112245300937, 46.678749134646459 ], [ 36.608195681306618, 46.678452135939018 ], [ 36.614162298431907, 46.677866526388875 ], [ 36.61997587010886, 46.676968102741021 ], [ 36.625595579436052, 46.675719608187229 ], [ 36.639271531302519, 46.671490299644503 ], [ 36.650648493122958, 46.667608280405837 ], [ 36.660322788684184, 46.663690452243749 ], [ 36.670036119500537, 46.659240254127944 ], [ 36.6797447445161, 46.654402489273259 ], [ 36.694197992455919, 46.646630555466622 ], [ 36.718552063155215, 46.63238813351979 ], [ 36.72486984371163, 46.629003874957064 ], [ 36.734557689238272, 46.624510247238504 ], [ 36.737838316025481, 46.623198733577183 ], [ 36.743772528873393, 46.621144387758619 ], [ 36.751077268307853, 46.619271906712598 ], [ 36.755661945980464, 46.618455790940317 ], [ 36.760271667979715, 46.617893708018713 ], [ 36.764956277353754, 46.617581119912487 ], [ 36.769638730278992, 46.617548877297665 ], [ 36.77430497533458, 46.617822503626009 ], [ 36.77900984956284, 46.618467664789875 ], [ 36.783956870675716, 46.619710874725435 ], [ 36.789081824668074, 46.621563358759701 ], [ 36.796762924934001, 46.625347510574024 ], [ 36.805302015836567, 46.630877254732056 ], [ 36.813528146646959, 46.637457772958918 ], [ 36.820728929537836, 46.644267446895107 ], [ 36.82724366504754, 46.651388699614905 ], [ 36.83195731759691, 46.657234732641129 ], [ 36.836039636494277, 46.662871362501377 ], [ 36.839053134851014, 46.667453137671508 ], [ 36.842902498827726, 46.673949738301673 ], [ 36.846000002860876, 46.680000000003986 ] ] ] } },
{ "type": "Feature", "properties": { "gid": 3, "objectid": 3.0, "z": 3.0, "index": 0.0, "shape_leng": 3.3206633393499998, "z1": 0.0, "z2": 0.0, "index1": 0.0, "index2": 0.0 }, "geometry": { "type": "MultiLineString", "coordinates": [ [ [ 35.830000000001746, 45.96000000000106 ], [ 35.828904708378516, 45.9597794926947 ], [ 35.826532135782621, 45.959864391224542 ], [ 35.823070458651593, 45.960270607743553 ], [ 35.818739458279609, 45.961043414518528 ], [ 35.813767931648535, 45.962236410442365 ], [ 35.808390117207608, 45.963908270351453 ], [ 35.799938482586398, 45.967306220700081 ], [ 35.790950290836186, 45.971169938648586 ], [ 35.784540048225097, 45.973591344453972 ], [ 35.777915871210084, 45.975804770689187 ], [ 35.758843628672658, 45.981527103448357 ], [ 35.753489951811474, 45.983281931695693 ], [ 35.746128230099693, 45.985996438300532 ], [ 35.730854901889437, 45.99106255042841 ], [ 35.7258122231123, 45.992881434002079 ], [ 35.720935516122502, 45.994923392783051 ], [ 35.716311674719186, 45.997288018183795 ], [ 35.713041108955359, 45.999313595334577 ], [ 35.703420025200181, 46.005945681996174 ], [ 35.698239050771051, 46.009076578142768 ], [ 35.692738936224096, 46.01195655283211 ], [ 35.687004681054155, 46.014558834103148 ], [ 35.671183560179294, 46.020535172232535 ], [ 35.663552948439495, 46.023634176933747 ], [ 35.656501360806274, 46.027315473762776 ], [ 35.650179956584914, 46.031814063482443 ], [ 35.644057112582821, 46.036685608054647 ], [ 35.639281674939689, 46.040248877623384 ], [ 35.62504246192789, 46.04998613993628 ], [ 35.620881336582173, 46.052998272076309 ], [ 35.617046463485536, 46.056238113790847 ], [ 35.614446047270782, 46.058890647263958 ], [ 35.612036258579778, 46.061696087211658 ], [ 35.602971610789837, 46.073225939392053 ], [ 35.593219067728981, 46.083833360734964 ], [ 35.590970485428073, 46.0866591585743 ], [ 35.578963299791333, 46.103394397669923 ], [ 35.576477515109239, 46.107678414085427 ], [ 35.574911788985517, 46.111192524158632 ], [ 35.573592672637446, 46.114954969297187 ], [ 35.571562059837433, 46.123089395459985 ], [ 35.570163055079469, 46.131848404117974 ], [ 35.569232539263872, 46.141049954500325 ], [ 35.568657818430879, 46.150551123617575 ], [ 35.568369835569783, 46.160237078589141 ], [ 35.568338915938057, 46.170011086910307 ], [ 35.56880280810951, 46.184645317159877 ], [ 35.569536108236768, 46.1942530186395 ], [ 35.570068049194433, 46.198974844738963 ], [ 35.57155808521842, 46.208179712378154 ], [ 35.572565734667073, 46.212627524519647 ], [ 35.573788708343344, 46.216945033434371 ], [ 35.577031058182577, 46.22509105879935 ], [ 35.58024867414467, 46.230666810484514 ], [ 35.584008115767325, 46.235904238639861 ], [ 35.588118431660398, 46.240919483944403 ], [ 35.594050149746657, 46.24737892719822 ], [ 35.598976780885181, 46.251870186249363 ], [ 35.604296903951834, 46.256106221655159 ], [ 35.609905307700764, 46.260148862378003 ], [ 35.615712372724019, 46.264049221334318 ], [ 35.652891600549609, 46.287541923624424 ], [ 35.65878377133064, 46.290902805842329 ], [ 35.664908851416357, 46.293956025661643 ], [ 35.671229252279836, 46.296682136784945 ], [ 35.677018188762311, 46.298839866003703 ], [ 35.701980295137588, 46.306920092373304 ], [ 35.708524945437745, 46.308880535793051 ], [ 35.733919016673347, 46.315790141123216 ], [ 35.739611611798367, 46.316999316919279 ], [ 35.745504221549474, 46.317949285029663 ], [ 35.751561751028305, 46.318688207723504 ], [ 35.764056962863286, 46.319688103376336 ], [ 35.783431049138613, 46.320417740552024 ], [ 35.803222448280827, 46.320664157370267 ], [ 35.823205450094946, 46.320702323492668 ], [ 35.879869660979082, 46.320398268427496 ], [ 35.896304130526715, 46.320089939778406 ], [ 35.909250880761746, 46.319643995676401 ], [ 35.921913887266797, 46.318900800984743 ], [ 35.934150694858701, 46.31769489354275 ], [ 35.940049530649937, 46.316848219077755 ], [ 35.94576171068254, 46.315791220955212 ], [ 35.954079794352857, 46.313894840763211 ], [ 35.965600602767843, 46.311631715686204 ], [ 35.989929028678823, 46.307386666101891 ], [ 36.010845944621195, 46.303100626992475 ], [ 36.023571194834936, 46.300978864295111 ], [ 36.049260574908452, 46.297042008089797 ], [ 36.070738803042644, 46.293114706229098 ], [ 36.083694629351761, 46.291322292027289 ], [ 36.122890270235132, 46.287095489529626 ], [ 36.129381595128429, 46.286187353359757 ], [ 36.151050349826178, 46.282678782488368 ], [ 36.164104295764275, 46.281184629690664 ], [ 36.17726153991287, 46.280238899685934 ], [ 36.190455026837569, 46.279690341939968 ], [ 36.200331812364354, 46.279489546366037 ], [ 36.216652408999458, 46.279537747449957 ], [ 36.229454561511808, 46.279984477445808 ], [ 36.235718421794004, 46.280387479439092 ], [ 36.241857031947575, 46.280944147100655 ], [ 36.247838779295812, 46.281688734693866 ], [ 36.253625946668095, 46.282663744703179 ], [ 36.259173728048026, 46.28392109062036 ], [ 36.264429191242129, 46.285523388562645 ], [ 36.271806055996741, 46.288560296479154 ], [ 36.281416009521017, 46.293166371327516 ], [ 36.286049897785553, 46.295835580764738 ], [ 36.292728512915943, 46.300443636672796 ], [ 36.302883532291169, 46.307925903107026 ], [ 36.314861557610641, 46.317277088580568 ], [ 36.320292991222288, 46.321171559651162 ], [ 36.326022579295589, 46.324891048943186 ], [ 36.332000609358204, 46.328433955132773 ], [ 36.338187743671156, 46.331790959566646 ], [ 36.344554077941275, 46.334943863168213 ], [ 36.351078292772648, 46.33786429342706 ], [ 36.357746935513887, 46.340512227345897 ], [ 36.364553847541409, 46.342834299595388 ], [ 36.371499734428781, 46.344761891465964 ], [ 36.381031541580256, 46.346655739575183 ], [ 36.390747460017153, 46.347906754029516 ], [ 36.397294464035667, 46.348470614558813 ], [ 36.410480895192777, 46.349129236415223 ], [ 36.4236883443347, 46.34936091116267 ], [ 36.461989878076409, 46.349102650161761 ], [ 36.478956810307523, 46.34929177352754 ], [ 36.487458254012132, 46.349875215250613 ], [ 36.490793183120083, 46.350441827244822 ], [ 36.495606774253943, 46.351982124533023 ], [ 36.500172804142643, 46.354336786327643 ], [ 36.504372131984532, 46.357450467145888 ], [ 36.506936804748442, 46.359939238640699 ], [ 36.511687438520362, 46.365617529025897 ], [ 36.517556462201554, 46.373369589251553 ], [ 36.521061396381235, 46.378260940328829 ], [ 36.524353963051674, 46.383417224418388 ], [ 36.526371738905894, 46.387052852115325 ], [ 36.531966034043577, 46.398443720827174 ], [ 36.535912391328807, 46.406014517670663 ], [ 36.539244336627604, 46.411450240996302 ], [ 36.551227428951961, 46.429171482923344 ], [ 36.556393518205169, 46.436057065777838 ], [ 36.560769259736858, 46.440844339254021 ], [ 36.565548003561396, 46.445355221292452 ], [ 36.57061493357147, 46.449649814467918 ], [ 36.581218969776437, 46.457776966714775 ], [ 36.590170138179786, 46.464240346685415 ], [ 36.593827767833297, 46.466697022743631 ], [ 36.599562497284531, 46.470046961079497 ], [ 36.605623616133897, 46.4729910759945 ], [ 36.611970862516166, 46.47550131204077 ], [ 36.617862320169053, 46.477364488740321 ], [ 36.623915615666228, 46.478939002080722 ], [ 36.630092101771076, 46.480310157673358 ], [ 36.663357890882139, 46.486692339748203 ], [ 36.670586371647723, 46.487904510415873 ], [ 36.683695262675904, 46.489468542053267 ], [ 36.700304479136541, 46.490604518400382 ], [ 36.723728798515289, 46.491293703272298 ], [ 36.743738668318258, 46.491322821586827 ], [ 36.763394330809106, 46.490743582686449 ], [ 36.776078563938327, 46.489798284883264 ], [ 36.782218037533596, 46.489067232068081 ], [ 36.788174921821003, 46.488105100819581 ], [ 36.793904229688465, 46.486855319335319 ], [ 36.799351939443831, 46.485249489211363 ], [ 36.804453584247391, 46.48320565376698 ], [ 36.808029758461331, 46.48134991226199 ], [ 36.81146682854763, 46.479281386615568 ], [ 36.816470519362824, 46.475941183316934 ], [ 36.821281847121284, 46.472328437373683 ], [ 36.825794849952629, 46.468443046603909 ], [ 36.836750137173574, 46.457315615913807 ], [ 36.848277639727002, 46.446836309281217 ], [ 36.857934501132533, 46.436671911181293 ], [ 36.86198067710643, 46.432058455358316 ], [ 36.865777250161749, 46.427196380612386 ], [ 36.868113577099784, 46.423762418024786 ], [ 36.877728583661664, 46.407516241550489 ], [ 36.88075867464601, 46.401956121537687 ], [ 36.883415289894479, 46.396144873573391 ], [ 36.885317196166625, 46.390641127198165 ], [ 36.886809690629839, 46.384875137559057 ], [ 36.887969420937218, 46.378896439465493 ], [ 36.889222721866538, 46.369618043946829 ], [ 36.890332154108627, 46.355208821473674 ], [ 36.890868177727654, 46.340432109514943 ], [ 36.891089758061526, 46.32545081173987 ], [ 36.891152248635954, 46.300278074830402 ], [ 36.891033708413794, 46.264976821873717 ], [ 36.890734254200716, 46.239942783412168 ], [ 36.890056462843887, 46.220234083670633 ], [ 36.889417676523998, 46.210579381546303 ], [ 36.888457325189854, 46.201131596406107 ], [ 36.887044977996673, 46.191970266293112 ], [ 36.886117474243477, 46.187528731884534 ], [ 36.885008745396249, 46.183200598355519 ], [ 36.883689196254679, 46.179004041581535 ], [ 36.882125348507266, 46.174959643759358 ], [ 36.879324678899771, 46.169222692184967 ], [ 36.862032442859174, 46.140048186425773 ], [ 36.859227815744497, 46.134322840994777 ], [ 36.856319146995091, 46.126114803735945 ], [ 36.85421207785658, 46.117412470434495 ], [ 36.853123052813899, 46.111416312377663 ], [ 36.85220701748122, 46.10531357230446 ], [ 36.849063589699689, 46.08058313226914 ], [ 36.847567854510068, 46.071505712543456 ], [ 36.846641421072682, 46.067077428464074 ], [ 36.845553382821215, 46.062749049243223 ], [ 36.84426799428028, 46.058542655028496 ], [ 36.842745805658488, 46.054482615629681 ], [ 36.840008165971604, 46.048719795447944 ], [ 36.836883662927306, 46.043196016502698 ], [ 36.829117588291744, 46.030538752901769 ], [ 36.824230633067081, 46.023556669779332 ], [ 36.82007480877899, 46.018669475077353 ], [ 36.815559884743379, 46.01400390200947 ], [ 36.801276883429644, 46.000460892077719 ], [ 36.796706108925065, 45.995827884509055 ], [ 36.785050034587243, 45.983016315893828 ], [ 36.780287231144342, 45.978498856970731 ], [ 36.775218758773683, 45.97416918017754 ], [ 36.76994447975018, 45.969965434434954 ], [ 36.746595336054206, 45.951974669221933 ], [ 36.740997721500328, 45.947962009751251 ], [ 36.735147314997477, 45.944103799015416 ], [ 36.72909586966783, 45.940368174942066 ], [ 36.716552083342044, 45.933165655361741 ], [ 36.703618713050375, 45.926203235897859 ], [ 36.683821888380329, 45.916028640574389 ], [ 36.663788145074712, 45.906106156359009 ], [ 36.643610448495942, 45.896565051040753 ], [ 36.630060232680066, 45.890607282189599 ], [ 36.616379604449712, 45.885222657832706 ], [ 36.609466933926157, 45.882847801283837 ], [ 36.596972716070844, 45.879163088270843 ], [ 36.569654884629003, 45.87171701649482 ], [ 36.54353500642808, 45.865950399106822 ], [ 36.529271582205098, 45.863181107444504 ], [ 36.52281933576338, 45.862257194667997 ], [ 36.509781960720183, 45.860977079527551 ], [ 36.490006019845225, 45.859996622862418 ], [ 36.463427791400782, 45.859586788603593 ], [ 36.289914886351667, 45.859732073102151 ], [ 36.2699223706175, 45.859864052667582 ], [ 36.249985955274738, 45.860260585562003 ], [ 36.236756125222229, 45.860804255462604 ], [ 36.223609953112117, 45.861721078935659 ], [ 36.210592903935719, 45.863203160100504 ], [ 36.182577279014048, 45.867826564825002 ], [ 36.156727679792617, 45.871447704372372 ], [ 36.150313643980539, 45.872479676620223 ], [ 36.129033999007106, 45.876385024321067 ], [ 36.116404847675646, 45.878248056783299 ], [ 36.091854532363108, 45.881511095711986 ], [ 36.086040560246005, 45.882500883319821 ], [ 36.080435095920521, 45.88366171005147 ], [ 36.075088931477602, 45.885052294333839 ], [ 36.071261961017619, 45.886262481245545 ], [ 36.057456294666501, 45.890850588565563 ], [ 36.045231132014862, 45.895294293589686 ], [ 36.037646930698344, 45.897707842324991 ], [ 36.01944676274821, 45.902887005286857 ], [ 36.01443900274387, 45.904587399277766 ], [ 35.984902965694182, 45.915989633697244 ], [ 35.974224808588588, 45.919473447228725 ], [ 35.962146450613872, 45.922908022823151 ], [ 35.948852247248446, 45.926221524415396 ], [ 35.942755938473795, 45.927407739707128 ], [ 35.930426447517604, 45.92931561308518 ], [ 35.91216178643743, 45.931831187555325 ], [ 35.906309921790708, 45.932801512268931 ], [ 35.900588705817931, 45.933972668702474 ], [ 35.894649177605856, 45.935579747437359 ], [ 35.875823346316977, 45.942270500126199 ], [ 35.866279839849064, 45.946026871565451 ], [ 35.851626299824176, 45.952306979867295 ], [ 35.835920027535366, 45.95872787673008 ], [ 35.832996684090993, 45.959670213504168 ], [ 35.830965501437426, 45.960093681153637 ], [ 35.830000000001746, 45.96000000000106 ] ] ] } }
]
}
