{
"type": "FeatureCollection",
"name": "azov_10_esr_iso",
"crs": { "type": "name", "properties": { "name": "urn:ogc:def:crs:OGC:1.3:CRS84" } },
"features": [
{ "type": "Feature", "properties": { "gid": 1, "objectid": 9.0, "z": 0.5, "index": 0.0, "shape_leng": 6.2003779153699998 }, "geometry": { "type": "MultiLineString", "coordinates": [ [ [ 36.830000000001746, 46.674452054361609 ], [ 36.826729560503736, 46.670000000001892 ], [ 36.824126394292762, 46.662936802855256 ], [ 36.820168889104025, 46.659999999999854 ], [ 36.818000000417669, 46.655999999795313 ], [ 36.81000000000131, 46.651655726473109 ], [ 36.80843878876658, 46.650000000003274 ], [ 36.806731460072115, 46.648365730039586 ], [ 36.800351894453343, 46.640000000003056 ], [ 36.790000000000873, 46.635027813588749 ], [ 36.778089204553908, 46.630000000001019 ], [ 36.775450820165133, 46.627274589920489 ], [ 36.770000000000437, 46.62611678797839 ], [ 36.760795845826578, 46.625397922909542 ], [ 36.75, 46.625162712805832 ], [ 36.741286637015946, 46.625643318508082 ], [ 36.729999999999563, 46.629396196101879 ], [ 36.726294422654973, 46.630000000001019 ], [ 36.71219938557806, 46.631099692791395 ], [ 36.709999999999127, 46.632681705759751 ], [ 36.697950481408043, 46.633975240703876 ], [ 36.690000000002328, 46.637575360235132 ], [ 36.686092925332559, 46.638046462665443 ], [ 36.679664807215886, 46.640000000003056 ], [ 36.67399077400114, 46.641995387000861 ], [ 36.670000000001892, 46.643752711946945 ], [ 36.661944053334082, 46.645972026664822 ], [ 36.650000000001455, 46.649953379161161 ], [ 36.649933332242654, 46.649966666120235 ], [ 36.649803918417092, 46.650000000003274 ], [ 36.630000000001019, 46.655821328669845 ], [ 36.624093690954396, 46.657046845479272 ], [ 36.611875012808014, 46.659999999999854 ], [ 36.61061602067457, 46.660308010337758 ], [ 36.610000000000582, 46.660458718777591 ], [ 36.608701290660974, 46.660649354673296 ], [ 36.590000000000146, 46.663186120589671 ], [ 36.577966568265765, 46.663983284135611 ], [ 36.569999999999709, 46.664525313115519 ], [ 36.561437132266292, 46.664281433868382 ], [ 36.549999999999272, 46.664012533799905 ], [ 36.534016749134025, 46.66200837456563 ], [ 36.530000000002474, 46.661528668104438 ], [ 36.527885454110219, 46.661057272944163 ], [ 36.523043459481414, 46.659999999999854 ], [ 36.513973510807773, 46.658013244597896 ], [ 36.510000000002037, 46.65705882353177 ], [ 36.490969165774004, 46.650000000003274 ], [ 36.490000000001601, 46.649656248895553 ], [ 36.486562482539739, 46.648281241268705 ], [ 36.470000000001164, 46.641784508003184 ], [ 36.465137623961709, 46.640000000003056 ], [ 36.450000000000728, 46.634230766023393 ], [ 36.43624999788517, 46.630000000001019 ], [ 36.430000000000291, 46.62847645740294 ], [ 36.423567266954706, 46.626783633479135 ], [ 36.409999999999854, 46.623109922573349 ], [ 36.406374995111037, 46.6218125024443 ], [ 36.400901957484166, 46.620000000004438 ], [ 36.389999999999418, 46.61542762890349 ], [ 36.378461544074526, 46.610000000002401 ], [ 36.370000000002619, 46.606310970983031 ], [ 36.358034691293142, 46.600000000002183 ], [ 36.350000000002183, 46.594889704070738 ], [ 36.343968255470827, 46.590000000000146 ], [ 36.330000000001746, 46.580805961890292 ], [ 36.329432182628807, 46.580283908684578 ], [ 36.328947378819066, 46.580000000003565 ], [ 36.321710844134941, 46.574144577933112 ], [ 36.314000000003944, 46.570000000003347 ], [ 36.312227978514784, 46.5688860107457 ], [ 36.31000000000131, 46.567844612651243 ], [ 36.298555759203737, 46.56000000000131 ], [ 36.290000000000873, 46.554717833356335 ], [ 36.284434085282555, 46.549999999999272 ], [ 36.274045790933087, 46.542022895468108 ], [ 36.271653662433891, 46.540000000002692 ], [ 36.27111344228797, 46.539443278858016 ], [ 36.270000000000437, 46.538729020458049 ], [ 36.262138226107709, 46.530000000002474 ], [ 36.250586668280448, 46.52029333414248 ], [ 36.250282777395114, 46.520000000000437 ], [ 36.25, 46.519812605922198 ], [ 36.239658883821903, 46.510000000003856 ], [ 36.236955396687335, 46.50652230166088 ], [ 36.229999999999563, 46.502202901105193 ], [ 36.228073508611487, 46.500000000001819 ], [ 36.225442273986118, 46.497721136995096 ], [ 36.219058925509671, 46.490000000001601 ], [ 36.216560509639748, 46.486719745178561 ], [ 36.209999999999127, 46.482003105180411 ], [ 36.207828283413619, 46.479999999999563 ], [ 36.202883211864901, 46.473558394067368 ], [ 36.197185103144875, 46.470000000002983 ], [ 36.190000000002328, 46.463857681104855 ], [ 36.183040535677719, 46.460000000002765 ], [ 36.170000000001892, 46.452771537338776 ], [ 36.158913856841536, 46.450000000000728 ], [ 36.150000000001455, 46.448514356088708 ], [ 36.131666663330179, 46.449166668335238 ], [ 36.130000000001019, 46.449207163077517 ], [ 36.128665234617074, 46.449332617308755 ], [ 36.124979759724738, 46.450000000000728 ], [ 36.113670629863918, 46.451835314932396 ], [ 36.110000000000582, 46.452616687543923 ], [ 36.099507536695455, 46.454753768348382 ], [ 36.090000000000146, 46.458113205908376 ], [ 36.087362107948138, 46.458681053976761 ], [ 36.08335346567037, 46.460000000002765 ], [ 36.074324848905235, 46.46216242445189 ], [ 36.069999999999709, 46.46419354437603 ], [ 36.062292188864376, 46.466146094433498 ], [ 36.052312142113806, 46.470000000002983 ], [ 36.049999999999272, 46.470892858687876 ], [ 36.038474570994367, 46.474237285496201 ], [ 36.030000000002474, 46.477792204173966 ], [ 36.023906805292427, 46.479999999999563 ], [ 36.016543001283935, 46.483271500639603 ], [ 36.010000000002037, 46.486855126953742 ], [ 36.002521024398447, 46.490000000001601 ], [ 35.996520794113167, 46.493260397055565 ], [ 35.990000000001601, 46.496866364888774 ], [ 35.986714979046155, 46.498357489526825 ], [ 35.983199997615884, 46.500000000001819 ], [ 35.977193456154055, 46.503596728074626 ], [ 35.970000000001164, 46.507252746896484 ], [ 35.963150681576735, 46.510000000003856 ], [ 35.956464639573824, 46.513232319788585 ], [ 35.950000000000728, 46.51603773090028 ], [ 35.945467623201694, 46.517733811599101 ], [ 35.937766998156803, 46.520000000000437 ], [ 35.932930408851462, 46.521465204425112 ], [ 35.930000000000291, 46.522272731890553 ], [ 35.919618325473493, 46.524809162739984 ], [ 35.909999999999854, 46.526596857494951 ], [ 35.904650196476723, 46.52732509823727 ], [ 35.889999999999418, 46.529222791847133 ], [ 35.888630127294164, 46.529315063646209 ], [ 35.871250186261022, 46.530000000002474 ], [ 35.870101539583629, 46.530050769792069 ], [ 35.870000000004438, 46.530052364683797 ], [ 35.869908241704252, 46.530045879151658 ], [ 35.867142492232233, 46.530000000002474 ], [ 35.850000000004002, 46.529718304936978 ], [ 35.849371716476526, 46.529685858236917 ], [ 35.830000000001746, 46.52818584018496 ], [ 35.825879400897975, 46.527939700450588 ], [ 35.81000000000131, 46.526694911510276 ], [ 35.801136364021659, 46.525568182010829 ], [ 35.790000000000873, 46.523951619301442 ], [ 35.771132041520104, 46.52056602076118 ], [ 35.770000000000437, 46.520351551589556 ], [ 35.768487441680918, 46.520000000000437 ], [ 35.75, 46.515473249664865 ], [ 35.733270454869853, 46.510000000003856 ], [ 35.731268299350631, 46.509365850326503 ], [ 35.729999999999563, 46.509011401933094 ], [ 35.72223880862839, 46.506119404313722 ], [ 35.709999999999127, 46.501443668959837 ], [ 35.708617193165992, 46.500691403420205 ], [ 35.706893924172618, 46.500000000001819 ], [ 35.698576927265094, 46.495711536370436 ], [ 35.690000000000509, 46.492414961991017 ], [ 35.684409456025605, 46.490000000001601 ], [ 35.677176469487677, 46.486411765254161 ], [ 35.67, 46.483711341474191 ], [ 35.66159532857273, 46.479999999999563 ], [ 35.650000000003274, 46.475314466031705 ], [ 35.64495522312609, 46.472522388437937 ], [ 35.637885307032775, 46.470000000002983 ], [ 35.630000000002838, 46.465546558558344 ], [ 35.620805362817919, 46.460000000002765 ], [ 35.610000000000582, 46.454014872359039 ], [ 35.604177898097987, 46.450000000000728 ], [ 35.590000000000146, 46.442287385314557 ], [ 35.588213061751958, 46.440893469121875 ], [ 35.586060613131849, 46.440000000004147 ], [ 35.569999999999709, 46.431142067314795 ], [ 35.568056861662626, 46.43000000000211 ], [ 35.564100688885446, 46.42705034444225 ], [ 35.555311644146059, 46.420000000001892 ], [ 35.553402773792186, 46.418298613103616 ], [ 35.549999999999272, 46.415525113598051 ], [ 35.54312500476226, 46.409999999999854 ], [ 35.530000000000655, 46.401380603361758 ], [ 35.528819771061535, 46.400590114470106 ], [ 35.527730051422623, 46.400000000003274 ], [ 35.513181793554395, 46.391590896777416 ], [ 35.51046052464153, 46.390000000001237 ], [ 35.510272372323016, 46.389863813841657 ], [ 35.510000000000218, 46.389716600268002 ], [ 35.494664533212926, 46.380000000001019 ], [ 35.489999999999782, 46.374822697134732 ], [ 35.486034987754465, 46.370000000004438 ], [ 35.484906368212251, 46.367453184104306 ], [ 35.481740412047657, 46.360000000002401 ], [ 35.471081098496143, 46.350540549250582 ], [ 35.470483391736707, 46.350000000002183 ], [ 35.469999999999345, 46.349627900532141 ], [ 35.458137541641918, 46.340000000000146 ], [ 35.450000000002547, 46.333333328670051 ], [ 35.446432166749219, 46.330000000003565 ], [ 35.440273977636025, 46.325136988822123 ], [ 35.434010690587456, 46.320000000001528 ], [ 35.43000000000211, 46.316428569405616 ], [ 35.425909097477415, 46.312045451262748 ], [ 35.423059136559459, 46.31000000000131 ], [ 35.41937269437949, 46.30531365281422 ], [ 35.41426229935314, 46.299999999999272 ], [ 35.412675819679862, 46.298662090159269 ], [ 35.410000000001673, 46.296694911512532 ], [ 35.402273837491521, 46.290000000002692 ], [ 35.398030303545966, 46.284015151773929 ], [ 35.395286782266339, 46.280000000000655 ], [ 35.390000000001237, 46.27220589427634 ], [ 35.388636355015478, 46.270000000000437 ], [ 35.387510359694716, 46.268755179848085 ], [ 35.380904396188271, 46.260000000000218 ], [ 35.377153278639526, 46.253576639319363 ], [ 35.375399445825678, 46.25 ], [ 35.371468526223907, 46.240734263110426 ], [ 35.37115384048775, 46.24000000000342 ], [ 35.370969973280808, 46.239515013359778 ], [ 35.3700000000008, 46.237272727272284 ], [ 35.367294696841782, 46.229999999999563 ], [ 35.366254195003421, 46.228127097501783 ], [ 35.362558139535395, 46.220000000002983 ], [ 35.36130232645155, 46.21434883677648 ], [ 35.359668511064228, 46.210000000000946 ], [ 35.355447469644787, 46.20272373482112 ], [ 35.353921568956139, 46.200000000002547 ], [ 35.352814374360605, 46.191407187177902 ], [ 35.352937502679197, 46.190000000000509 ], [ 35.350000000000364, 46.182166635207977 ], [ 35.34921923244292, 46.180000000000291 ], [ 35.349241995074408, 46.179620997536404 ], [ 35.350000000000364, 46.170714209687503 ], [ 35.350064300178929, 46.17 ], [ 35.350000000000364, 46.169767470873921 ], [ 35.347366781705205, 46.159999999999854 ], [ 35.347543869127549, 46.158771934564356 ], [ 35.34973683771932, 46.149999999999636 ], [ 35.349653674069486, 46.149826837034198 ], [ 35.346752759736773, 46.139999999999418 ], [ 35.34661537615284, 46.138307688075656 ], [ 35.347007891754401, 46.130000000002838 ], [ 35.346102587303903, 46.12805129365006 ], [ 35.343138084497696, 46.1200000000008 ], [ 35.343466141704994, 46.116733070852206 ], [ 35.344506445233492, 46.110000000002401 ], [ 35.345095789991319, 46.107547894996969 ], [ 35.347130425318028, 46.100000000000364 ], [ 35.347528083366342, 46.098764041686081 ], [ 35.350000000000364, 46.09282609118236 ], [ 35.350942033448518, 46.090471016725132 ], [ 35.351155561442283, 46.090000000001965 ], [ 35.350814479881592, 46.080407239940541 ], [ 35.350821917063513, 46.08 ], [ 35.351052631580387, 46.079473684210825 ], [ 35.354930220955794, 46.069999999999709 ], [ 35.357727268108647, 46.063863634055451 ], [ 35.3598550628667, 46.059999999999491 ], [ 35.361176464697564, 46.055588232347873 ], [ 35.36323383409399, 46.049999999999272 ], [ 35.364944239732722, 46.047472119866143 ], [ 35.3700000000008, 46.040285719151143 ], [ 35.370199008073541, 46.040000000002692 ], [ 35.373621405638914, 46.031810702819712 ], [ 35.374731202093244, 46.030000000000655 ], [ 35.379166656319285, 46.025416671840503 ], [ 35.384468060821746, 46.020000000002256 ], [ 35.390000000001237, 46.013809506916004 ], [ 35.392344318348478, 46.011172159174748 ], [ 35.393459459113728, 46.010000000000218 ], [ 35.39719665814664, 46.003598329072702 ], [ 35.399828576877553, 46.000000000001819 ], [ 35.403019618112012, 45.996509809057898 ], [ 35.408757059103664, 45.989999999999782 ], [ 35.410000000001673, 45.989051722366639 ], [ 35.417191785994873, 45.983595892999801 ], [ 35.422280691969718, 45.980000000001382 ], [ 35.424334750114213, 45.977167375060162 ], [ 35.43000000000211, 45.969999999999345 ], [ 35.438391602416232, 45.964195801208916 ], [ 35.444906807695588, 45.960000000000946 ], [ 35.446719984931406, 45.958359992469923 ], [ 35.450000000002547, 45.955494488223849 ], [ 35.456578932922639, 45.950000000002547 ], [ 35.463333333333139, 45.943333333332703 ], [ 35.466575347780235, 45.940000000000509 ], [ 35.469999999999345, 45.937881356359867 ], [ 35.47683823465195, 45.933419117325684 ], [ 35.482567548519, 45.93000000000211 ], [ 35.484930864184207, 45.927465432094323 ], [ 35.489999999999782, 45.922465747831666 ], [ 35.491636363145517, 45.920818181572031 ], [ 35.492535217179466, 45.92 ], [ 35.501014500578094, 45.915507250289011 ], [ 35.510000000000218, 45.910814819069856 ], [ 35.510782920415295, 45.910391460209212 ], [ 35.511582741217353, 45.910000000001673 ], [ 35.519243709268267, 45.904621854631841 ], [ 35.525827335355643, 45.899999999999636 ], [ 35.527906134544537, 45.898953067271577 ], [ 35.530000000000655, 45.898027207300402 ], [ 35.548294567197445, 45.890000000001237 ], [ 35.548976740319631, 45.889488370161416 ], [ 35.549999999999272, 45.888804344656819 ], [ 35.557465442345347, 45.883732721173146 ], [ 35.563388422424396, 45.8799999999992 ], [ 35.569999999999709, 45.876078421060811 ], [ 35.57551109639644, 45.872755548196437 ], [ 35.580598262298736, 45.8700000000008 ], [ 35.58493086418639, 45.867465432093013 ], [ 35.590000000000146, 45.864607837407675 ], [ 35.598103444735898, 45.860000000002401 ], [ 35.610000000000582, 45.855430455994792 ], [ 35.616259535037898, 45.85312976752175 ], [ 35.624137892056751, 45.850000000000364 ], [ 35.626730746364046, 45.848365373181878 ], [ 35.630000000002838, 45.846599979138773 ], [ 35.643199958276455, 45.840000000001965 ], [ 35.650000000003274, 45.837553944187675 ], [ 35.658823535304691, 45.834411767651545 ], [ 35.67, 45.830220581145113 ], [ 35.670254229155034, 45.830127114577408 ], [ 35.670588218108605, 45.83 ], [ 35.68091744749654, 45.825458723747943 ], [ 35.690000000000509, 45.821951230740524 ], [ 35.692171955342928, 45.821085977673647 ], [ 35.695217411026533, 45.820000000001528 ], [ 35.703873874359488, 45.81693693717898 ], [ 35.709999999999127, 45.814769226537464 ], [ 35.715511096395858, 45.812755548198766 ], [ 35.723333354699207, 45.809999999999491 ], [ 35.729999999999563, 45.807280717348476 ], [ 35.737980777499615, 45.803990388749298 ], [ 35.748241732329916, 45.800000000001091 ], [ 35.749230757108307, 45.799615378553426 ], [ 35.75, 45.799338832393914 ], [ 35.760414746797323, 45.795207373397716 ], [ 35.770000000000437, 45.792061069743795 ], [ 35.772454548041424, 45.791227274019548 ], [ 35.776206910728433, 45.790000000002692 ], [ 35.784258384941495, 45.787129192471184 ], [ 35.790000000000873, 45.785121959492244 ], [ 35.795833341384423, 45.78291667069243 ], [ 35.80400004636067, 45.780000000000655 ], [ 35.806983265709277, 45.778491632856458 ], [ 35.81000000000131, 45.77706524133464 ], [ 35.825476161755432, 45.770000000002256 ], [ 35.830000000001746, 45.768571418968349 ], [ 35.840458723121628, 45.765229361562888 ], [ 35.850000000004002, 45.762061069744959 ], [ 35.856506044861817, 45.760000000000218 ], [ 35.864790711084424, 45.757395355543849 ], [ 35.870000000004438, 45.755725199176595 ], [ 35.888072258010652, 45.750000000001819 ], [ 35.889999999999418, 45.749310334196707 ], [ 35.900536587067108, 45.745268293534536 ], [ 35.909999999999854, 45.741565217842435 ], [ 35.914044951347023, 45.739999999999782 ], [ 35.923173088494877, 45.736586544247984 ], [ 35.930000000000291, 45.733983058125887 ], [ 35.934476189397174, 45.732238094697095 ], [ 35.940217427923926, 45.730000000001382 ], [ 35.945774666017314, 45.727887333008766 ], [ 35.950000000000728, 45.726456704369411 ], [ 35.957488575775642, 45.72374428789044 ], [ 35.967826109492307, 45.719999999999345 ], [ 35.970000000001164, 45.719029136887912 ], [ 35.979441622215745, 45.714720811109146 ], [ 35.990000000001601, 45.710458710078456 ], [ 35.991098888143824, 45.710000000000946 ], [ 36.001848338553827, 45.705924169276841 ], [ 36.010000000002037, 45.702773116821845 ], [ 36.013013709069128, 45.701506854535182 ], [ 36.016734705050112, 45.700000000002547 ], [ 36.023121689619074, 45.696560844808118 ], [ 36.030000000002474, 45.692857152216675 ], [ 36.032639609577018, 45.691319804787781 ], [ 36.035000028658033, 45.690000000000509 ], [ 36.043187783385292, 45.686593891690791 ], [ 36.049999999999272, 45.684045800137028 ], [ 36.060927804644962, 45.68000000000211 ], [ 36.065510189808265, 45.677755094906388 ], [ 36.069999999999709, 45.67568626992761 ], [ 36.082747244112397, 45.67 ], [ 36.086901400567513, 45.668450700288304 ], [ 36.090000000000146, 45.667317067262047 ], [ 36.106923041654227, 45.661538479173032 ], [ 36.110000000000582, 45.660476197233947 ], [ 36.110558148433483, 45.660279074218124 ], [ 36.111411786983808, 45.660000000001673 ], [ 36.122511853829565, 45.656255926915037 ], [ 36.130000000001019, 45.65387596684559 ], [ 36.141904717978832, 45.649999999999636 ], [ 36.14671495498078, 45.648357477490208 ], [ 36.150000000001455, 45.647301572660581 ], [ 36.158803842079578, 45.644401921039389 ], [ 36.170000000001892, 45.641000006877221 ], [ 36.171238102133429, 45.640619051066096 ], [ 36.173250023284709, 45.640000000001237 ], [ 36.183526583125058, 45.636763291562602 ], [ 36.190000000002328, 45.634924252346536 ], [ 36.196132080513053, 45.6330660402582 ], [ 36.207333365122395, 45.6299999999992 ], [ 36.209019619875107, 45.629509809938099 ], [ 36.209999999999127, 45.62921875873144 ], [ 36.213571398160639, 45.628214300919353 ], [ 36.229999999999563, 45.623593747090126 ], [ 36.234487792680738, 45.622243896341388 ], [ 36.242777740986639, 45.6200000000008 ], [ 36.247603676256404, 45.618801838130821 ], [ 36.25, 45.61821916941517 ], [ 36.261267606816546, 45.615633803408855 ], [ 36.270000000000437, 45.613586207889966 ], [ 36.274928905266279, 45.612464452633503 ], [ 36.285294055773193, 45.610000000002401 ], [ 36.288518496035977, 45.609259248018134 ], [ 36.290000000000873, 45.608947351909592 ], [ 36.302420084861296, 45.606210042431485 ], [ 36.31000000000131, 45.604679481668427 ], [ 36.316547083046316, 45.603273541522867 ], [ 36.330000000001746, 45.600566038443503 ], [ 36.330807176087546, 45.600403588043264 ], [ 36.33281249272477, 45.600000000000364 ], [ 36.344859796816309, 45.597429898409246 ], [ 36.350000000002183, 45.59640521793699 ], [ 36.358949772811684, 45.594474886405806 ], [ 36.370000000002619, 45.592341769168343 ], [ 36.382542342062152, 45.590000000001965 ], [ 36.388044438557699, 45.589022219279286 ], [ 36.389999999999418, 45.588666661851676 ], [ 36.394190484839783, 45.587904757581782 ], [ 36.409999999999854, 45.584882351084161 ], [ 36.425675665517701, 45.582162167243951 ], [ 36.430000000000291, 45.581420121994597 ], [ 36.432142867597577, 45.58107143379857 ], [ 36.438571458982551, 45.58 ], [ 36.446952385820623, 45.578476192909875 ], [ 36.450000000000728, 45.577908501061756 ], [ 36.456274502930683, 45.576862748535859 ], [ 36.470000000001164, 45.574402519141586 ], [ 36.476572772977306, 45.57328638648687 ], [ 36.490000000001601, 45.571118013571322 ], [ 36.491714284093177, 45.570857142045497 ], [ 36.497058809782175, 45.570000000001528 ], [ 36.50706665783764, 45.56853332891842 ], [ 36.510000000002037, 45.568092480172709 ], [ 36.515641042622519, 45.567179478688558 ], [ 36.530000000002474, 45.56497041806324 ], [ 36.537706411734689, 45.563853205867417 ], [ 36.549999999999272, 45.56202380636023 ], [ 36.567000081957303, 45.559999999999491 ], [ 36.569423095661477, 45.559711547830375 ], [ 36.569999999999709, 45.559640729677994 ], [ 36.585940572444088, 45.557970286221462 ], [ 36.590000000000146, 45.557499990913129 ], [ 36.601884050460285, 45.55594202523389 ], [ 36.610000000000582, 45.554846618812007 ], [ 36.617417833807849, 45.553708916904725 ], [ 36.630000000001019, 45.551878789630791 ], [ 36.632952388657941, 45.551476194330462 ], [ 36.644090992216661, 45.550000000001091 ], [ 36.648750019701765, 45.549375009852156 ], [ 36.650000000001455, 45.549212133362744 ], [ 36.664757277341778, 45.547378638670125 ], [ 36.670000000001892, 45.546687113874214 ], [ 36.681010104202869, 45.545505052101362 ], [ 36.690000000002328, 45.544472054289145 ], [ 36.697093587959898, 45.543546793980568 ], [ 36.709999999999127, 45.542012197118311 ], [ 36.71341970352114, 45.54170985176097 ], [ 36.729999999999563, 45.540062103753371 ], [ 36.730099986740242, 45.540049993371213 ], [ 36.73049993666973, 45.540000000002692 ], [ 36.746405536916427, 45.538202768457268 ], [ 36.75, 45.537808993938597 ], [ 36.762811073831472, 45.536405536915481 ], [ 36.770000000000437, 45.535593226619312 ], [ 36.781223011710608, 45.534388494146697 ], [ 36.790000000000873, 45.533505741223053 ], [ 36.796100004768959, 45.533050002386517 ], [ 36.81000000000131, 45.531965319016308 ], [ 36.828783781880702, 45.530608109062086 ], [ 36.830000000001746, 45.53052023201235 ], [ 36.830957447651599, 45.530478723825581 ], [ 36.840000165575475, 45.530000000000655 ], [ 36.849000031461401, 45.529500015729354 ], [ 36.850000000002183, 45.529444461821186 ], [ 36.866540546461692, 45.52827027323292 ], [ 36.870000000002619, 45.528000003725538 ], [ 36.885238090173516, 45.527619045084066 ], [ 36.889999999999418, 45.527468349178889 ], [ 36.903801178152207, 45.526900589076831 ], [ 36.909999999999854, 45.526687503492212 ], [ 36.922814379380725, 45.526407189690872 ], [ 36.930000000000291, 45.526153856442761 ], [ 36.942467531964212, 45.526233765982397 ], [ 36.950000000000728, 45.526258061043336 ], [ 36.962356701924364, 45.526178350961345 ], [ 36.969999999999345, 45.526103905654963 ], [ 36.982965511573639, 45.526482755785764 ], [ 36.989999999999782, 45.526644733230569 ], [ 37.004027782377307, 45.527013891189199 ], [ 37.010000000000218, 45.527152319449669 ], [ 37.025211239229975, 45.527605619616224 ], [ 37.030000000002474, 45.527748330778195 ], [ 37.046714258041902, 45.528357129023789 ], [ 37.05000000000291, 45.528486828176028 ], [ 37.068297845362395, 45.529148922680179 ], [ 37.070000000003347, 45.529194618795373 ], [ 37.081428652523755, 45.530000000000655 ], [ 37.088934909157615, 45.53053254542283 ], [ 37.090000000000146, 45.53060402711526 ], [ 37.091417324316353, 45.530708662157849 ], [ 37.11000000000422, 45.531972792703527 ], [ 37.11483333085198, 45.532416665424535 ], [ 37.130000000001019, 45.533767113360227 ], [ 37.140643294218535, 45.534678352891206 ], [ 37.149999999999636, 45.53547943947342 ], [ 37.164035046444042, 45.537017523220129 ], [ 37.170000000001892, 45.537702690457081 ], [ 37.173675699710657, 45.538162150145581 ], [ 37.188378439333974, 45.540000000002692 ], [ 37.190000000000509, 45.54020133611084 ], [ 37.190566020759434, 45.540283010379426 ], [ 37.210000000002765, 45.543040545302574 ], [ 37.219278325179403, 45.544639162588282 ], [ 37.230000000001382, 45.546413778929491 ], [ 37.249259251082549, 45.550000000001091 ], [ 37.250000000003638, 45.550135137587858 ], [ 37.250476198923934, 45.550238099463968 ], [ 37.270000000002256, 45.55438356052764 ], [ 37.286623420855904, 45.558311710428825 ], [ 37.290000000004511, 45.559090924247357 ], [ 37.293170680295589, 45.559999999999491 ], [ 37.31000000000131, 45.564859152860663 ], [ 37.316460186910263, 45.566769906545233 ], [ 37.326781628096796, 45.570000000001528 ], [ 37.328750006656264, 45.570624996673359 ], [ 37.33, 45.571029407899914 ], [ 37.338749976719555, 45.574374988358613 ], [ 37.350000000002183, 45.578666666666322 ], [ 37.353214283817579, 45.58 ], [ 37.362684826346594, 45.58365758682703 ], [ 37.3700000000008, 45.586527782377743 ], [ 37.378000000000611, 45.590000000001965 ], [ 37.384402985575434, 45.592798507213956 ], [ 37.390000000003056, 45.59524475436956 ], [ 37.399999999999636, 45.600000000000364 ], [ 37.410000000001673, 45.604625848962314 ], [ 37.420259744783834, 45.610000000002401 ], [ 37.430000000003929, 45.61493419969338 ], [ 37.438850591252049, 45.6200000000008 ], [ 37.450000000002547, 45.626381571210004 ], [ 37.453160928156649, 45.628419535925786 ], [ 37.455670113386077, 45.6299999999992 ], [ 37.469999999999345, 45.63852761835733 ], [ 37.472264136089507, 45.640000000001237 ], [ 37.481428530880294, 45.645714265441711 ], [ 37.488252428311171, 45.649999999999636 ], [ 37.49000000000342, 45.650989012428909 ], [ 37.504577773543133, 45.660000000001673 ], [ 37.510000000000218, 45.663426970810178 ], [ 37.515246627695888, 45.667376686154967 ], [ 37.51932270263751, 45.67 ], [ 37.530000000004293, 45.676411483458651 ], [ 37.532923974435107, 45.678538012785793 ], [ 37.535514703948138, 45.68000000000211 ], [ 37.550000000001091, 45.689205613985905 ], [ 37.550619302139239, 45.689690348932345 ], [ 37.551137113676305, 45.690000000000509 ], [ 37.554857118529981, 45.692428559264954 ], [ 37.566102949556807, 45.700000000002547 ], [ 37.570000000003347, 45.702704077757517 ], [ 37.579930554333259, 45.710000000000946 ], [ 37.583763443892167, 45.713118278055845 ], [ 37.590000000001965, 45.717397953676482 ], [ 37.593377490764396, 45.719999999999345 ], [ 37.59910715521255, 45.724553577605548 ], [ 37.605673755117095, 45.730000000001382 ], [ 37.61000000000422, 45.733588230552414 ], [ 37.617595826846809, 45.739999999999782 ], [ 37.627580634307378, 45.748790317154999 ], [ 37.628897050448359, 45.750000000001819 ], [ 37.630000000002838, 45.751071436174243 ], [ 37.63573394040759, 45.757133029797842 ], [ 37.638992799202242, 45.760000000000218 ], [ 37.642349995567201, 45.763825002219164 ], [ 37.648641508249057, 45.770000000002256 ], [ 37.64905511786128, 45.770472441068705 ], [ 37.649999999999636, 45.77142857142826 ], [ 37.657941175504675, 45.780000000000655 ], [ 37.663170729050762, 45.786585364523489 ], [ 37.66574143806065, 45.790000000002692 ], [ 37.670000000003711, 45.795137623961637 ], [ 37.673911428810243, 45.800000000001091 ], [ 37.677821226077867, 45.806089386962412 ], [ 37.680606059580896, 45.809999999999491 ], [ 37.686470596487197, 45.818235298242143 ], [ 37.687656255640832, 45.820000000001528 ], [ 37.690000000000509, 45.823614457400254 ], [ 37.693999991006422, 45.83 ], [ 37.6974556227633, 45.836272188620569 ], [ 37.699581747847333, 45.840000000001965 ], [ 37.701543207833311, 45.844228396084873 ], [ 37.704552530356523, 45.850000000000364 ], [ 37.7091794740154, 45.859589737008719 ], [ 37.709377422163016, 45.860000000002401 ], [ 37.709480510437061, 45.860259744786163 ], [ 37.709999999997308, 45.861403534456258 ], [ 37.713754775799316, 45.8700000000008 ], [ 37.715025622374014, 45.872512811185516 ], [ 37.71872587769758, 45.8799999999992 ], [ 37.720610345457317, 45.885305172729204 ], [ 37.722156870077015, 45.890000000001237 ], [ 37.723265995431575, 45.89336700228705 ], [ 37.725697208317797, 45.899999999999636 ], [ 37.728073401271104, 45.909036700633806 ], [ 37.728333341217876, 45.910000000001673 ], [ 37.730000000001382, 45.915675623429706 ], [ 37.731250020377047, 45.92 ], [ 37.733448274444527, 45.928275862777809 ], [ 37.733984061098454, 45.93000000000211 ], [ 37.735274727194337, 45.937362636404941 ], [ 37.735877550228906, 45.940000000000509 ], [ 37.737598550687835, 45.946200724656592 ], [ 37.738582987547488, 45.950000000002547 ], [ 37.738984380548573, 45.955507809727351 ], [ 37.739504135997777, 45.960000000000946 ], [ 37.740763643774699, 45.964618178113597 ], [ 37.742489462303638, 45.969999999999345 ], [ 37.742649578309283, 45.976324789156934 ], [ 37.74268086185657, 45.980000000001382 ], [ 37.743925238073643, 45.986962619035694 ], [ 37.744372293927881, 45.989999999999782 ], [ 37.74383333312835, 45.996916666566904 ], [ 37.743593065219102, 46.000000000001819 ], [ 37.744208147238169, 46.007104073620212 ], [ 37.744311115353412, 46.010000000000218 ], [ 37.743933655181536, 46.01303317241036 ], [ 37.743424654552655, 46.020000000002256 ], [ 37.743142863633693, 46.023428568185409 ], [ 37.74283721987922, 46.030000000000655 ], [ 37.742769952528761, 46.033615023736274 ], [ 37.742890996867573, 46.040000000002692 ], [ 37.742346935983733, 46.043826532008097 ], [ 37.741862733928428, 46.049999999999272 ], [ 37.740777774099115, 46.054611112951534 ], [ 37.7395098099405, 46.059999999999491 ], [ 37.738818176152563, 46.06440908807599 ], [ 37.737319573056084, 46.069999999999709 ], [ 37.736339275617865, 46.07316963780795 ], [ 37.733809523813761, 46.08 ], [ 37.733512195691219, 46.081756097844845 ], [ 37.731325987593664, 46.090000000001965 ], [ 37.731311495699629, 46.090655747851997 ], [ 37.730457150253642, 46.100000000000364 ], [ 37.731904761907572, 46.109047619049306 ], [ 37.732142859676969, 46.110000000002401 ], [ 37.732035912757055, 46.118982043622964 ], [ 37.732023792206746, 46.1200000000008 ], [ 37.730000000001382, 46.124473671829037 ], [ 37.72740741967209, 46.130000000002838 ], [ 37.726491239691313, 46.138245619844383 ], [ 37.726226422873879, 46.139999999999418 ], [ 37.724827583251681, 46.147413791626605 ], [ 37.724478523123253, 46.149999999999636 ], [ 37.723409080905185, 46.156704540451756 ], [ 37.722969684711643, 46.159999999999854 ], [ 37.722228568705759, 46.166114284353171 ], [ 37.721446554558497, 46.17 ], [ 37.72231639598067, 46.173841802014067 ], [ 37.723456810566859, 46.180000000000291 ], [ 37.722601172799841, 46.186300586401558 ], [ 37.721898747549858, 46.190000000000509 ], [ 37.722617464165523, 46.196308732081889 ], [ 37.722857140093765, 46.200000000002547 ], [ 37.722222207914456, 46.206111103958392 ], [ 37.72181819061916, 46.210000000000946 ], [ 37.722075461795612, 46.213962269104741 ], [ 37.722549018080826, 46.220000000002983 ], [ 37.722799990466228, 46.226399995231986 ], [ 37.72298700695319, 46.229999999999563 ], [ 37.722499986031835, 46.236249993018646 ], [ 37.722356678465076, 46.24000000000342 ], [ 37.721686738337667, 46.245843369168142 ], [ 37.721375001861816, 46.25 ], [ 37.721375001861816, 46.255687500934073 ], [ 37.721585370731191, 46.260000000000218 ], [ 37.719465652327926, 46.265267173837856 ], [ 37.717380963784308, 46.270000000000437 ], [ 37.716200012220725, 46.273100006112145 ], [ 37.713859660745584, 46.280000000000655 ], [ 37.713350261643427, 46.281675130821895 ], [ 37.711978021618052, 46.290000000002692 ], [ 37.711558442901151, 46.290779221448247 ], [ 37.709999999997308, 46.294090896775742 ], [ 37.70715845392624, 46.299999999999272 ], [ 37.703193270681368, 46.30659663534243 ], [ 37.701562495636608, 46.31000000000131 ], [ 37.698591546633907, 46.315704226684829 ], [ 37.696039607615603, 46.320000000001528 ], [ 37.690000000000509, 46.32924243313937 ], [ 37.689593501156196, 46.32979675057868 ], [ 37.689473689990336, 46.330000000003565 ], [ 37.686894974560346, 46.338447487281883 ], [ 37.686616922062967, 46.340000000000146 ], [ 37.682234440315369, 46.346117220158703 ], [ 37.679856449642102, 46.350000000002183 ], [ 37.675479459881899, 46.357260270060578 ], [ 37.67355556144139, 46.360000000002401 ], [ 37.672898554481435, 46.361449277243082 ], [ 37.670000000003711, 46.368888903605693 ], [ 37.669622646601056, 46.36981132330402 ], [ 37.669561409129528, 46.370000000004438 ], [ 37.664249200668564, 46.377124600336174 ], [ 37.662436976896061, 46.380000000001019 ], [ 37.65894260308778, 46.384471301544181 ], [ 37.654938261308416, 46.390000000001237 ], [ 37.653582080523847, 46.391791040261523 ], [ 37.649999999999636, 46.397058819406084 ], [ 37.648091604618457, 46.400000000003274 ], [ 37.647354496690241, 46.401322751655243 ], [ 37.642193296358528, 46.409999999999854 ], [ 37.638333322292965, 46.415833338855009 ], [ 37.635514703948502, 46.420000000001892 ], [ 37.634065038550034, 46.422032519278218 ], [ 37.630000000002838, 46.428064514060679 ], [ 37.629000000004453, 46.429500000000189 ], [ 37.628671587528515, 46.43000000000211 ], [ 37.623457446132306, 46.436728723067063 ], [ 37.621021892729914, 46.440000000004147 ], [ 37.617926509517929, 46.443963254758273 ], [ 37.613453250060047, 46.450000000000728 ], [ 37.612467876329902, 46.451233938165387 ], [ 37.61000000000422, 46.454485994327115 ], [ 37.606919062982342, 46.458459531490007 ], [ 37.605755397922621, 46.460000000002765 ], [ 37.601005027461724, 46.465502513732645 ], [ 37.59721429149613, 46.470000000002983 ], [ 37.590000000001965, 46.479351854919514 ], [ 37.589630608190419, 46.47981530409379 ], [ 37.589490910828317, 46.479999999999563 ], [ 37.589119501573805, 46.4804402492191 ], [ 37.580974740119927, 46.490000000001601 ], [ 37.577487688202382, 46.493743844099299 ], [ 37.57192168878646, 46.500000000001819 ], [ 37.571377537095032, 46.500688768548571 ], [ 37.570000000003347, 46.502389361859969 ], [ 37.563605948944314, 46.510000000003856 ], [ 37.558926825864546, 46.514463412933765 ], [ 37.552996258529674, 46.520000000000437 ], [ 37.551975311913338, 46.520987655958379 ], [ 37.550000000001091, 46.522877701236212 ], [ 37.544974618869674, 46.527487309436765 ], [ 37.542265617996236, 46.530000000002474 ], [ 37.534885488541477, 46.537557255731372 ], [ 37.532490267860339, 46.540000000002692 ], [ 37.531641022666008, 46.54082051133264 ], [ 37.530000000004293, 46.542352938598924 ], [ 37.524864197024726, 46.547432098512218 ], [ 37.522238801326239, 46.549999999999272 ], [ 37.517575053032488, 46.553787526516317 ], [ 37.510220581145404, 46.56000000000131 ], [ 37.510000000000218, 46.560208326864085 ], [ 37.503088243352977, 46.566544121676998 ], [ 37.499594105520373, 46.570000000003347 ], [ 37.49000000000342, 46.576598983698204 ], [ 37.486947602879809, 46.578473801442669 ], [ 37.484826255005828, 46.580000000003565 ], [ 37.479504957218523, 46.584752478611335 ], [ 37.475277782377816, 46.590000000000146 ], [ 37.473662654967484, 46.591831327481486 ], [ 37.469999999999345, 46.598636374412308 ], [ 37.469281442150532, 46.600000000002183 ], [ 37.469999999999345, 46.60342853007387 ], [ 37.47135295494445, 46.610000000002401 ], [ 37.471877569692879, 46.61093878484462 ], [ 37.475769234446489, 46.620000000004438 ], [ 37.477228921434289, 46.623614460719182 ], [ 37.479256764170714, 46.630000000001019 ], [ 37.480262170951391, 46.635131085477042 ], [ 37.480812708643498, 46.640000000003056 ], [ 37.482047233192134, 46.646023616596722 ], [ 37.482811386391404, 46.650000000003274 ], [ 37.483793103452626, 46.656896551725367 ], [ 37.484065938386266, 46.659999999999854 ], [ 37.483568915460637, 46.666784457733229 ], [ 37.483208964271398, 46.670000000001892 ], [ 37.482826089537411, 46.676413044770015 ], [ 37.482442752871066, 46.680000000003929 ], [ 37.480723696271525, 46.685361848136381 ], [ 37.479111970533268, 46.690000000004147 ], [ 37.478489204164362, 46.694244602082108 ], [ 37.477401579053549, 46.700000000000728 ], [ 37.476738356002897, 46.703369178003413 ], [ 37.47489794825924, 46.710000000002765 ], [ 37.474705874104984, 46.712352937052856 ], [ 37.473817421638159, 46.719999999997526 ], [ 37.473432830180172, 46.721716415093397 ], [ 37.471025658009239, 46.729999999999563 ], [ 37.470952396721259, 46.730476198359611 ], [ 37.469999999999345, 46.735217425108203 ], [ 37.46909464637065, 46.739547323184524 ], [ 37.468967133525439, 46.740000000001601 ], [ 37.468720925398884, 46.740639537301831 ], [ 37.465784312866163, 46.750000000003638 ], [ 37.465520841418765, 46.752239579293018 ], [ 37.464607858752061, 46.760000000003856 ], [ 37.462857140091728, 46.763571429952208 ], [ 37.460366475315823, 46.770000000000437 ], [ 37.459302332028528, 46.775348833985845 ], [ 37.458465622485164, 46.780000000002474 ], [ 37.458000011922195, 46.78400000595866 ], [ 37.456885228280953, 46.790000000004511 ], [ 37.455361686585093, 46.792680843293056 ], [ 37.450342846246713, 46.799999999999272 ], [ 37.450000000002547, 46.800967717128515 ], [ 37.447083341096004, 46.808541670547129 ], [ 37.446291407462923, 46.81000000000131 ], [ 37.442879589323638, 46.816439794660255 ], [ 37.440144951324328, 46.820000000003347 ], [ 37.437106621100611, 46.823553310554416 ], [ 37.430000000003929, 46.828750018628853 ], [ 37.428994986012185, 46.829497493008603 ], [ 37.428076947322552, 46.829999999998108 ], [ 37.410000000001673, 46.838245612660103 ], [ 37.408019796426743, 46.83900989821268 ], [ 37.403442640570574, 46.840000000000146 ], [ 37.394338642026923, 46.84216932101117 ], [ 37.390000000003056, 46.842562510244534 ], [ 37.38546959179439, 46.842265204108116 ], [ 37.3700000000008, 46.843103439165134 ], [ 37.352389956438856, 46.841194978223939 ], [ 37.350000000002183, 46.840733597220606 ], [ 37.345824147034364, 46.840000000000146 ], [ 37.33, 46.837473685091027 ], [ 37.319929073315507, 46.835035463345775 ], [ 37.31000000000131, 46.834293478394102 ], [ 37.297037031248692, 46.833518515622927 ], [ 37.290000000004511, 46.832707835890687 ], [ 37.284545461026937, 46.832727269487805 ], [ 37.270000000002256, 46.832380957002897 ], [ 37.256181814489537, 46.833090907244696 ], [ 37.250000000003638, 46.833569551259643 ], [ 37.241168832173571, 46.83441558391678 ], [ 37.230000000001382, 46.83511363828984 ], [ 37.221156819905445, 46.835578409949449 ], [ 37.210000000002765, 46.836289856251824 ], [ 37.19513697833645, 46.837431510833994 ], [ 37.190000000000509, 46.837692307693942 ], [ 37.185548964258487, 46.837774482128225 ], [ 37.170000000001892, 46.838264986958166 ], [ 37.166686753314934, 46.838343376659395 ], [ 37.149999999999636, 46.838935480896907 ], [ 37.132848290475522, 46.838575854766532 ], [ 37.130000000001019, 46.838557996836244 ], [ 37.126923086127135, 46.838461543062294 ], [ 37.11000000000422, 46.837881622657733 ], [ 37.095905288459107, 46.837047355775212 ], [ 37.090000000000146, 46.836768291410408 ], [ 37.081587294265773, 46.835793647132959 ], [ 37.070000000003347, 46.834171426531611 ], [ 37.064089074001458, 46.832955463001781 ], [ 37.05000000000291, 46.831007750150093 ], [ 37.045185197452156, 46.829999999998108 ], [ 37.030000000002474, 46.826424412967754 ], [ 37.016914892270506, 46.823457446134853 ], [ 37.010000000000218, 46.821737969108653 ], [ 37.003333333335831, 46.820000000003347 ], [ 36.989999999999782, 46.816569920592883 ], [ 36.970302990624987, 46.81015149531413 ], [ 36.969999999999345, 46.810045760566936 ], [ 36.969888282854299, 46.81000000000131 ], [ 36.960274172783102, 46.804862913610123 ], [ 36.950000000000728, 46.800777206954081 ], [ 36.948681309755557, 46.799999999999272 ], [ 36.937999976158608, 46.793999988080031 ], [ 36.930997508050496, 46.790000000004511 ], [ 36.930000000000291, 46.789436618893887 ], [ 36.919034365831976, 46.780000000002474 ], [ 36.915768025119178, 46.777115987440993 ], [ 36.909999999999854, 46.773920702125906 ], [ 36.905550005700206, 46.770000000000437 ], [ 36.900551315093253, 46.764724342456248 ], [ 36.894822885265967, 46.760000000003856 ], [ 36.889999999999418, 46.755902779552343 ], [ 36.886851851921165, 46.751574074040036 ], [ 36.884940476666088, 46.750000000003638 ], [ 36.88070362493454, 46.744648187532221 ], [ 36.877010921503825, 46.740000000001601 ], [ 36.870000000002619, 46.735090403857612 ], [ 36.867050766013563, 46.729999999999563 ], [ 36.863190698015387, 46.726595349011404 ], [ 36.860021202832286, 46.719999999997526 ], [ 36.858020362000389, 46.715989819000242 ], [ 36.851835332681731, 46.710000000002765 ], [ 36.850000000002183, 46.705900384804409 ], [ 36.848782127939558, 46.699391063973962 ], [ 36.844294312772035, 46.690000000004147 ], [ 36.838120300557421, 46.684060150277219 ], [ 36.836447760459123, 46.680000000003929 ], [ 36.830000000001746, 46.674452054361609 ] ] ] } },
{ "type": "Feature", "properties": { "gid": 2, "objectid": 10.0, "z": 1.0, "index": 0.0, "shape_leng": 3.32066348703 }, "geometry": { "type": "MultiLineString", "coordinates": [ [ [ 37.190000000000509, 46.190666649008563 ], [ 37.189695441305958, 46.190000000000509 ], [ 37.189670340107114, 46.189835170054721 ], [ 37.188743434910066, 46.180000000000291 ], [ 37.18461222941005, 46.172693885298941 ], [ 37.183089007199669, 46.17 ], [ 37.17984612845612, 46.164923064226969 ], [ 37.176918918226875, 46.159999999999854 ], [ 37.172836851854299, 46.151418425926749 ], [ 37.172259863416912, 46.149999999999636 ], [ 37.170375061470622, 46.140187530732874 ], [ 37.170342913195782, 46.139999999999418 ], [ 37.170888903605373, 46.130444451804578 ], [ 37.170946761427331, 46.130000000002838 ], [ 37.171159437815732, 46.129420281093189 ], [ 37.173850966630198, 46.1200000000008 ], [ 37.174523838248206, 46.11226191912283 ], [ 37.174779912882514, 46.110000000002401 ], [ 37.17933330978849, 46.094666654895263 ], [ 37.178513503718932, 46.090000000001965 ], [ 37.180058489318981, 46.085029244659381 ], [ 37.182112694978059, 46.08 ], [ 37.182932324089052, 46.073533837959985 ], [ 37.183285706378228, 46.069999999999709 ], [ 37.183037047505422, 46.066518523753984 ], [ 37.182941171318816, 46.059999999999491 ], [ 37.183239421250619, 46.056619710625455 ], [ 37.184242455718049, 46.049999999999272 ], [ 37.180265477392823, 46.034867261305408 ], [ 37.177209342620699, 46.023604671312569 ], [ 37.175000048066067, 46.020000000002256 ], [ 37.173965552678055, 46.01198277633921 ], [ 37.173739872072474, 46.010000000000218 ], [ 37.170000000001892, 46.003947360166421 ], [ 37.167435886985913, 46.000000000001819 ], [ 37.167115380210817, 45.998557690103553 ], [ 37.165344884288061, 45.989999999999782 ], [ 37.163333333332048, 45.986666666671226 ], [ 37.159818150292267, 45.980000000001382 ], [ 37.156341406682259, 45.973170703342475 ], [ 37.154727199824265, 45.969999999999345 ], [ 37.149999999999636, 45.965000057312864 ], [ 37.146645144919603, 45.961677427541872 ], [ 37.144693857690072, 45.960000000000946 ], [ 37.139795924987993, 45.95510203750564 ], [ 37.134210486692609, 45.950000000002547 ], [ 37.132666634881389, 45.948666682563271 ], [ 37.130000000001019, 45.946666699779598 ], [ 37.120588260044315, 45.940000000000509 ], [ 37.11000000000422, 45.932372860808755 ], [ 37.107985626318623, 45.93100718684218 ], [ 37.10641026425219, 45.93000000000211 ], [ 37.098707470855516, 45.925646264571697 ], [ 37.090000000000146, 45.921578972134739 ], [ 37.086666639072064, 45.92 ], [ 37.070000000003347, 45.911176480902213 ], [ 37.06746026340079, 45.910000000001673 ], [ 37.05000000000291, 45.904210549431809 ], [ 37.035965011347798, 45.899999999999636 ], [ 37.032377675428506, 45.898811162287529 ], [ 37.030000000002474, 45.898089848513337 ], [ 37.02291651662199, 45.896458258310304 ], [ 37.010000000000218, 45.893406561735901 ], [ 37.005373173498811, 45.892313413254669 ], [ 36.992285461265055, 45.890000000001237 ], [ 36.989999999999782, 45.889583385076548 ], [ 36.988688684776207, 45.889344342387631 ], [ 36.969999999999345, 45.885533951368416 ], [ 36.956666666668752, 45.883333333335031 ], [ 36.950000000000728, 45.88223302431652 ], [ 36.935625093130511, 45.8799999999992 ], [ 36.930000000000291, 45.87914282957172 ], [ 36.915230739607068, 45.877384630199231 ], [ 36.909999999999854, 45.87663367739151 ], [ 36.901392420346383, 45.875696210174283 ], [ 36.889999999999418, 45.874545465492702 ], [ 36.882105260405297, 45.873947369798771 ], [ 36.870000000002619, 45.872580643093897 ], [ 36.853953480313066, 45.871976740158061 ], [ 36.850000000002183, 45.871888870495241 ], [ 36.833595547759614, 45.871797773879734 ], [ 36.830000000001746, 45.871666687362449 ], [ 36.826666625274811, 45.871666687362449 ], [ 36.81000000000131, 45.87223302431812 ], [ 36.795714270510871, 45.87285713525489 ], [ 36.790000000000873, 45.873076918667721 ], [ 36.783535386375661, 45.873232306812497 ], [ 36.770000000000437, 45.873619018966565 ], [ 36.758141552776578, 45.874070776389999 ], [ 36.75, 45.874423067007228 ], [ 36.74010748139699, 45.874946259304124 ], [ 36.729999999999563, 45.875480794580653 ], [ 36.722100897579367, 45.876050448789101 ], [ 36.709999999999127, 45.876545434843138 ], [ 36.694175749320493, 45.877912125341027 ], [ 36.690000000002328, 45.878256913343648 ], [ 36.687121273012963, 45.878560636505426 ], [ 36.671904572676794, 45.8799999999992 ], [ 36.670264866677826, 45.880132433339895 ], [ 36.670000000001892, 45.880153826405149 ], [ 36.653483845168012, 45.881741922583387 ], [ 36.650000000001455, 45.882076899097228 ], [ 36.636357618508555, 45.883178809253877 ], [ 36.630000000001019, 45.883664147493619 ], [ 36.619559786622631, 45.884779893311133 ], [ 36.610000000000582, 45.885714292116973 ], [ 36.602874997672188, 45.88643749883704 ], [ 36.590000000000146, 45.887984521195904 ], [ 36.58686751573623, 45.88843375786746 ], [ 36.573749953433435, 45.890000000001237 ], [ 36.569999999999709, 45.890530957582087 ], [ 36.555540569386721, 45.892770284694052 ], [ 36.549999999999272, 45.893596499026899 ], [ 36.537941096552458, 45.896029451723734 ], [ 36.530000000002474, 45.897567592239284 ], [ 36.526645996305888, 45.898322998153162 ], [ 36.519411778455833, 45.899999999999636 ], [ 36.512857122583227, 45.901428561293869 ], [ 36.510000000002037, 45.902086950662124 ], [ 36.499418609892018, 45.904709304944845 ], [ 36.490000000001601, 45.906639355875086 ], [ 36.485519148465755, 45.907759574232841 ], [ 36.473921554877961, 45.910000000001673 ], [ 36.470975596990684, 45.910487798495524 ], [ 36.470000000001164, 45.910657888029164 ], [ 36.456346176992156, 45.913173088498297 ], [ 36.450000000000728, 45.914203840517075 ], [ 36.441612926264497, 45.915806463133777 ], [ 36.430000000000291, 45.917636340647732 ], [ 36.426608660272905, 45.91830433013638 ], [ 36.41655170642116, 45.92 ], [ 36.409999999999854, 45.921743141343541 ], [ 36.399285734562, 45.924642867279545 ], [ 36.389999999999418, 45.927155934206894 ], [ 36.380605978505628, 45.93000000000211 ], [ 36.370000000002619, 45.932777777778028 ], [ 36.360370400741886, 45.935185200371052 ], [ 36.350000000002183, 45.937716535801883 ], [ 36.347055831729449, 45.938527915863233 ], [ 36.340793683832089, 45.940000000000509 ], [ 36.333523336865255, 45.941761668431354 ], [ 36.330000000001746, 45.942677182725674 ], [ 36.318666540835693, 45.945666729583536 ], [ 36.31000000000131, 45.947968782018506 ], [ 36.307360442951904, 45.948680221477844 ], [ 36.301612990058857, 45.950000000002547 ], [ 36.293185834172618, 45.9515929170866 ], [ 36.290000000000873, 45.952249996276805 ], [ 36.282173890509512, 45.953913054745499 ], [ 36.270000000000437, 45.956500009315278 ], [ 36.2652340563709, 45.957617028183449 ], [ 36.255263124874546, 45.960000000000946 ], [ 36.25203043781039, 45.961015218905231 ], [ 36.25, 45.961562482540103 ], [ 36.242452821703409, 45.963773589150151 ], [ 36.229999999999563, 45.967555586954404 ], [ 36.227013614688985, 45.968506807346785 ], [ 36.221750076369062, 45.969999999999345 ], [ 36.214820528495693, 45.972410264250357 ], [ 36.209999999999127, 45.974234241008162 ], [ 36.203600004768305, 45.976800002385062 ], [ 36.195617980538373, 45.980000000001382 ], [ 36.19209205063089, 45.981046025313844 ], [ 36.190000000002328, 45.981724140765436 ], [ 36.180195995932081, 45.984902002035597 ], [ 36.170000000001892, 45.988194469164227 ], [ 36.167815160144528, 45.988907580072919 ], [ 36.164747552591507, 45.989999999999782 ], [ 36.156108794541069, 45.993054397271408 ], [ 36.150000000001455, 45.994932421548583 ], [ 36.143852429986509, 45.996926214991618 ], [ 36.13275864431489, 46.000000000001819 ], [ 36.131016964565788, 46.000508482282385 ], [ 36.130000000001019, 46.000882364542122 ], [ 36.11912279326134, 46.004561396630379 ], [ 36.110000000000582, 46.007878794720455 ], [ 36.107575763831846, 46.00878788191585 ], [ 36.104400019075911, 46.010000000000218 ], [ 36.090000000000146, 46.016792474050817 ], [ 36.086761930173452, 46.01838096508618 ], [ 36.083644911874217, 46.020000000002256 ], [ 36.075177313059612, 46.022588656531298 ], [ 36.069999999999709, 46.024101140528728 ], [ 36.049999999999272, 46.030000000000655 ], [ 36.038076936307334, 46.040000000002692 ], [ 36.033544288518897, 46.041772144259085 ], [ 36.030000000002474, 46.043206086033024 ], [ 36.013518529760404, 46.049999999999272 ], [ 36.010000000002037, 46.052753643221877 ], [ 36.004505493785473, 46.057252746892118 ], [ 36.000476212102512, 46.059999999999491 ], [ 35.995583777848879, 46.062791888925858 ], [ 35.990000000001601, 46.066250042335014 ], [ 35.986700045301404, 46.068350022649611 ], [ 35.983400051260105, 46.069999999999709 ], [ 35.978374988360883, 46.074187494183207 ], [ 35.973392884701752, 46.08 ], [ 35.972032097153715, 46.081016048576203 ], [ 35.970000000001164, 46.082405067110813 ], [ 35.963582864518685, 46.086791432260725 ], [ 35.958235239122587, 46.090000000001965 ], [ 35.956614164360872, 46.093307082181127 ], [ 35.953962257784951, 46.100000000000364 ], [ 35.950000000000728, 46.10283781171529 ], [ 35.944207618949804, 46.107103809474211 ], [ 35.939708690670159, 46.110000000002401 ], [ 35.937999961854075, 46.113999980927474 ], [ 35.935436848258178, 46.1200000000008 ], [ 35.933636363637561, 46.121818181820345 ], [ 35.930000000000291, 46.12528295096854 ], [ 35.925327016384472, 46.130000000002838 ], [ 35.923506417106182, 46.133246791448983 ], [ 35.920196110513643, 46.139999999999418 ], [ 35.912884619792749, 46.159999999999854 ], [ 35.912884619792749, 46.161442309898121 ], [ 35.909999999999854, 46.173666726272131 ], [ 35.909999999999854, 46.18703695527438 ], [ 35.909999999999854, 46.191600028610992 ], [ 35.914421020932423, 46.210000000000946 ], [ 35.919347845805532, 46.229999999999563 ], [ 35.930000000000291, 46.248783819703021 ], [ 35.93209297006797, 46.25 ], [ 35.935293901091427, 46.252646950546477 ], [ 35.943902336197425, 46.260000000000218 ], [ 35.950000000000728, 46.264310392667539 ], [ 35.954782636865275, 46.267608681571801 ], [ 35.959041176422033, 46.270000000000437 ], [ 35.970000000001164, 46.27487802750511 ], [ 35.981830957540296, 46.280000000000655 ], [ 35.990000000001601, 46.283411777905712 ], [ 36.007230678942506, 46.290000000002692 ], [ 36.010000000002037, 46.290825714164384 ], [ 36.021627900530802, 46.294186049737618 ], [ 36.030000000002474, 46.295760007631543 ], [ 36.049459529123851, 46.299729764563381 ], [ 36.049999999999272, 46.299849643943162 ], [ 36.050228541456818, 46.299885729275047 ], [ 36.050869452545157, 46.299999999999272 ], [ 36.069999999999709, 46.303308281461796 ], [ 36.080229889390466, 46.304885055305931 ], [ 36.090000000000146, 46.305666658719929 ], [ 36.097222225904261, 46.306388887047433 ], [ 36.110000000000582, 46.307516352344464 ], [ 36.129166629414613, 46.309583314707197 ], [ 36.130000000001019, 46.309675309348677 ], [ 36.130537658184039, 46.309731170909799 ], [ 36.133703834520929, 46.31000000000131 ], [ 36.147456640232122, 46.311271679884157 ], [ 36.150000000001455, 46.31145695835221 ], [ 36.153636381548495, 46.31181819077392 ], [ 36.170000000001892, 46.313812528873314 ], [ 36.180000048856527, 46.315000024431356 ], [ 36.190000000002328, 46.31625767454716 ], [ 36.195398230322098, 46.317300884842552 ], [ 36.209999999999127, 46.319880255126918 ], [ 36.2104081086527, 46.320000000001528 ], [ 36.229999999999563, 46.32738460832843 ], [ 36.232369352885144, 46.328815323557137 ], [ 36.234331233888952, 46.330000000003565 ], [ 36.25, 46.337546010703591 ], [ 36.253846151643302, 46.340000000000146 ], [ 36.270000000000437, 46.346720008774355 ], [ 36.275484940368187, 46.350000000002183 ], [ 36.28163776015208, 46.354181119922941 ], [ 36.290000000000873, 46.359434792526372 ], [ 36.290899637424445, 46.360000000002401 ], [ 36.293561572254475, 46.361780786126474 ], [ 36.30571426442657, 46.370000000004438 ], [ 36.31000000000131, 46.373061240625248 ], [ 36.321286325526671, 46.380000000001019 ], [ 36.326139720384163, 46.38193013981072 ], [ 36.330000000001746, 46.383250766284618 ], [ 36.348918947944185, 46.389459473975876 ], [ 36.350000000002183, 46.389807698187724 ], [ 36.350689631548448, 46.390000000001237 ], [ 36.363684201092838, 46.393157899456128 ], [ 36.370000000002619, 46.395153381186901 ], [ 36.389090896775087, 46.399545448392018 ], [ 36.389999999999418, 46.399730635541346 ], [ 36.39039801673789, 46.399800991634038 ], [ 36.391176491213628, 46.400000000003274 ], [ 36.409999999999854, 46.409696964226896 ], [ 36.410282690423628, 46.409858654791606 ], [ 36.410470595661536, 46.409999999999854 ], [ 36.415627706073792, 46.417186146965832 ], [ 36.420743827708066, 46.420000000001892 ], [ 36.430000000000291, 46.422857134170044 ], [ 36.447391314006381, 46.43000000000211 ], [ 36.450000000000728, 46.431173179893449 ], [ 36.467081107553895, 46.440000000004147 ], [ 36.468632925912971, 46.440683537044606 ], [ 36.470000000001164, 46.44145159843174 ], [ 36.485436937589839, 46.450000000000728 ], [ 36.490000000001601, 46.452670432609011 ], [ 36.49938180305071, 46.460000000002765 ], [ 36.50329896337098, 46.466649481684726 ], [ 36.504941636228978, 46.470000000002983 ], [ 36.510000000002037, 46.473439160614362 ], [ 36.515560531524898, 46.477219734239043 ], [ 36.519501901186231, 46.479999999999563 ], [ 36.530000000002474, 46.489133347638926 ], [ 36.530708434300323, 46.489645782850857 ], [ 36.531165898668405, 46.490000000001601 ], [ 36.536190395096128, 46.493095197549337 ], [ 36.547055831726539, 46.500000000001819 ], [ 36.549999999999272, 46.501324203027252 ], [ 36.560133339691674, 46.504933330155836 ], [ 36.569999999999709, 46.508894218924979 ], [ 36.572822101144993, 46.510000000003856 ], [ 36.590000000000146, 46.515785128449352 ], [ 36.604265778571062, 46.520000000000437 ], [ 36.610000000000582, 46.521838553879206 ], [ 36.618723375924674, 46.524361687965211 ], [ 36.630000000001019, 46.527568811978199 ], [ 36.639464250554738, 46.530000000002474 ], [ 36.647093583693277, 46.531453208153835 ], [ 36.650000000001455, 46.531928112151945 ], [ 36.656178033674223, 46.533089016837039 ], [ 36.670000000001892, 46.535629136064017 ], [ 36.676550868854974, 46.536724565574332 ], [ 36.690000000002328, 46.539249143563211 ], [ 36.693606570193879, 46.540000000002692 ], [ 36.709999999999127, 46.544065041833164 ], [ 36.726129053966361, 46.548064526981761 ], [ 36.729999999999563, 46.549028347213607 ], [ 36.733404224738479, 46.549999999999272 ], [ 36.75, 46.553966112245689 ], [ 36.769024423338124, 46.559512211671972 ], [ 36.770000000000437, 46.559775288425953 ], [ 36.770779198663149, 46.56000000000131 ], [ 36.784230030094477, 46.562884984958146 ], [ 36.790000000000873, 46.564668761297071 ], [ 36.808674073905422, 46.570000000003347 ], [ 36.81000000000131, 46.570497910124686 ], [ 36.821989514581219, 46.574005242713611 ], [ 36.830000000001746, 46.577500000001237 ], [ 36.837669155411277, 46.580000000003565 ], [ 36.850000000002183, 46.583153862375184 ], [ 36.860789482974724, 46.585394741485288 ], [ 36.870000000002619, 46.586969694626532 ], [ 36.875185204808076, 46.587407397593779 ], [ 36.889999999999418, 46.589708746852921 ], [ 36.899999999999636, 46.590000000000146 ], [ 36.909999999999854, 46.590346809260154 ], [ 36.930000000000291, 46.590000000000146 ], [ 36.947040816947265, 46.588520408477052 ], [ 36.950000000000728, 46.588164554099421 ], [ 36.95547172145416, 46.587264139274339 ], [ 36.969999999999345, 46.585310335471149 ], [ 36.977230029608108, 46.583615014804309 ], [ 36.989250020489635, 46.580000000003565 ], [ 36.989668518477629, 46.579834259242489 ], [ 36.989999999999782, 46.579690731789015 ], [ 36.994999751654177, 46.577500124176368 ], [ 37.010000000000218, 46.570957477841148 ], [ 37.010952410986647, 46.570476205493833 ], [ 37.011800051261162, 46.570000000003347 ], [ 37.022857082038172, 46.56357145898437 ], [ 37.029056562398182, 46.56000000000131 ], [ 37.029507365441532, 46.559753682720839 ], [ 37.030000000002474, 46.559431789704831 ], [ 37.0376497328798, 46.553824866439754 ], [ 37.042769196206791, 46.549999999999272 ], [ 37.045765770360958, 46.547882885181025 ], [ 37.05000000000291, 46.544470608037955 ], [ 37.053408101955938, 46.541704050980115 ], [ 37.055314715627901, 46.540000000002692 ], [ 37.060624971725701, 46.535312485868417 ], [ 37.066413764185199, 46.530000000002474 ], [ 37.067999986245923, 46.528999993122852 ], [ 37.070000000003347, 46.527678560978529 ], [ 37.077350421692245, 46.523675210846704 ], [ 37.083870994101744, 46.520000000000437 ], [ 37.086545479665801, 46.518272739833264 ], [ 37.090000000000146, 46.516199998808588 ], [ 37.095040620857617, 46.512520310432592 ], [ 37.098794291463491, 46.510000000003856 ], [ 37.108507388333237, 46.500746305839129 ], [ 37.109280540988038, 46.500000000001819 ], [ 37.11000000000422, 46.499468064197572 ], [ 37.11714862610097, 46.493574313055433 ], [ 37.121946347926496, 46.490000000001601 ], [ 37.124827595951501, 46.487413797976842 ], [ 37.130000000001019, 46.483333355407012 ], [ 37.133773607542025, 46.479999999999563 ], [ 37.138108125524013, 46.475945937239885 ], [ 37.144430360649494, 46.470000000002983 ], [ 37.14640815293933, 46.46820407647283 ], [ 37.149999999999636, 46.465368418414073 ], [ 37.154080003625495, 46.462040001815694 ], [ 37.156580656575898, 46.460000000002765 ], [ 37.160672625364896, 46.455336312685176 ], [ 37.166301388881038, 46.450000000000728 ], [ 37.16771188709572, 46.448855943546732 ], [ 37.170000000001892, 46.446931861284611 ], [ 37.177625057742262, 46.440000000004147 ], [ 37.181983802936884, 46.435991901469606 ], [ 37.188499972064164, 46.43000000000211 ], [ 37.188999982619862, 46.429499991307239 ], [ 37.190000000000509, 46.428441537327672 ], [ 37.195138339175173, 46.422569169591952 ], [ 37.197514453258918, 46.420000000001892 ], [ 37.203684184109079, 46.413157907945788 ], [ 37.206610160357741, 46.409999999999854 ], [ 37.210000000002765, 46.405161315135047 ], [ 37.21266670640216, 46.4013333532057 ], [ 37.213535955266707, 46.400000000003274 ], [ 37.214885568426325, 46.397557215785127 ], [ 37.219354859384111, 46.390000000001237 ], [ 37.222204721456364, 46.386102360729637 ], [ 37.22684781341195, 46.380000000001019 ], [ 37.227302320423405, 46.37865116021203 ], [ 37.229578940103238, 46.370000000004438 ], [ 37.229609749574593, 46.369804874788315 ], [ 37.230000000001382, 46.366923112194854 ], [ 37.23081820866355, 46.360409104334394 ], [ 37.230865411345803, 46.360000000002401 ], [ 37.23215249657369, 46.351076248287427 ], [ 37.232253557389413, 46.350000000002183 ], [ 37.23249997930543, 46.341249989653079 ], [ 37.232523340537227, 46.340000000000146 ], [ 37.231299978546303, 46.330649989273297 ], [ 37.231187193985534, 46.330000000003565 ], [ 37.231145356867273, 46.329427321566982 ], [ 37.230892898007369, 46.320000000001528 ], [ 37.23083685806705, 46.319581570971422 ], [ 37.230000000001382, 46.313333333331684 ], [ 37.229512172427349, 46.31000000000131 ], [ 37.227543866991255, 46.301228066506155 ], [ 37.227307703327824, 46.299999999999272 ], [ 37.226626523328378, 46.298313261666408 ], [ 37.222897198864302, 46.290000000002692 ], [ 37.22111111886079, 46.285555559432396 ], [ 37.218755775054888, 46.280000000000655 ], [ 37.217920802597291, 46.273960401300428 ], [ 37.21740741967551, 46.270000000000437 ], [ 37.216083659497599, 46.26695817025211 ], [ 37.213513551972937, 46.260000000000218 ], [ 37.212146348274473, 46.251073174134945 ], [ 37.211990954132489, 46.25 ], [ 37.210000000002765, 46.24639342980845 ], [ 37.20643836362251, 46.24000000000342 ], [ 37.203899615680712, 46.233050192164228 ], [ 37.202752307626724, 46.229999999999563 ], [ 37.201255073629, 46.224372463189866 ], [ 37.200046090547403, 46.220000000002983 ], [ 37.198196753352022, 46.214098376674883 ], [ 37.196880769064592, 46.210000000000946 ], [ 37.196122473806099, 46.206938763098151 ], [ 37.19396224664888, 46.200000000002547 ], [ 37.193281241270597, 46.198359379364774 ], [ 37.190000000000509, 46.190666649008563 ] ] ] } }
]
}
