{
"type": "FeatureCollection",
"name": "azov_10_lsr_iso",
"crs": { "type": "name", "properties": { "name": "urn:ogc:def:crs:OGC:1.3:CRS84" } },
"features": [
{ "type": "Feature", "properties": { "gid": 1, "objectid": 1.0, "z": 3.0, "index": 0.0, "shape_leng": 0.60415860276699995 }, "geometry": { "type": "MultiLineString", "coordinates": [ [ [ 35.507968627708124, 45.296094121722433 ], [ 35.507231653856955, 45.296867895351859 ], [ 35.506684987672514, 45.297944672960369 ], [ 35.506680719149955, 45.299105218699395 ], [ 35.507359567505837, 45.299966001291523 ], [ 35.508708791724167, 45.30071843034024 ], [ 35.510681621180971, 45.30137550848405 ], [ 35.516064073121349, 45.302481240704964 ], [ 35.525062728746107, 45.30370554408772 ], [ 35.542021875563911, 45.30566704920556 ], [ 35.561916303884303, 45.307066689012203 ], [ 35.566188114524145, 45.307526238132759 ], [ 35.570446224397998, 45.3081215554826 ], [ 35.578908654104374, 45.309646070793988 ], [ 35.596656462462192, 45.313826025008083 ], [ 35.604394532994547, 45.315875304047793 ], [ 35.615865261881012, 45.319384539234385 ], [ 35.630707420682157, 45.324461035070328 ], [ 35.634866734554556, 45.325566100857323 ], [ 35.651219244355161, 45.329365419642819 ], [ 35.658891028889627, 45.331666250752363 ], [ 35.664941639547763, 45.333855387340641 ], [ 35.668124161586576, 45.334841868064736 ], [ 35.67172798023325, 45.335593478736534 ], [ 35.675902946239553, 45.336019901218343 ], [ 35.68034432577182, 45.336168968535539 ], [ 35.696733953414359, 45.336254598973532 ], [ 35.704855483552038, 45.336474641399626 ], [ 35.708106699771122, 45.336741027803043 ] ], [ [ 36.616700615733862, 45.402734840676828 ], [ 36.630069988775418, 45.398714224420495 ], [ 36.634607493012332, 45.397674699139209 ], [ 36.638465391947413, 45.397176891134421 ], [ 36.64421216043872, 45.39697770117229 ], [ 36.661896940812973, 45.397053533012439 ], [ 36.678175545045676, 45.397726307734516 ], [ 36.68425519841913, 45.397828040672835 ], [ 36.694237747536093, 45.397525055339685 ], [ 36.718198107954322, 45.396336629659629 ] ], [ [ 37.138538793714531, 45.334324428194577 ], [ 37.212790255439728, 45.336213719459032 ], [ 37.228601297611334, 45.336417265786089 ], [ 37.294527653092516, 45.336640837267836 ], [ 37.313584255074311, 45.337000871001649 ], [ 37.332327167442322, 45.337647075128743 ], [ 37.347736936896737, 45.338485671740145 ], [ 37.363861514578218, 45.339875612036998 ], [ 37.372025150747497, 45.340959666811699 ], [ 37.388091042904527, 45.343834226727523 ], [ 37.394588524983845, 45.34477472563627 ], [ 37.402010689480541, 45.345470732743365 ], [ 37.415785100954999, 45.346181114589612 ], [ 37.430000000004043, 45.34666666666817 ] ] ] } },
{ "type": "Feature", "properties": { "gid": 2, "objectid": 2.0, "z": 3.0, "index": 0.0, "shape_leng": 3.5461547390699999 }, "geometry": { "type": "MultiLineString", "coordinates": [ [ [ 37.939940121056111, 46.384970060529781 ], [ 37.940335871191564, 46.383261639606182 ], [ 37.942269137112902, 46.380751957904309 ], [ 37.944884552988164, 46.378271875074411 ], [ 37.949406799438492, 46.374870117822184 ], [ 37.955212251755121, 46.371327479138117 ], [ 37.961795802482868, 46.368002977297827 ], [ 37.968048379556436, 46.365333393463374 ], [ 37.974776612832038, 46.362854181595651 ], [ 37.984708495800341, 46.359783887348144 ], [ 37.992920274214733, 46.357738909792957 ], [ 38.001155065769119, 46.356119942167474 ], [ 38.009223635835909, 46.354965007036128 ], [ 38.016891674537291, 46.354294841935442 ], [ 38.024019675356911, 46.354049821875556 ], [ 38.045565495935179, 46.354129588636383 ], [ 38.056032143068769, 46.353981454659674 ], [ 38.06096904500977, 46.353749303081877 ], [ 38.070811431959925, 46.35289885954802 ], [ 38.077533812232268, 46.351977035099367 ], [ 38.084213176159068, 46.350795919484291 ], [ 38.090841114620247, 46.3493774695038 ], [ 38.097406132109001, 46.347731842130791 ], [ 38.103893125264165, 46.345857797924083 ], [ 38.110282773315134, 46.343742835771799 ], [ 38.116550842726262, 46.341363051349148 ], [ 38.124937281906682, 46.337671239463944 ], [ 38.13093788919975, 46.334768314461712 ], [ 38.136818268804802, 46.3316605061014 ], [ 38.146547041662096, 46.325776228425312 ], [ 38.152205511835312, 46.322016730745943 ], [ 38.157586152242537, 46.31825371223524 ], [ 38.162782327247804, 46.31430074526228 ], [ 38.169478550298386, 46.308419529020242 ], [ 38.174134300508399, 46.303676876455633 ], [ 38.178437832240839, 46.29867216956081 ], [ 38.181085472255354, 46.295193690148608 ], [ 38.185753797846282, 46.287889099331004 ], [ 38.187846547353772, 46.283823119199418 ], [ 38.189707593891455, 46.279646982675544 ], [ 38.192649407808361, 46.271521655856581 ], [ 38.193471945152886, 46.268560310811338 ], [ 38.194777108537366, 46.262510344585799 ], [ 38.196002587934053, 46.253196754581509 ], [ 38.196480480724524, 46.243706883470068 ], [ 38.196424135141172, 46.237335887153705 ], [ 38.195787676248038, 46.22778574600288 ], [ 38.194975811360649, 46.221464590426734 ], [ 38.192787520509768, 46.210214503478205 ], [ 38.190559790902093, 46.200962331138186 ], [ 38.187859578640804, 46.191891898044382 ], [ 38.185561260095042, 46.185639901331633 ], [ 38.183045171684526, 46.179483704236233 ], [ 38.179265708235256, 46.170885874032102 ], [ 38.1763339023451, 46.164930383100554 ], [ 38.171015987384258, 46.154937771022162 ], [ 38.168700461281496, 46.150866512296943 ], [ 38.165202817947424, 46.145228390359918 ], [ 38.16149008778185, 46.13971850608182 ], [ 38.155292136888136, 46.131418548387273 ], [ 38.151605021100174, 46.12709973387468 ], [ 38.147681335165522, 46.122972987400409 ], [ 38.143809678521009, 46.119329221147559 ], [ 38.139754680696548, 46.115849127364569 ], [ 38.131236711207968, 46.109250440363795 ], [ 38.125645354959573, 46.105261087184786 ], [ 38.119892097589137, 46.101448393674836 ], [ 38.115212563624091, 46.098596010939872 ], [ 38.105542096784227, 46.093309505781477 ], [ 38.100571934661332, 46.090864186428213 ], [ 38.09099516115019, 46.086583293293351 ], [ 38.076421404342291, 46.080698039350764 ], [ 38.042171277704995, 46.067258963033957 ], [ 38.025202254119634, 46.060176516911085 ], [ 38.011572142850909, 46.054040894401624 ], [ 38.00632811991315, 46.051442427361394 ], [ 38.000231432634585, 46.047942929634338 ], [ 37.999440479785001, 46.047345743851025 ], [ 37.99914056289316, 46.046855419445592 ] ], [ [ 38.121477916334356, 46.685492638878941 ], [ 38.118132621376262, 46.685180040937922 ], [ 38.112405718357628, 46.684220503451002 ], [ 38.105537980915763, 46.682704539336271 ], [ 38.097945878580987, 46.680736124779131 ], [ 38.091040567974808, 46.678409661656943 ], [ 38.082654888498958, 46.674460467292448 ], [ 38.076461101319744, 46.671919792033393 ], [ 38.059684879735677, 46.665836817966913 ], [ 38.033054047998213, 46.658291785444952 ], [ 38.01354092869915, 46.653552236057465 ], [ 38.008365435103087, 46.651731927970722 ], [ 38.006320688316642, 46.650744867909921 ], [ 38.00423674329226, 46.649454875071001 ], [ 38.002370928688691, 46.647934604865341 ], [ 38.000905835349045, 46.646373823601998 ], [ 37.998040144796171, 46.642476895498923 ], [ 37.993350534630729, 46.63501297984277 ], [ 37.991379163957625, 46.632193063690444 ], [ 37.989191112172087, 46.629427804616803 ], [ 37.986812552834692, 46.626866228933281 ], [ 37.982576133153614, 46.623159961032513 ], [ 37.979990913980942, 46.62117308121006 ], [ 37.975771345960737, 46.618255755686036 ], [ 37.973925712895493, 46.617216243061819 ] ], [ [ 36.610341196897309, 46.77229804434171 ], [ 36.612334001436238, 46.772371390810925 ], [ 36.634329704256167, 46.771165002785935 ], [ 36.665295472111232, 46.770162471499638 ], [ 36.675336287101487, 46.769402119852046 ], [ 36.685353658053828, 46.768119877739814 ], [ 36.690325164340237, 46.767268916419887 ], [ 36.700378839668517, 46.765035135584391 ], [ 36.71022185473943, 46.762151526382056 ], [ 36.716834388502484, 46.759722714166102 ], [ 36.720219090985196, 46.758305880408876 ], [ 36.730012076649778, 46.753546496602993 ], [ 36.736231627260182, 46.74985014588124 ], [ 36.743324950302146, 46.744857887907173 ], [ 36.750073646613046, 46.739296767722195 ], [ 36.753368612850544, 46.736126494905008 ], [ 36.756460546518873, 46.732778075294924 ], [ 36.759311813435367, 46.729255535772765 ], [ 36.761864563292477, 46.725550102592713 ], [ 36.763568511261283, 46.722598839279783 ], [ 36.765063435448241, 46.719552641675172 ], [ 36.76717710303771, 46.714052231505079 ], [ 36.768266019901198, 46.710032440733627 ], [ 36.768954406954357, 46.705942468811251 ], [ 36.769167705828714, 46.701840903911659 ], [ 36.768877741967714, 46.69798593743905 ], [ 36.76784635181766, 46.692816794219119 ], [ 36.766654880107104, 46.68872781374909 ], [ 36.765252342302752, 46.684746196105351 ], [ 36.760830996962653, 46.673595758954136 ], [ 36.760231801005283, 46.671200872055117 ], [ 36.760318932834629, 46.669622232324741 ], [ 36.761250736788014, 46.669030202969097 ], [ 36.763121716382258, 46.669502150713761 ], [ 36.765633464487948, 46.670801895552586 ], [ 36.771187125479578, 46.674580021384529 ], [ 36.775999999761666, 46.678500000063764 ] ], [ [ 37.72180540868618, 47.074458377052849 ], [ 37.72314233144234, 47.074095187033599 ], [ 37.730352847776167, 47.073296133377454 ], [ 37.742374179999103, 47.072442789492733 ], [ 37.757540495015903, 47.07187523616691 ], [ 37.774571426682044, 47.071685446968687 ], [ 37.796283757036512, 47.072047940943641 ], [ 37.808452258517399, 47.072603404179532 ], [ 37.825373042543724, 47.073701041683371 ], [ 37.840317073383375, 47.074292766242479 ], [ 37.850186781216046, 47.074398895199984 ], [ 37.86007277615802, 47.074232489013475 ], [ 37.869958237781006, 47.073769966560967 ], [ 37.87674443910646, 47.073269991199979 ], [ 37.889895798212407, 47.071958801596963 ], [ 37.896545780106663, 47.071082521095192 ], [ 37.909799361604357, 47.068906738313053 ], [ 37.916509770098962, 47.067602179432583 ], [ 37.929879505190989, 47.064683740808185 ], [ 37.956728897470484, 47.058236275364415 ], [ 37.983328424231928, 47.051256667477197 ], [ 38.003164322849138, 47.045615077183584 ], [ 38.016288457906782, 47.041593805416326 ], [ 38.029283936755249, 47.037281983355783 ], [ 38.057075115097803, 47.027432073171923 ], [ 38.064038068612497, 47.025262640319205 ], [ 38.071047577343215, 47.023390279322811 ], [ 38.078261675143835, 47.021879665140304 ], [ 38.085529010678378, 47.020797200760477 ], [ 38.09039531925005, 47.02032438903516 ], [ 38.096812046346393, 47.020020845909627 ], [ 38.103235086081611, 47.020074417432795 ], [ 38.109650410893501, 47.020486795084643 ], [ 38.119754161224328, 47.021846400288361 ], [ 38.129808744801679, 47.023871931803072 ], [ 38.139427104193231, 47.02628583680842 ], [ 38.144698614170352, 47.027802708692555 ], [ 38.156393720286836, 47.031498603306382 ], [ 38.169187494848572, 47.035971001858847 ], [ 38.179820196019669, 47.040135876596018 ], [ 38.205635812172382, 47.050884922633969 ], [ 38.217100322136012, 47.05531515094502 ], [ 38.236825096220123, 47.062105087266168 ], [ 38.243807241229902, 47.064251789300897 ], [ 38.250838961730572, 47.06616438921273 ], [ 38.26356902744859, 47.068898383471662 ], [ 38.310743934578618, 47.077122750551602 ], [ 38.320469916583171, 47.078323817964055 ], [ 38.336854717824743, 47.079541121279831 ], [ 38.350060992928157, 47.080029828946067 ], [ 38.369944875764944, 47.080223189196786 ], [ 38.38982932506412, 47.0798837433667 ], [ 38.409616722642461, 47.078902036082951 ], [ 38.419436796020889, 47.078062050672322 ], [ 38.429181603303093, 47.076892288282131 ], [ 38.45077577096847, 47.073432241549312 ], [ 38.460498701465553, 47.072161931247315 ], [ 38.470280849671973, 47.071142861490713 ], [ 38.499748918489026, 47.068609847562158 ], [ 38.525335873582996, 47.06590644291164 ], [ 38.570529815774933, 47.06222086759206 ], [ 38.577048510017313, 47.061906082204551 ], [ 38.590122917652863, 47.061816279740746 ], [ 38.599932398838725, 47.062236345518876 ], [ 38.609716964752231, 47.063128456121142 ], [ 38.616413859642776, 47.064046513667137 ], [ 38.629734754446972, 47.066508580233915 ], [ 38.642951419715978, 47.069601071999742 ], [ 38.670747371725668, 47.077218885726879 ], [ 38.68029236520151, 47.07955148843773 ], [ 38.704114260506167, 47.085014108127609 ], [ 38.711289016025191, 47.086414123543079 ], [ 38.717758492425247, 47.087421976182711 ], [ 38.72427149352901, 47.088214884947178 ], [ 38.730817036895203, 47.088827583593265 ], [ 38.740673727243824, 47.089468304080661 ], [ 38.757118447045322, 47.089946914061869 ], [ 38.770188302367103, 47.08988147275403 ], [ 38.779868648864493, 47.089570518064107 ], [ 38.789377400750602, 47.089000966969024 ], [ 38.795583479674377, 47.08844981046024 ], [ 38.801650693807119, 47.08773410245373 ], [ 38.807545764227235, 47.086823754650318 ], [ 38.816159148800253, 47.085192240028434 ], [ 38.825049296251549, 47.083799618355435 ], [ 38.862239290824334, 47.07968284692673 ], [ 38.871127664202419, 47.078309120972385 ], [ 38.879415740143067, 47.0764527630567 ], [ 38.88677836988829, 47.073878225403121 ], [ 38.891423724799147, 47.071353544206893 ], [ 38.895147303528752, 47.068322699133006 ], [ 38.897727609097693, 47.064819100367103 ], [ 38.898702490422203, 47.062224109432144 ], [ 38.899061687787558, 47.059497656329754 ], [ 38.898814414865306, 47.05671177294029 ], [ 38.897957248242918, 47.053937018783159 ], [ 38.895575992131143, 47.049931683330541 ], [ 38.892098177041632, 47.046094025394602 ], [ 38.887768007146086, 47.042414895698855 ], [ 38.882785327909559, 47.038889785151063 ], [ 38.877313487709927, 47.035519434177296 ], [ 38.871486354298227, 47.032310373624583 ], [ 38.865414520738426, 47.029275448827498 ], [ 38.859190774433081, 47.026434351704211 ], [ 38.852894922882768, 47.023814159610161 ], [ 38.836332788025544, 47.017522347379554 ], [ 38.828559127063698, 47.014305420891183 ], [ 38.81294232725633, 47.00837924380491 ], [ 38.807926354221792, 47.006255931676407 ], [ 38.803156247527468, 47.00386668825778 ], [ 38.798731659749187, 47.001085282608344 ], [ 38.792803410200449, 46.996052814358563 ], [ 38.778687993454867, 46.981542041953197 ], [ 38.774494873930365, 46.976908167535406 ], [ 38.769086403783234, 46.970445200529603 ], [ 38.763439293719173, 46.964048012852146 ], [ 38.758747204813538, 46.959550875028903 ], [ 38.753662280229889, 46.955290978830327 ], [ 38.748278126548868, 46.951226015322831 ], [ 38.742675849978276, 46.947321872632983 ], [ 38.731092837822814, 46.939897415149026 ], [ 38.709828328888342, 46.92735480342958 ], [ 38.705966240744132, 46.925302602887911 ], [ 38.697844782421967, 46.92173201381587 ], [ 38.689292521121779, 46.918615607100996 ], [ 38.67602445382952, 46.914335104673938 ], [ 38.669185669628696, 46.9124554832906 ], [ 38.66295627295537, 46.910987422214816 ], [ 38.650262874209247, 46.90843540068029 ], [ 38.630285297806161, 46.904842700360646 ], [ 38.616807326092051, 46.90283171319826 ], [ 38.610024611682704, 46.902033454695157 ], [ 38.60010259348887, 46.901183965354853 ], [ 38.590133737926074, 46.900633859826542 ], [ 38.576793469268118, 46.900225783754664 ], [ 38.550022570157097, 46.90004427878911 ], [ 38.499726734689638, 46.900212457690067 ], [ 38.476297479794717, 46.899758175977588 ], [ 38.459648550696194, 46.898761455136786 ], [ 38.449729434472559, 46.897695750405973 ], [ 38.442958586812622, 46.896689061201847 ], [ 38.429543745109974, 46.894055187714216 ], [ 38.41633697188967, 46.89068533983086 ], [ 38.409838194772696, 46.888727654495767 ], [ 38.402887923103052, 46.886396851173295 ], [ 38.389297099702183, 46.881290414255744 ], [ 38.376170338828224, 46.875920246899696 ], [ 38.361669136213251, 46.869625094342268 ], [ 38.354113630032202, 46.865664579341647 ], [ 38.349050605367069, 46.862243552686962 ], [ 38.344603176467764, 46.858358449260933 ], [ 38.340907245131945, 46.853976732199335 ], [ 38.338911140396668, 46.850745729288327 ], [ 38.33726585349401, 46.847321056659894 ], [ 38.335915477477371, 46.843752565404579 ], [ 38.334809401389847, 46.840087235907475 ], [ 38.333901418557346, 46.83636990339398 ], [ 38.331598607638739, 46.824358778083734 ], [ 38.330637015991144, 46.820623544096833 ], [ 38.328818114908835, 46.815333787759158 ], [ 38.326555026190704, 46.81004919913417 ], [ 38.324736163424149, 46.806323997652811 ], [ 38.322696387074984, 46.802644641151403 ], [ 38.319355887767671, 46.797583926825141 ], [ 38.315522413704372, 46.792713700788909 ], [ 38.311253457040614, 46.788054357516593 ], [ 38.306588761428799, 46.78363459717454 ], [ 38.301282732333533, 46.779257524694373 ], [ 38.295656786928078, 46.775126699038069 ], [ 38.289789973973484, 46.771189609185981 ], [ 38.258445153866106, 46.75155643028215 ], [ 38.22913192722546, 46.732257363501851 ], [ 38.222903621675407, 46.728515821174987 ], [ 38.216599421059549, 46.72498098675144 ], [ 38.204050032450809, 46.718613597001998 ], [ 38.167093981192849, 46.701490933249815 ], [ 38.159047915057364, 46.698298327829562 ], [ 38.151249956503477, 46.695581677313143 ], [ 38.131552775484032, 46.689187755655539 ], [ 38.125780739529148, 46.686926913562502 ] ], [ [ 36.50891209003413, 46.752560892094039 ], [ 36.539871053704289, 46.75758426484191 ], [ 36.543983170445841, 46.757801523347212 ], [ 36.550041313970929, 46.757234732033524 ], [ 36.552040157060169, 46.757233089919694 ], [ 36.555584981505731, 46.757601116522544 ], [ 36.563139066530823, 46.758856512000136 ] ], [ [ 37.189224094009148, 46.92346264855496 ], [ 37.191268584283769, 46.923791710353861 ], [ 37.205337421167755, 46.927238731467071 ], [ 37.208837566790585, 46.927819418556368 ], [ 37.212191562153244, 46.928109394758437 ], [ 37.21532314259386, 46.928153527004703 ], [ 37.223482584754308, 46.927717112968381 ], [ 37.24265608565436, 46.927551668784979 ], [ 37.250156518697843, 46.92723918968148 ], [ 37.259648464713273, 46.92623691818536 ], [ 37.273605336934452, 46.923798283565709 ], [ 37.275372699910726, 46.923337070106342 ], [ 37.276893761832127, 46.92270589107158 ], [ 37.277900436890633, 46.922043514701173 ], [ 37.282679971282576, 46.918248075613008 ], [ 37.293577061008662, 46.911169545418204 ], [ 37.302127789920533, 46.904151850066114 ], [ 37.306876017527856, 46.900527233363611 ], [ 37.312712852234341, 46.896760139302863 ], [ 37.315156098345113, 46.895509078304229 ], [ 37.316398025985904, 46.89510074127179 ] ], [ [ 37.49731563453264, 47.046309352156754 ], [ 37.499203890343608, 47.04744838822311 ], [ 37.505161258989403, 47.050106992053955 ], [ 37.509205407437776, 47.05149763620247 ], [ 37.513704603818638, 47.052635411240246 ], [ 37.521825667757177, 47.053741590168642 ], [ 37.536725428140016, 47.055173668471483 ], [ 37.543259301431988, 47.056148000268784 ], [ 37.549808843366876, 47.05743159732129 ], [ 37.573340240896286, 47.063171077757211 ], [ 37.583358268346871, 47.065363935039073 ], [ 37.597989855665539, 47.068055195228531 ], [ 37.610012615879782, 47.06993196409087 ], [ 37.618004776833494, 47.070960439479578 ], [ 37.626013215486523, 47.071776601580297 ], [ 37.633756526923179, 47.072280408857132 ], [ 37.641225945202628, 47.072493549168229 ], [ 37.653253711237525, 47.072432341558368 ], [ 37.671308059232778, 47.071298177441307 ], [ 37.681601109482322, 47.071409945860147 ], [ 37.686681621566002, 47.07175916276357 ], [ 37.691437751460533, 47.072289907231628 ], [ 37.695663345922675, 47.072975569834483 ], [ 37.698951052373729, 47.073691971698523 ], [ 37.703626870067069, 47.075000000004479 ] ] ] } },
{ "type": "Feature", "properties": { "gid": 3, "objectid": 3.0, "z": 3.0, "index": 0.0, "shape_leng": 0.419459713786 }, "geometry": { "type": "MultiLineString", "coordinates": [ [ [ 36.130000000001019, 46.498571426627677 ], [ 36.128765146988393, 46.498759086689802 ], [ 36.127397039869692, 46.499713729024201 ], [ 36.126310790583929, 46.501405071552725 ], [ 36.125960157095683, 46.503242333628876 ], [ 36.126174866808903, 46.505449716875745 ], [ 36.127060935892658, 46.508131714367181 ], [ 36.128567967436922, 46.511055937420579 ], [ 36.130592714600894, 46.514156002652683 ], [ 36.132831662326694, 46.517146225202005 ], [ 36.137366127495099, 46.522700508425167 ], [ 36.141595368703683, 46.52756244862789 ], [ 36.145778893484909, 46.531925999509447 ], [ 36.150398185937426, 46.536379689993254 ], [ 36.157324980376828, 46.542673412514361 ], [ 36.164534767650245, 46.548682983613965 ], [ 36.181383175220439, 46.561383023700145 ], [ 36.187816625402029, 46.566934421829842 ], [ 36.198455403374837, 46.576983275647493 ], [ 36.204433607112897, 46.583317082569067 ], [ 36.210405330894034, 46.590371649158804 ], [ 36.213149763820134, 46.594008238419477 ], [ 36.215639488798338, 46.597747445342812 ], [ 36.217778082025752, 46.601619977258039 ], [ 36.218963134921289, 46.604306664748158 ], [ 36.219936099958616, 46.607055717398595 ], [ 36.220866038218723, 46.610599230637959 ], [ 36.221709838983301, 46.615978101262591 ], [ 36.22194780883374, 46.619551548078938 ], [ 36.221940143359127, 46.623068875222749 ], [ 36.221730074806864, 46.625945699138825 ], [ 36.22126645634679, 46.628738616161129 ], [ 36.220482359463091, 46.63143052982673 ], [ 36.219385121816238, 46.6340002941335 ], [ 36.218011214311282, 46.636414465065315 ], [ 36.216406129329044, 46.638693875352075 ], [ 36.2146036111264, 46.640835980655012 ], [ 36.212511511926486, 46.642871331573666 ], [ 36.210225522619268, 46.644763801284405 ], [ 36.200265590974396, 46.651953131404461 ], [ 36.196937708480306, 46.654761437125039 ], [ 36.195653923442947, 46.656094144980294 ], [ 36.194464665534092, 46.657758144627216 ], [ 36.193980325975687, 46.659256959841365 ], [ 36.194289041702703, 46.660554878075416 ], [ 36.195938359349782, 46.66196781398348 ], [ 36.198464950184359, 46.662995698672944 ], [ 36.201222400848216, 46.663679472691371 ], [ 36.205078232836804, 46.664179704146925 ] ], [ [ 36.206576156857835, 46.663716061004514 ], [ 36.206383798843966, 46.663641467722258 ], [ 36.206688761258512, 46.663681207261966 ] ], [ [ 36.268075840484727, 46.625101840100989 ], [ 36.268228580484219, 46.624791803101019 ], [ 36.268057155257296, 46.624151616875096 ], [ 36.267102036721987, 46.62257901731617 ], [ 36.265358424181144, 46.620456657814657 ], [ 36.259978835927782, 46.615100538811696 ], [ 36.253123225629601, 46.609173520864687 ], [ 36.233895050109695, 46.59405268332798 ], [ 36.223455488519939, 46.585238033490313 ], [ 36.214412394281197, 46.576905190767349 ], [ 36.208193290102066, 46.570575385282389 ], [ 36.203602994177963, 46.56556400134582 ], [ 36.199278952990809, 46.560352801199791 ], [ 36.197269439302197, 46.557635655786171 ], [ 36.194581381517573, 46.553535786780508 ], [ 36.191279204924101, 46.547861834374054 ], [ 36.1830283256134, 46.532928501123749 ], [ 36.177129576652987, 46.523470280996719 ], [ 36.173148331911712, 46.517972424899753 ], [ 36.17099827357211, 46.51543111974263 ], [ 36.168689022217961, 46.513101577314281 ], [ 36.166746089607798, 46.511472801295646 ], [ 36.164609794607223, 46.510003286507434 ], [ 36.162074428056712, 46.50864492440801 ], [ 36.158517015474587, 46.507177034949294 ], [ 36.1546079866132, 46.505873713306634 ], [ 36.130000000001019, 46.498571426627677 ] ] ] } },
{ "type": "Feature", "properties": { "gid": 4, "objectid": 4.0, "z": 3.0, "index": 0.0, "shape_leng": 1.0308484314099999 }, "geometry": { "type": "MultiLineString", "coordinates": [ [ [ 34.850000000000477, 46.020000000002312 ], [ 34.848556309382062, 46.030697151611932 ], [ 34.847675332767523, 46.039062348343123 ], [ 34.846910683372251, 46.048906740647702 ], [ 34.846521394722451, 46.057219711159114 ], [ 34.846446097487686, 46.068065892498538 ], [ 34.846797608092515, 46.077081698282861 ], [ 34.847551579426806, 46.085754349314008 ], [ 34.848109102435558, 46.089982524861242 ], [ 34.849703629413419, 46.098537575927026 ], [ 34.851832885355456, 46.105560630320433 ], [ 34.85422586101204, 46.110236228149738 ], [ 34.856590849268876, 46.113500339316552 ], [ 34.861280190343962, 46.119031132269875 ], [ 34.864062383299945, 46.123207957715451 ], [ 34.866331940013275, 46.128620531834059 ], [ 34.871878891544497, 46.145838372703217 ], [ 34.874884735774536, 46.153095653783296 ], [ 34.876732068075576, 46.156615071043234 ], [ 34.87998782560144, 46.161638655735707 ], [ 34.883691349668382, 46.16645293069115 ], [ 34.890387766168644, 46.174232446986643 ], [ 34.893236608072911, 46.177244641228043 ], [ 34.897793715599114, 46.181499272384308 ], [ 34.902638873601497, 46.185492637006213 ], [ 34.90765305668797, 46.189261322064688 ], [ 34.911078730139025, 46.191663431914641 ], [ 34.914625972986023, 46.193904224687536 ], [ 34.919656669851896, 46.196566266350096 ], [ 34.924987270868158, 46.198946932318862 ], [ 34.936946836955187, 46.203593598430651 ], [ 34.943517241558126, 46.205929647520378 ], [ 34.950230990654866, 46.208134602318054 ], [ 34.968715580669169, 46.213620613142517 ], [ 34.975651597892885, 46.215838906732216 ], [ 35.003449525192345, 46.225473889998113 ], [ 35.029338611325144, 46.23383470491941 ], [ 35.036330342223984, 46.23634574584166 ], [ 35.043285178337918, 46.239049693389582 ], [ 35.057124513027127, 46.244870429229294 ], [ 35.084732564181635, 46.257216318441998 ], [ 35.110709616531366, 46.26849521898653 ], [ 35.127077304933302, 46.275849579246319 ], [ 35.133283444376907, 46.27851027888174 ], [ 35.13817108646095, 46.280395542736386 ], [ 35.143032798749083, 46.282036191692335 ], [ 35.147849436980458, 46.283387473688322 ], [ 35.15259854197781, 46.284396338130037 ], [ 35.1581310972823, 46.285088039365327 ], [ 35.163441676534092, 46.285221164026133 ], [ 35.168429463247584, 46.284791712575483 ], [ 35.172977499959856, 46.283773339932026 ], [ 35.176948955142031, 46.282116554812745 ], [ 35.180183019592867, 46.279747641136133 ], [ 35.18203454708479, 46.277467440640478 ], [ 35.183409156994877, 46.274815090538141 ], [ 35.184340383561548, 46.27186694239365 ], [ 35.184851981191834, 46.268693150088559 ], [ 35.184958173727097, 46.26535878898769 ], [ 35.184663833640016, 46.261924939354707 ], [ 35.183964587549639, 46.258449728877743 ], [ 35.182846849164832, 46.254989330602598 ], [ 35.180418748426099, 46.24993618447246 ], [ 35.17729665589561, 46.244972542766256 ], [ 35.171186083623304, 46.236708321372483 ], [ 35.168482081554579, 46.23341860484939 ], [ 35.164084910298023, 46.228653283573657 ], [ 35.154453780016055, 46.219459861863719 ], [ 35.147649732694539, 46.213461126620416 ], [ 35.143575836682317, 46.210282979399679 ], [ 35.139294261307832, 46.207249009183322 ], [ 35.134838150846072, 46.204346223277824 ], [ 35.130235326425151, 46.201564964129354 ], [ 35.123909289988234, 46.198035104085172 ], [ 35.117406283937228, 46.194704207108465 ], [ 35.110758212137945, 46.191576527715419 ], [ 35.103987180665492, 46.188667007666737 ], [ 35.097106786494791, 46.186001835964483 ], [ 35.090123128840069, 46.183619243736146 ], [ 35.077412930844034, 46.180037734287012 ], [ 35.056647838495451, 46.174818207367927 ], [ 35.042942233227315, 46.171905173058754 ], [ 35.023461895211035, 46.168373607297248 ], [ 35.017041882636583, 46.167045864132184 ], [ 35.010704174909975, 46.165501020339889 ], [ 35.003749732237665, 46.16343016755421 ], [ 34.996948295818839, 46.161019163270986 ], [ 34.990318090184971, 46.158307017613062 ], [ 34.983890299788882, 46.155317938493532 ], [ 34.977712088800601, 46.152061117553728 ], [ 34.971850548937816, 46.148530081405276 ], [ 34.96771649109769, 46.145688525989684 ], [ 34.963861779915177, 46.142663494330762 ], [ 34.960348114497485, 46.139432217090473 ], [ 34.957302030552306, 46.13586260672038 ], [ 34.953513916762184, 46.128202366430436 ], [ 34.952395570377504, 46.123948831139025 ], [ 34.951760762470357, 46.119552154147854 ], [ 34.951688750407165, 46.113271867532362 ], [ 34.952734383345991, 46.107090180011454 ], [ 34.9542231053168, 46.102882077186024 ], [ 34.956308064079508, 46.098909635432818 ], [ 34.958761007281119, 46.095457099074693 ], [ 34.964654893571947, 46.089594405087944 ], [ 34.970918484827408, 46.085474164801838 ], [ 34.975647433261813, 46.08343973240261 ], [ 34.979696802024279, 46.082386222153893 ], [ 34.982498810264708, 46.082207727536527 ], [ 34.983791253453376, 46.082815938290992 ] ], [ [ 35.193538675719424, 46.180477073461475 ], [ 35.197073152961082, 46.182917118530042 ], [ 35.202232756362037, 46.185528142020985 ] ], [ [ 35.204117648216197, 46.188190481859522 ], [ 35.204136266467451, 46.188996374132223 ], [ 35.204904125302484, 46.191463886247561 ], [ 35.20677845023318, 46.195576225636529 ], [ 35.209364546180801, 46.200318380652291 ], [ 35.212205326793487, 46.204939871100869 ], [ 35.216127345335593, 46.21038652584722 ], [ 35.224674050024248, 46.220260613485493 ], [ 35.229629380639928, 46.226837713820203 ], [ 35.232634686659303, 46.230009923303093 ], [ 35.24708047711222, 46.243782337192116 ], [ 35.254662472534633, 46.251492400112141 ], [ 35.257554205856493, 46.254665483112817 ], [ 35.264626758448671, 46.26336392154095 ], [ 35.268069354582877, 46.26720523682485 ], [ 35.271677531665006, 46.270671715191256 ], [ 35.275605824643094, 46.273877227246089 ] ], [ [ 35.286180425595489, 46.286962557181766 ], [ 35.285604480172736, 46.290565183143038 ], [ 35.285458454894425, 46.293617619868719 ], [ 35.285688705036307, 46.296769494653645 ], [ 35.286469366710769, 46.299517400501237 ], [ 35.287704222937919, 46.301742950814855 ], [ 35.292066591237401, 46.308190846820338 ], [ 35.294604912818123, 46.312258129765453 ], [ 35.295860255174901, 46.313986999993482 ], [ 35.29659776060015, 46.314706664921125 ], [ 35.297544010915828, 46.315349422816453 ], [ 35.299740100699047, 46.316270648008739 ], [ 35.303441284647626, 46.31716778805459 ], [ 35.329657544428642, 46.321371495339008 ] ] ] } },
{ "type": "Feature", "properties": { "gid": 5, "objectid": 5.0, "z": 3.0, "index": 0.0, "shape_leng": 0.23106246595800001 }, "geometry": { "type": "MultiLineString", "coordinates": [ [ [ 36.43499630521999, 45.440000599262589 ], [ 36.394753850267634, 45.44635975815229 ], [ 36.386309653518765, 45.447984058702971 ], [ 36.381467341762523, 45.449239011154901 ], [ 36.379455712088408, 45.449960332929464 ], [ 36.377833157935918, 45.450773537984091 ], [ 36.375191812744092, 45.452870205431317 ], [ 36.373594429468689, 45.453882021735893 ], [ 36.36693908231031, 45.456980526044916 ], [ 36.33628061696502, 45.469623743720781 ], [ 36.330924381727073, 45.471500520903092 ], [ 36.320740572528997, 45.474712372910474 ], [ 36.317492113058179, 45.475370632507165 ], [ 36.313846091631248, 45.475801374906901 ], [ 36.306131571501069, 45.476084199793441 ], [ 36.297610721846993, 45.475633301435451 ], [ 36.294074643431841, 45.475085636481957 ], [ 36.293167062975364, 45.474741426390374 ] ], [ [ 36.277477610842809, 45.472828357869197 ], [ 36.277193517357908, 45.472815884162628 ], [ 36.277179487495232, 45.472655326475277 ] ], [ [ 36.270321058667108, 45.468674680511455 ], [ 36.25893498980156, 45.467763304332074 ], [ 36.250585185809477, 45.467282582051816 ], [ 36.202576792191707, 45.465726881589696 ], [ 36.198611204825873, 45.465195990190104 ], [ 36.194580190939533, 45.464261192246028 ], [ 36.191533909240405, 45.463190333918469 ], [ 36.188618922306993, 45.46180946037245 ] ] ] } },
{ "type": "Feature", "properties": { "gid": 6, "objectid": 6.0, "z": 4.0, "index": 0.0, "shape_leng": 5.7545308931600001 }, "geometry": { "type": "MultiLineString", "coordinates": [ [ [ 37.250000000003638, 46.799999999999272 ], [ 37.250336493610789, 46.798436364131732 ], [ 37.254092580975907, 46.796892490628402 ], [ 37.260843459774847, 46.79554352695191 ], [ 37.273460785536216, 46.794042693232242 ], [ 37.317303903656068, 46.790506083584745 ], [ 37.328377454690418, 46.789280307456245 ], [ 37.334858193288802, 46.78830228059509 ], [ 37.34047799167211, 46.787148536334421 ], [ 37.345691522226524, 46.785695996463524 ], [ 37.349382957532221, 46.784387930321458 ], [ 37.360078451557719, 46.780085239845256 ], [ 37.366872366396343, 46.776880693158759 ], [ 37.377349285811277, 46.770694280963966 ], [ 37.381411063507393, 46.768091060345007 ], [ 37.385250984641864, 46.7652662131879 ], [ 37.405904583773236, 46.74593790595825 ], [ 37.408262270319227, 46.743298919278324 ], [ 37.421033740565633, 46.727762052063696 ], [ 37.423832181677739, 46.723901411934925 ], [ 37.425694707896113, 46.720770077985286 ], [ 37.427378756234994, 46.717460647485282 ], [ 37.436333831940388, 46.696461069422384 ], [ 37.439732933335364, 46.689875719189089 ], [ 37.442908843301467, 46.683065161968649 ], [ 37.444197841826742, 46.679359418312238 ], [ 37.445275419860543, 46.675440702280227 ], [ 37.446173224411964, 46.671340137232342 ], [ 37.446919707790343, 46.667085541022416 ], [ 37.448058965158374, 46.658211299222373 ], [ 37.448872206302042, 46.648988895325736 ], [ 37.450836290479472, 46.620575244106746 ], [ 37.451808670069646, 46.611257178766159 ], [ 37.45244458898614, 46.606698358282991 ], [ 37.454141535255992, 46.597876758225823 ], [ 37.455261543802841, 46.593658322936555 ], [ 37.458219592783259, 46.585736875077274 ], [ 37.461144469059143, 46.580360597502903 ], [ 37.464522916431633, 46.575359002354261 ], [ 37.47061756355756, 46.567562803409224 ], [ 37.473173606832717, 46.564627526540875 ], [ 37.484044864127142, 46.553773172468865 ], [ 37.494315387563582, 46.542130414842504 ], [ 37.49843908742757, 46.537904191265213 ], [ 37.509844421658848, 46.527135267465987 ], [ 37.512677447949365, 46.524552400169675 ], [ 37.52412466240412, 46.514815220807478 ], [ 37.534385555011511, 46.504216490556288 ], [ 37.545127958564841, 46.49387752284219 ], [ 37.547658120336045, 46.491033108152884 ], [ 37.555132421987274, 46.48194929440659 ], [ 37.582213289442976, 46.451777844465617 ], [ 37.585176553729617, 46.448308876942676 ], [ 37.595025167908645, 46.43590477050541 ], [ 37.605381723031201, 46.424509588346332 ], [ 37.607793213005372, 46.421455841781892 ], [ 37.614785824670079, 46.41175954677022 ], [ 37.623075538484798, 46.40073914090376 ], [ 37.627983810028866, 46.393426962892605 ], [ 37.63442148495124, 46.382659048602264 ], [ 37.64182696759557, 46.370748076264363 ], [ 37.644087283695754, 46.366675520694969 ], [ 37.64591166116378, 46.362931190314811 ], [ 37.649131945571561, 46.355257198092872 ], [ 37.653568109633227, 46.343797875886771 ], [ 37.656763240618055, 46.336595404078189 ], [ 37.661575540867965, 46.327696113611488 ], [ 37.663834695090614, 46.323141450062231 ], [ 37.665306366876941, 46.319514803832867 ], [ 37.666595072948063, 46.315712796994319 ], [ 37.668759636497811, 46.307711528111085 ], [ 37.673120146619063, 46.286713307855109 ], [ 37.674983899324069, 46.278467354769141 ], [ 37.679422479774402, 46.263167062513659 ], [ 37.680690391022956, 46.257584218927413 ], [ 37.681171706512394, 46.253783345501908 ], [ 37.68133464605657, 46.24995262529513 ], [ 37.680724914812643, 46.242328092976813 ], [ 37.679517436853295, 46.236760282841594 ], [ 37.676460465410287, 46.225505847318175 ], [ 37.674922445806523, 46.217508358282799 ], [ 37.673977747616632, 46.209250671592613 ], [ 37.673572415847097, 46.200956795471306 ], [ 37.673688262869639, 46.192852307870737 ], [ 37.674343846257116, 46.185178604455885 ], [ 37.675595250059267, 46.178207491178789 ], [ 37.67884609937893, 46.166244405577451 ], [ 37.679209684778968, 46.163247196118341 ], [ 37.679272173916146, 46.16019919297932 ], [ 37.67888335780556, 46.155621515035158 ], [ 37.677743481971461, 46.146063215673841 ], [ 37.677671800525324, 46.142638971179942 ], [ 37.677851619502029, 46.139118383409276 ], [ 37.679004389103262, 46.131941994830058 ], [ 37.680544209102834, 46.126578357407382 ], [ 37.684254174580268, 46.115437148431297 ], [ 37.686350107988858, 46.107295166480071 ], [ 37.688070166914443, 46.098691216345607 ], [ 37.691870093440109, 46.076274707737255 ], [ 37.69363555031115, 46.067328755657165 ], [ 37.694660412682559, 46.062929767117964 ], [ 37.697120657669146, 46.054370909334317 ], [ 37.701695552120206, 46.042171530704138 ], [ 37.703851088390905, 46.036006832266295 ], [ 37.705060904041424, 46.031737734823601 ], [ 37.706074797803304, 46.02736110319789 ], [ 37.707598353176998, 46.018352205705988 ], [ 37.708557145012762, 46.009100925691122 ], [ 37.709038569084974, 45.999711572020807 ], [ 37.709115224930521, 45.994994846190799 ], [ 37.709085030018905, 45.990278637423188 ], [ 37.708695405330857, 45.980893524673945 ], [ 37.707824681146484, 45.97165129212636 ], [ 37.706381722829263, 45.962657421855546 ], [ 37.704225393917525, 45.954034565093188 ], [ 37.702106384125258, 45.947893580307607 ], [ 37.697545616398727, 45.935765315176532 ], [ 37.695024096221395, 45.927278524603217 ], [ 37.692925162863119, 45.9185245813199 ], [ 37.689043238025029, 45.900819768885974 ], [ 37.686777141355797, 45.892171663638393 ], [ 37.685448049568741, 45.887970037296483 ], [ 37.683938980307985, 45.883880547580397 ], [ 37.681333345211762, 45.878006064392295 ], [ 37.67565112095987, 45.866554408398365 ], [ 37.66861622878519, 45.850840475118872 ], [ 37.66477987413338, 45.843187870489452 ], [ 37.661511736144661, 45.837740795634268 ], [ 37.654526969486717, 45.827139484608104 ], [ 37.647688671990657, 45.816388150668111 ], [ 37.64528279552772, 45.812893833036554 ], [ 37.639412206295468, 45.805413456624677 ], [ 37.627848780293455, 45.791693744065761 ], [ 37.615389957320545, 45.77783502214578 ], [ 37.607623735001212, 45.768661302808724 ], [ 37.604943723857424, 45.765788479738831 ], [ 37.601147989024604, 45.762201899951179 ], [ 37.593201440048098, 45.755294400238313 ], [ 37.57797787958129, 45.741520511403138 ], [ 37.562270132522919, 45.727017022148459 ], [ 37.545641781167269, 45.712620145415684 ], [ 37.54035797926867, 45.708461781743068 ], [ 37.534825546452176, 45.704449637351203 ], [ 37.5116748153049, 45.689064215515501 ], [ 37.500418854287879, 45.681277195938435 ], [ 37.495110432354601, 45.677239380765528 ], [ 37.483287090268519, 45.667630195421069 ], [ 37.466651514733968, 45.654690229523055 ], [ 37.440393590225248, 45.636981639502842 ], [ 37.434645685990738, 45.633435712423484 ], [ 37.422542768213489, 45.626473932029228 ], [ 37.403420800927002, 45.616264640908113 ], [ 37.383679607815125, 45.606306605567696 ], [ 37.363609100984405, 45.596747397573068 ], [ 37.35008011839151, 45.590788914938919 ], [ 37.336400980954451, 45.585410718156602 ], [ 37.329485058336175, 45.583040499914198 ], [ 37.320117935074968, 45.580238766722992 ], [ 37.296687394205726, 45.573725542835277 ], [ 37.283330511531702, 45.570378269400535 ], [ 37.256494703092308, 45.564265002072844 ], [ 37.242986764692056, 45.561615277501453 ], [ 37.210778015470055, 45.556762688304509 ], [ 37.189273833053313, 45.553094517665031 ], [ 37.179558280957373, 45.551873742385197 ], [ 37.163217514256793, 45.550466889891659 ], [ 37.130379175214188, 45.548305302541493 ], [ 37.120578520010859, 45.547434877517588 ], [ 37.110840962813064, 45.546292621761907 ], [ 37.089223028138193, 45.543057026747547 ], [ 37.079469182381807, 45.541963074249985 ], [ 37.069639346419123, 45.541183159146613 ], [ 37.056447034394239, 45.54049460273756 ], [ 37.029884205436616, 45.539840843717592 ], [ 36.996551535710232, 45.539647407933153 ], [ 36.960014055773669, 45.539826831970856 ], [ 36.943600500982505, 45.540115055845419 ], [ 36.93065864894929, 45.54053115040503 ], [ 36.917986394291667, 45.541212092359039 ], [ 36.905721102928396, 45.542294729365565 ], [ 36.89979855258715, 45.543044146515413 ], [ 36.89405473519902, 45.543970990762368 ], [ 36.885670941727263, 45.545590815775739 ], [ 36.87699465121981, 45.546915428404063 ], [ 36.867961088706863, 45.547880245827734 ], [ 36.849189156052162, 45.549098644879194 ], [ 36.804374651238824, 45.55092417279873 ], [ 36.791936806103806, 45.551830488641443 ], [ 36.785881055642115, 45.552455657144336 ], [ 36.779970448903768, 45.553234621624746 ], [ 36.774237009225082, 45.554202131235122 ], [ 36.765869501062653, 45.555915001721289 ], [ 36.754247283966251, 45.557811839066616 ], [ 36.716870022504494, 45.562145665790467 ], [ 36.710516536949136, 45.563048891889729 ], [ 36.68920237669969, 45.566549963886075 ], [ 36.682792446734439, 45.567395221164624 ], [ 36.669909201312564, 45.568694091716999 ], [ 36.638045109174342, 45.571131321436418 ], [ 36.625813672345238, 45.572396578366472 ], [ 36.619901785060279, 45.573217372467049 ], [ 36.614167078439507, 45.574213695751844 ], [ 36.60579776173121, 45.575951974034723 ], [ 36.594174036740306, 45.577861793383491 ], [ 36.556830190589153, 45.582218438122261 ], [ 36.550496560587966, 45.583138653923804 ], [ 36.529320683852418, 45.586771800675209 ], [ 36.522984564583851, 45.587689924426016 ], [ 36.485627966163385, 45.592021345313547 ], [ 36.47402405812597, 45.593924993252635 ], [ 36.465692950484737, 45.595664324025236 ], [ 36.460000961539755, 45.596666100615913 ], [ 36.454150725057737, 45.59749790319929 ], [ 36.442123040065994, 45.598810088867154 ], [ 36.417684892662479, 45.601011029374497 ], [ 36.405796062292936, 45.602447624858577 ], [ 36.400060936934985, 45.603382601813642 ], [ 36.394522841033051, 45.604522354497504 ], [ 36.378343747042287, 45.608452284800819 ], [ 36.358948086769402, 45.612787503915655 ], [ 36.353555112869778, 45.614266288296669 ], [ 36.340136627863679, 45.618314086913948 ], [ 36.322114391291386, 45.622942659181064 ], [ 36.30865249626823, 45.626044554262009 ], [ 36.29632940871852, 45.62811691599822 ], [ 36.271779195607699, 45.631315755864364 ], [ 36.260086114014179, 45.633192319224072 ], [ 36.254523239564115, 45.634369968403071 ], [ 36.241068496241198, 45.637685242404238 ], [ 36.219050189920985, 45.642395025595036 ], [ 36.198004457717296, 45.648145513429547 ], [ 36.178892287280149, 45.652754504067346 ], [ 36.173576560369973, 45.654306627531575 ], [ 36.160419020995903, 45.658604757329698 ], [ 36.119384591772295, 45.671149260259732 ], [ 36.106313911593084, 45.675533867923797 ], [ 36.101056956117752, 45.677145485893824 ], [ 36.079739180474185, 45.682928471533707 ], [ 36.074669765066346, 45.68458072984933 ], [ 36.045334979181682, 45.695589109659231 ], [ 36.037687944537893, 45.698127060611313 ], [ 36.019098608359577, 45.703725206460348 ], [ 36.013900486079521, 45.705604395472555 ], [ 36.000409363678187, 45.711170580051125 ], [ 35.994340634597386, 45.713396724623621 ], [ 35.988106068110852, 45.715399909214419 ], [ 35.98242208384481, 45.716959156628043 ], [ 35.959707877297994, 45.722263838427565 ], [ 35.954308184949625, 45.723715768942043 ], [ 35.941178912850106, 45.727592852416535 ], [ 35.925022713335409, 45.731809263782445 ], [ 35.919771149168135, 45.733388176624786 ], [ 35.914700762564124, 45.735189018327496 ], [ 35.897635569711788, 45.742731205395579 ], [ 35.892789667298359, 45.745162116414818 ], [ 35.880088703757046, 45.752329871815604 ], [ 35.874342612368942, 45.755401908169283 ], [ 35.862461153443611, 45.761332893587245 ], [ 35.850402769048536, 45.766763929926199 ], [ 35.834806829093637, 45.773350935490427 ], [ 35.813338878600483, 45.7835838955857 ], [ 35.792538108005665, 45.794438646874802 ], [ 35.780388862067333, 45.801415746973333 ], [ 35.77493800201303, 45.804273624069225 ], [ 35.759615000228465, 45.811571217578198 ], [ 35.754951620391758, 45.813938722571443 ], [ 35.73973580697843, 45.822792130501632 ], [ 35.735661814490371, 45.825490533790685 ], [ 35.724379946616047, 45.834369867672315 ], [ 35.720398440884502, 45.83707498463108 ], [ 35.716276122522721, 45.839629376312161 ], [ 35.705967511748582, 45.845989955684423 ], [ 35.693041835100331, 45.85307409048179 ], [ 35.68670626851258, 45.856768614024737 ], [ 35.67373045730897, 45.863966813419232 ], [ 35.661224707031757, 45.871919402509313 ], [ 35.655094435575627, 45.876199801892056 ], [ 35.643530637872651, 45.886057511331124 ], [ 35.638813359332232, 45.889588306301597 ], [ 35.633803743385251, 45.892885975787081 ], [ 35.628610931018642, 45.895945671942371 ], [ 35.614718718614917, 45.903514665604455 ], [ 35.599888999302387, 45.912914872302601 ], [ 35.595929355012224, 45.915805414598921 ], [ 35.590475014003175, 45.920613563396451 ], [ 35.585152801394855, 45.925574557302568 ], [ 35.573917629331405, 45.935141282153815 ], [ 35.563113390578899, 45.945806537687425 ], [ 35.558656258825238, 45.949606299687488 ], [ 35.553927904073568, 45.953190453712565 ], [ 35.542557654233754, 45.960915245234304 ], [ 35.536470030402931, 45.965430447755217 ], [ 35.531078283584066, 45.970464087621082 ], [ 35.51912573236865, 45.98239300693799 ], [ 35.515927173498284, 45.985945340515009 ], [ 35.511712020218631, 45.991820829837984 ], [ 35.5039764037125, 46.00419108320294 ], [ 35.498354340974764, 46.011950330327046 ], [ 35.49568896519434, 46.015975553249262 ], [ 35.493891360375827, 46.019197322328331 ], [ 35.492246198465551, 46.022573496577991 ], [ 35.486288781575716, 46.03673348377059 ], [ 35.483084539043951, 46.04361576660839 ], [ 35.478234840906012, 46.052255219949757 ], [ 35.475945440290481, 46.056731501539055 ], [ 35.474445487258613, 46.060316516539096 ], [ 35.473123252434945, 46.06408930862375 ], [ 35.470873799583906, 46.07206332228899 ], [ 35.465161947122624, 46.097341103039255 ], [ 35.464082247294023, 46.101477366313894 ], [ 35.462897974643489, 46.105523060389302 ], [ 35.459022942482157, 46.11710250372473 ], [ 35.457440488153324, 46.122876544232831 ], [ 35.456718141500268, 46.126834429196585 ], [ 35.456287900258133, 46.13084943377072 ], [ 35.456277395933384, 46.138941396929098 ], [ 35.456697367019352, 46.14296442307139 ], [ 35.457409922603333, 46.146936050464269 ], [ 35.458979255202216, 46.152742488046698 ], [ 35.462837427481986, 46.164441751549198 ], [ 35.464020424131881, 46.168549395069725 ], [ 35.466108425868107, 46.177055432523829 ], [ 35.470943287103417, 46.198972554637734 ], [ 35.473315348711871, 46.207547760203774 ], [ 35.474723363445889, 46.211703716580729 ], [ 35.476329498644134, 46.215738038223407 ], [ 35.479116209844015, 46.221506773533861 ], [ 35.4934820358732, 46.247478850407099 ], [ 35.50351608391388, 46.263095785568794 ], [ 35.511351937961692, 46.277013504965041 ], [ 35.515464605393561, 46.28340865769696 ], [ 35.518533806398523, 46.287260356211569 ], [ 35.524960138219186, 46.294557273231213 ], [ 35.534214849618735, 46.30584457769254 ], [ 35.544482345536096, 46.316496899091248 ], [ 35.554378835200794, 46.32853741971504 ], [ 35.558443888037722, 46.333066992586154 ], [ 35.573003054126048, 46.348234228423955 ], [ 35.580069309557366, 46.354911357403694 ], [ 35.594162874648759, 46.367291823116098 ], [ 35.599525145360154, 46.371431247546134 ], [ 35.605200948767191, 46.375386843351279 ], [ 35.611125575463682, 46.379196026103493 ], [ 35.623518933491702, 46.386493236508215 ], [ 35.639657312416553, 46.395233155908592 ], [ 35.656173038321086, 46.403753611343376 ], [ 35.70970269909408, 46.43063946793972 ], [ 35.74308693252329, 46.447211246462459 ], [ 35.762975117233651, 46.456677451814002 ], [ 35.776126467053757, 46.462482351633611 ], [ 35.782655275960479, 46.465133083601138 ], [ 35.789143840746647, 46.46755232048681 ], [ 35.794900826697159, 46.469494169775047 ], [ 35.814316161279557, 46.475534448272192 ], [ 35.819966227269937, 46.476872108611566 ], [ 35.82581940953601, 46.477925199192569 ], [ 35.831840488924229, 46.478746243417675 ], [ 35.837999370962713, 46.479379014773926 ], [ 35.850632344015544, 46.480217368111276 ], [ 35.863558433053235, 46.48065331971469 ], [ 35.879959347266393, 46.480823860462806 ], [ 35.89649109126394, 46.480676124927797 ], [ 35.909736478110659, 46.480317972629713 ], [ 35.929524187961064, 46.479200240318036 ], [ 35.942585806072486, 46.477843987873804 ], [ 35.949053588762993, 46.47689497318683 ], [ 35.95622665701827, 46.475588428234666 ], [ 35.989630510717085, 46.468700987032328 ], [ 36.009800011917193, 46.464106432005273 ], [ 36.019278956371878, 46.461735287574271 ], [ 36.024543403034968, 46.460255343597836 ], [ 36.05074500304039, 46.452185705669557 ], [ 36.069663633058319, 46.446860515692251 ], [ 36.090834983371657, 46.440535011515998 ], [ 36.10400157110714, 46.437021509486449 ], [ 36.117298750405197, 46.434081526075133 ], [ 36.123985937975924, 46.432884336423683 ], [ 36.130694552355521, 46.431916376802775 ], [ 36.137219086135879, 46.431228766742421 ], [ 36.143749022130173, 46.430778331612402 ], [ 36.15027186255184, 46.430551551713926 ], [ 36.156774266167908, 46.430545061171799 ], [ 36.163241544468264, 46.430765823783922 ], [ 36.169657111948567, 46.431231523763508 ], [ 36.176001884678548, 46.43197118435036 ], [ 36.182253621996622, 46.433026017591231 ], [ 36.188386208054112, 46.434450497464361 ], [ 36.195071390666904, 46.436532901720923 ], [ 36.201565338537861, 46.439083015326418 ], [ 36.207855412658574, 46.44204254293588 ], [ 36.212426273835732, 46.444507573711832 ], [ 36.216857279967698, 46.447172743882376 ], [ 36.221132144156833, 46.450035145012819 ], [ 36.225231104872741, 46.453097378599551 ], [ 36.246271967209879, 46.471038636110187 ], [ 36.252965565606118, 46.476456181354727 ], [ 36.25868831298677, 46.480792177132521 ], [ 36.264559227911562, 46.485010169912975 ], [ 36.288652165037945, 46.501568928021548 ], [ 36.305726794573395, 46.513695387638471 ], [ 36.311509850683166, 46.517628693840066 ], [ 36.317721643420697, 46.521618889411883 ], [ 36.330442059019255, 46.529195640497257 ], [ 36.349993117810193, 46.539914322783332 ], [ 36.369831786757757, 46.550234370410934 ], [ 36.42979197887545, 46.580603009341893 ], [ 36.459842950740068, 46.595622875079435 ], [ 36.476614592430813, 46.603709853261634 ], [ 36.490128331984394, 46.609850093537538 ], [ 36.503795470853738, 46.615458232961274 ], [ 36.510715479811061, 46.617958867588996 ], [ 36.5171599874623, 46.620031788399139 ], [ 36.523659686798467, 46.621884619709562 ], [ 36.530205389679367, 46.623524026031056 ], [ 36.53979315995587, 46.625564891925904 ], [ 36.550577754465927, 46.627462297782344 ], [ 36.557064825727515, 46.628305839242451 ], [ 36.570154150336045, 46.629396867779953 ], [ 36.576740560820141, 46.629707106983957 ], [ 36.589965635661635, 46.629963156981646 ], [ 36.609862759407946, 46.629583682553296 ], [ 36.623121319320724, 46.62882087210258 ], [ 36.629737740669526, 46.628258372078513 ], [ 36.643343786081147, 46.626731538410638 ], [ 36.664969422370163, 46.624011982902196 ], [ 36.715275806318033, 46.616888635031124 ], [ 36.725679977247502, 46.615629046048177 ], [ 36.730638552666392, 46.615194677210816 ], [ 36.735601848737311, 46.61489341513213 ], [ 36.742947894448129, 46.614725899907747 ], [ 36.750283983817987, 46.614905781345222 ], [ 36.756834309620324, 46.615375687518686 ], [ 36.763352926061003, 46.616134779044842 ], [ 36.769827440816108, 46.617185217193395 ], [ 36.776390125739177, 46.618569170550529 ], [ 36.78288065881442, 46.620260372082853 ], [ 36.789284920942379, 46.622259769818044 ], [ 36.796118401057115, 46.624778822642718 ], [ 36.802834285608576, 46.627622612347608 ], [ 36.809431478419754, 46.630753361164338 ], [ 36.815902410318976, 46.634149384751979 ], [ 36.822232677225465, 46.637804145387989 ], [ 36.828400531530669, 46.641725676015902 ], [ 36.83507704637627, 46.646438047287184 ], [ 36.841518038265413, 46.651468546394838 ], [ 36.850449525049129, 46.659167399138788 ], [ 36.864880158311102, 46.672484873720506 ], [ 36.896388523777958, 46.703513475146785 ], [ 36.905503597526078, 46.711770268808415 ], [ 36.912144603709443, 46.717382242293567 ], [ 36.917775999933184, 46.721790762110167 ], [ 36.923499723519363, 46.726013697953285 ], [ 36.953334020199563, 46.747085785808707 ], [ 36.957469159928962, 46.749775112044169 ], [ 36.961714681401091, 46.752293996425514 ], [ 36.970444991547069, 46.756810848277972 ], [ 36.975741618781392, 46.759176366117458 ], [ 36.994020563681062, 46.766854854966759 ], [ 36.999402896737912, 46.76882856166587 ], [ 37.004984331647059, 46.770653987025234 ], [ 37.020559098364473, 46.775406812707836 ], [ 37.030666153955494, 46.778220221803387 ], [ 37.0633296786378, 46.78565249440264 ], [ 37.070432244541166, 46.787041447577408 ], [ 37.080072248148809, 46.788524765961185 ], [ 37.089807331740907, 46.789673478698781 ], [ 37.11919214489572, 46.792538138204421 ], [ 37.128929724965573, 46.793752905992456 ], [ 37.150544861246175, 46.797129157369788 ], [ 37.157448490456353, 46.797944064384424 ], [ 37.165099858601842, 46.798604388702152 ], [ 37.173317608500923, 46.799124016455089 ], [ 37.186308618221659, 46.799674280116129 ], [ 37.199551418356627, 46.799998623762512 ], [ 37.224340852329696, 46.80017950069319 ], [ 37.250000000003638, 46.799999999999272 ] ] ] } }
]
}
