{
"type": "FeatureCollection",
"name": "azov_10_psr_iso",
"crs": { "type": "name", "properties": { "name": "urn:ogc:def:crs:OGC:1.3:CRS84" } },
"features": [
{ "type": "Feature", "properties": { "gid": 1, "objectid": 1.0, "z": 1.0, "index": 0.0, "shape_leng": 1.2207027530900001, "z1": 1.0 }, "geometry": { "type": "MultiLineString", "coordinates": [ [ [ 34.83, 46.130000000002951 ], [ 34.831109283606231, 46.12963487470477 ], [ 34.832981594819827, 46.130225016349627 ], [ 34.835446315859166, 46.131776815496522 ], [ 34.839878622855039, 46.135954077181324 ], [ 34.854697442928227, 46.152941650342889 ], [ 34.859792151374201, 46.159084308778226 ], [ 34.87318342806163, 46.176101383586925 ], [ 34.878288706839811, 46.181756025526603 ], [ 34.883294275583928, 46.186728430285299 ], [ 34.891260193839621, 46.19386964546117 ], [ 34.894587869811026, 46.196553938592693 ], [ 34.899887485733238, 46.20024083038345 ], [ 34.905540570240177, 46.203555243106095 ], [ 34.911463763785989, 46.206511304243726 ], [ 34.91692963069606, 46.208874195045318 ], [ 34.934250918646264, 46.215767861469025 ], [ 34.954274862118048, 46.224212567296547 ], [ 34.962645788556003, 46.226882425239886 ], [ 34.971447574250973, 46.229072621901267 ], [ 34.989755458795486, 46.233151720236819 ], [ 34.996672769124736, 46.234875014237346 ], [ 35.029403548486087, 46.243545094031113 ], [ 35.043255487298303, 46.248083707065277 ], [ 35.082325672886597, 46.26268423081239 ], [ 35.088103086518927, 46.265083648635397 ], [ 35.094363894568502, 46.268047467201967 ], [ 35.100379383766345, 46.271304782816706 ], [ 35.10610941902798, 46.274831905516159 ], [ 35.118892402211941, 46.283578156640601 ], [ 35.129929822844794, 46.290676368308553 ], [ 35.137343733623226, 46.295009059403029 ], [ 35.142545804696546, 46.297453650719667 ], [ 35.147958563738179, 46.299562349468559 ], [ 35.153506188193781, 46.301419113324314 ], [ 35.15978460804979, 46.303251371009971 ], [ 35.166080776118562, 46.304740797712739 ], [ 35.172332708844436, 46.305748327234042 ], [ 35.177824920324085, 46.306130492315972 ], [ 35.183135139226472, 46.305999265485696 ], [ 35.18816188762321, 46.305337865724916 ], [ 35.192789973617522, 46.304107851791983 ], [ 35.196886793630455, 46.302248029731331 ], [ 35.200298345348941, 46.29967306668366 ], [ 35.202322835910202, 46.297229231920767 ], [ 35.203910132116668, 46.294399634310182 ], [ 35.205922882718639, 46.287859715872806 ], [ 35.206401798990157, 46.284272239876039 ], [ 35.206551066772064, 46.280546714332779 ], [ 35.206377292743333, 46.276733609412794 ], [ 35.205879357321678, 46.272880696346867 ], [ 35.205048485686817, 46.269033915868285 ], [ 35.20386825371709, 46.265238203343976 ], [ 35.201472871421849, 46.259730135808134 ], [ 35.198536063942811, 46.254337164089343 ], [ 35.190815730815238, 46.241711804513713 ], [ 35.1884018756746, 46.238147345671898 ], [ 35.185801343091647, 46.234685455898578 ], [ 35.181505103797342, 46.22977894559677 ], [ 35.176819313260602, 46.225129891890198 ], [ 35.171893426944735, 46.220669911135282 ], [ 35.156982440905701, 46.207861086459033 ], [ 35.150716560974821, 46.202269043513589 ], [ 35.147545610577815, 46.199625700686667 ], [ 35.144233461578736, 46.197173766365381 ], [ 35.139494760198602, 46.194272760281535 ], [ 35.134441427495481, 46.191699034955768 ], [ 35.123074767115391, 46.18678440622454 ], [ 35.116855938506916, 46.184379504101955 ], [ 35.110549432845502, 46.182155436603317 ], [ 35.085378840650677, 46.174303123862366 ], [ 35.079660332574868, 46.172793528379884 ], [ 35.04894152120422, 46.166397335441211 ], [ 35.0419176699912, 46.164653783310172 ], [ 35.027940000186945, 46.160747377796817 ], [ 35.015649350202416, 46.156989852345518 ], [ 35.009696957306481, 46.154850071598325 ], [ 35.003291183954964, 46.152112700428731 ], [ 34.997215288136083, 46.14901819846046 ], [ 34.991552285337441, 46.145589582276195 ], [ 34.986410887742842, 46.141836509644357 ], [ 34.981930821157732, 46.137756029246368 ], [ 34.978289050507307, 46.133333365822224 ], [ 34.974950784496436, 46.126917304086518 ], [ 34.973895941283679, 46.123625806875197 ], [ 34.973214405866351, 46.120367160841433 ], [ 34.972916620836287, 46.114227848265941 ], [ 34.973295314315358, 46.111497659429538 ], [ 34.974037339765935, 46.10910434169881 ], [ 34.976701939102853, 46.105710785103483 ], [ 34.97978369901017, 46.104710017851808 ], [ 34.983632863967827, 46.1049179594431 ], [ 34.988043912007619, 46.106150354749225 ], [ 34.994185099400624, 46.108923501519811 ], [ 35.000818096185007, 46.112676906697864 ], [ 35.019707272219577, 46.124589861864727 ], [ 35.033550731732305, 46.13384025927234 ], [ 35.042076946443693, 46.139244130857136 ], [ 35.052096763256316, 46.144597775673837 ], [ 35.060849329960362, 46.148470465979258 ], [ 35.070085165861286, 46.151857259354372 ], [ 35.07955373305056, 46.154644416383491 ], [ 35.088007484194293, 46.156575266766907 ], [ 35.09623148906978, 46.158024816108856 ], [ 35.104013726712182, 46.15906269434376 ], [ 35.111142830295591, 46.159754240639415 ], [ 35.117407213828287, 46.1601603195233 ], [ 35.122593960207503, 46.160337742474098 ], [ 35.127792047616829, 46.160294100851189 ], [ 35.129512013981468, 46.159999999999854 ] ], [ [ 35.130361030311633, 46.160180515156128 ], [ 35.141918441667663, 46.165625673678534 ], [ 35.153603589701383, 46.171397147493948 ], [ 35.166263379733969, 46.178301698133019 ], [ 35.172253041117536, 46.181975832796276 ], [ 35.177634083158978, 46.185694818498938 ], [ 35.182120897429044, 46.189381744963761 ], [ 35.185648078107278, 46.193081601817894 ], [ 35.18840956411497, 46.196678381005007 ], [ 35.197387591421467, 46.209955545426176 ], [ 35.20412356540843, 46.219572128313644 ], [ 35.211336386783017, 46.229018333934924 ], [ 35.214945640114493, 46.233330572924082 ], [ 35.222477661773524, 46.241739707676793 ], [ 35.241925719950117, 46.262259186361533 ], [ 35.249497526654629, 46.270501747827382 ], [ 35.25660547578201, 46.278893254752127 ], [ 35.259865502804047, 46.28318060123074 ], [ 35.262837767787047, 46.287553687611151 ], [ 35.265429574177467, 46.292035475809421 ], [ 35.26735272752105, 46.296091404391944 ], [ 35.272327151095482, 46.308025374877687 ], [ 35.274230519064766, 46.311597306056093 ], [ 35.27653886372773, 46.314764040928793 ], [ 35.280082735750227, 46.317931642710256 ], [ 35.284308336274066, 46.32047383293299 ], [ 35.289038360922724, 46.32255680924326 ], [ 35.294135869205157, 46.324318969290054 ], [ 35.313470733553238, 46.330393981533362 ], [ 35.320278197377306, 46.33290756808892 ], [ 35.326604508542601, 46.335668195246747 ], [ 35.332104277699457, 46.338629646593375 ], [ 35.335854289365557, 46.341099690804882 ], [ 35.343859617647411, 46.346929808825053 ] ] ] } },
{ "type": "Feature", "properties": { "gid": 2, "objectid": 2.0, "z": 1.5, "index": 0.0, "shape_leng": 0.80891758014600001, "z1": 0.0 }, "geometry": { "type": "MultiLineString", "coordinates": [ [ [ 34.840000000001908, 46.075000000002547 ], [ 34.839788096708901, 46.077114095135627 ], [ 34.839888249109443, 46.0822463782835 ], [ 34.840536900706404, 46.089619617355083 ], [ 34.842000136040198, 46.098418784834323 ], [ 34.843124682841136, 46.103093538131525 ], [ 34.84456014887926, 46.10781108847538 ], [ 34.84835744535193, 46.117107112319381 ], [ 34.859467797735441, 46.140156053417854 ], [ 34.861693889197781, 46.144466664930455 ], [ 34.863976341684022, 46.14846458258485 ], [ 34.866603607439025, 46.152462922353209 ], [ 34.879606582150984, 46.170577407939284 ], [ 34.884662994590514, 46.177207605564291 ], [ 34.887796598048205, 46.180690840282416 ], [ 34.894604953963167, 46.187205552268047 ], [ 34.901396799879883, 46.192953343232006 ], [ 34.904747568699122, 46.195480535356985 ], [ 34.90871694572386, 46.198075368306213 ], [ 34.91290695863065, 46.200418336658906 ], [ 34.920826383902806, 46.204063120686172 ], [ 34.943053525939973, 46.212804217287371 ], [ 34.963870772863025, 46.220644368181155 ], [ 34.972273169714981, 46.22323838587284 ], [ 34.995185708463268, 46.229196190552763 ], [ 35.029448301721104, 46.238569612440955 ], [ 35.034676696758041, 46.240186514208673 ], [ 35.045078750531474, 46.243713088788233 ], [ 35.089027925172182, 46.259623844364569 ], [ 35.098759776267805, 46.263892503508231 ], [ 35.10804646290763, 46.268673977430815 ], [ 35.116764998682662, 46.273868786865137 ], [ 35.128208743230928, 46.28129888102989 ], [ 35.136063469657522, 46.285854422939799 ], [ 35.14700983811035, 46.291695618912925 ], [ 35.154570532671492, 46.294826875165178 ], [ 35.158885449070915, 46.296282205457622 ], [ 35.163209350561964, 46.297497594335816 ], [ 35.16750308609209, 46.298415851140881 ], [ 35.171724610679433, 46.298970786033841 ], [ 35.175399398769429, 46.299107122228371 ], [ 35.178929021860036, 46.298889737166171 ], [ 35.185328271200952, 46.297347279312994 ], [ 35.188071797731766, 46.295979078917249 ], [ 35.190415894288471, 46.294170349869681 ], [ 35.192301454947362, 46.291900873506172 ], [ 35.193750333189826, 46.289231741693996 ], [ 35.194797846541135, 46.286238652277063 ], [ 35.195470583866964, 46.282990523535261 ], [ 35.195786682414962, 46.279550597782446 ], [ 35.195756044741572, 46.275977506603795 ], [ 35.195380490271297, 46.272326293368678 ], [ 35.194653840336173, 46.268649390584329 ], [ 35.193561939450845, 46.264997550456322 ], [ 35.191909291051395, 46.260988402969573 ], [ 35.189898713256895, 46.257038184842806 ], [ 35.187646352030505, 46.253111943431797 ], [ 35.183074971718611, 46.245626284153893 ], [ 35.178415864581872, 46.238612841623556 ], [ 35.175827026163461, 46.235246890228176 ], [ 35.17265373821715, 46.231661184269676 ], [ 35.169231922957806, 46.22825023467432 ], [ 35.161899967992277, 46.221856271589196 ], [ 35.147627662712601, 46.210777576921053 ], [ 35.138099562889444, 46.202990628806994 ], [ 35.134775717908383, 46.200572489873174 ], [ 35.131250385845654, 46.198340931409788 ], [ 35.127541608246403, 46.196259590773408 ], [ 35.118744248261777, 46.19197864098895 ], [ 35.114137005961751, 46.190042635128691 ], [ 35.105121113756056, 46.186816096757781 ], [ 35.0779835152237, 46.17883993407375 ], [ 35.069173797388096, 46.176715972413426 ], [ 35.051197501107261, 46.173024895637248 ], [ 35.042328890439414, 46.170942058208688 ], [ 35.014686329895746, 46.163191034336641 ], [ 35.005328457692215, 46.160063041700788 ], [ 34.995768416642626, 46.156125698923582 ], [ 34.986715554178666, 46.151610834920042 ], [ 34.98246059496212, 46.149144357653142 ], [ 34.978445807383252, 46.146532471432046 ], [ 34.974740067602312, 46.143706133270427 ], [ 34.969366023372253, 46.137394660360592 ], [ 34.967492100451146, 46.133563996476497 ], [ 34.966180751960643, 46.129361845792054 ], [ 34.965398159746655, 46.124896346733664 ], [ 34.965110042345714, 46.120276172065601 ], [ 34.965282287231361, 46.115609536169579 ], [ 34.965881107003661, 46.111003260815231 ], [ 34.966872687495531, 46.106561789407941 ], [ 34.968222264515248, 46.102386021325067 ], [ 34.969892534926693, 46.098571815956873 ], [ 34.971841280810722, 46.095207990242905 ], [ 34.974018061204816, 46.092373599575296 ], [ 34.976359774677675, 46.090134216162461 ], [ 34.981094056913442, 46.087511271757243 ], [ 34.983154083711135, 46.087054061934957 ], [ 34.984786994922608, 46.087118391577313 ], [ 34.986072558352703, 46.0880362791778 ] ] ] } },
{ "type": "Feature", "properties": { "gid": 4, "objectid": 4.0, "z": 1.5, "index": 0.0, "shape_leng": 0.419032271264, "z1": 0.0 }, "geometry": { "type": "MultiLineString", "coordinates": [ [ [ 36.130000000001019, 46.500000000001819 ], [ 36.128833112227731, 46.500431484499231 ], [ 36.128017658508, 46.501838918558732 ], [ 36.127895691744612, 46.503831821888099 ], [ 36.128659120417232, 46.506695983223807 ], [ 36.130310515352775, 46.510096929025586 ], [ 36.132646373357986, 46.513937722941726 ], [ 36.140794940538242, 46.526085474035668 ], [ 36.143801703487654, 46.529831792376037 ], [ 36.147081919502149, 46.533156589106042 ], [ 36.157696858300959, 46.542206710712378 ], [ 36.16397667975567, 46.548089028854115 ], [ 36.167782602148527, 46.551290511936244 ], [ 36.184132214857392, 46.563884517487615 ], [ 36.188002664119367, 46.567275138137092 ], [ 36.191051350386829, 46.570296072496497 ], [ 36.193869046830237, 46.573455178507039 ], [ 36.196424539076787, 46.576734549750192 ], [ 36.203296803478722, 46.587411499641085 ], [ 36.205641519920064, 46.590719618067006 ], [ 36.21382259693015, 46.600081953104102 ], [ 36.216496499764673, 46.603626485560795 ], [ 36.218548012847606, 46.606982265733279 ], [ 36.223646002154346, 46.617114951067471 ], [ 36.225338890066396, 46.620110723369102 ], [ 36.228854850433137, 46.625125301430735 ], [ 36.230390628339975, 46.627649189834692 ], [ 36.231186762391978, 46.630060997956761 ], [ 36.231002928576736, 46.632090598477326 ], [ 36.229936340291161, 46.633890013808724 ], [ 36.228186687870313, 46.63552778779394 ], [ 36.218209618735422, 46.64241218105272 ], [ 36.208511338975804, 46.647303795071267 ], [ 36.205270712926307, 46.649277686839469 ], [ 36.202370870640564, 46.651517860253236 ], [ 36.199805371667736, 46.653805601776639 ], [ 36.197579934532691, 46.655935880708427 ], [ 36.195902028161413, 46.657911313660371 ], [ 36.1949457065895, 46.659956346385066 ], [ 36.195150368419228, 46.661738612618535 ], [ 36.196512516428527, 46.663193807168213 ], [ 36.198518789960715, 46.664248122048875 ], [ 36.200582204987562, 46.664878374555826 ], [ 36.202246816956738, 46.665056094763322 ] ], [ [ 36.270000000000437, 46.62330887348714 ], [ 36.269932919373581, 46.622787957120025 ], [ 36.26929602339964, 46.62125330391298 ], [ 36.268110267629254, 46.618894765150145 ], [ 36.264398848802401, 46.61241278886741 ], [ 36.262045002158672, 46.60863651826002 ], [ 36.256781751950015, 46.600882241314203 ], [ 36.254046594119025, 46.597255117807357 ], [ 36.251357407024841, 46.594029645460189 ], [ 36.248793737930662, 46.591368376390754 ], [ 36.237875215258136, 46.581971859676557 ], [ 36.230150166039188, 46.574822625907238 ], [ 36.220056775293664, 46.564949871661213 ], [ 36.195031439087664, 46.539958373783762 ], [ 36.184804275370304, 46.530265837995842 ], [ 36.179466478053591, 46.525730919428909 ], [ 36.165062441913584, 46.514905665970112 ], [ 36.162109866565096, 46.512755010257507 ], [ 36.158653040547456, 46.510526335514172 ], [ 36.154577883485928, 46.50823626192031 ], [ 36.150247307989062, 46.506095533921339 ], [ 36.145863859075085, 46.504177531019764 ], [ 36.141629918287116, 46.502554299753882 ], [ 36.137748411917016, 46.501292425481239 ], [ 36.134425260905687, 46.500443401855847 ], [ 36.132102800118467, 46.500039545657557 ], [ 36.130000000001019, 46.500000000001819 ] ] ] } },
{ "type": "Feature", "properties": { "gid": 5, "objectid": 5.0, "z": 1.5, "index": 0.0, "shape_leng": 0.24273899031099999, "z1": 0.0 }, "geometry": { "type": "MultiLineString", "coordinates": [ [ [ 36.437526138230304, 45.440412310295727 ], [ 36.402198361145757, 45.446060074302153 ], [ 36.393329623258538, 45.447798826389743 ], [ 36.388144560432089, 45.449183685949762 ], [ 36.385931325340422, 45.450000656254865 ], [ 36.384079139684225, 45.450940649224599 ], [ 36.378242564568062, 45.45513623224069 ], [ 36.372023128685491, 45.458770489219077 ], [ 36.357631995358354, 45.466274095904957 ], [ 36.350102940352691, 45.469831230930907 ], [ 36.345021485133557, 45.471950221026631 ], [ 36.339878939770841, 45.473670971435119 ], [ 36.337088751855212, 45.474354666848072 ], [ 36.321246752166502, 45.477021370353384 ], [ 36.314508619309073, 45.477362007962085 ], [ 36.306848482862492, 45.477248353809173 ], [ 36.299514681878932, 45.476792819778957 ], [ 36.293744254447972, 45.476110607226516 ], [ 36.291825674393877, 45.475739287734072 ], [ 36.290560184894673, 45.475280092447264 ] ], [ [ 36.281219227940163, 45.475000000000364 ], [ 36.279364662316212, 45.474768201343736 ], [ 36.274298129290798, 45.47344833452992 ], [ 36.268515296407728, 45.472691420883983 ], [ 36.261682236363804, 45.472504540289059 ], [ 36.236671211067382, 45.472499760734593 ], [ 36.231699192837837, 45.472252118388717 ], [ 36.228362869541499, 45.471849206969907 ], [ 36.219986533558071, 45.470094624938056 ], [ 36.207873096348109, 45.466949969416056 ], [ 36.199514279070307, 45.464130975013518 ], [ 36.196470082567664, 45.462802281699979 ], [ 36.194632779504261, 45.461779667703979 ] ] ] } },
{ "type": "Feature", "properties": { "gid": 3, "objectid": 3.0, "z": 1.5, "index": 0.0, "shape_leng": 3.67827561012, "z1": 0.0 }, "geometry": { "type": "MultiLineString", "coordinates": [ [ [ 37.996307699099305, 46.355000000001382 ], [ 37.999736477399424, 46.354935928207084 ], [ 38.039348913400957, 46.355866217448636 ], [ 38.065890455597533, 46.355993907731502 ], [ 38.084397925169839, 46.355532212477875 ], [ 38.094808401743833, 46.354821434483732 ], [ 38.099322642923113, 46.354315968853044 ], [ 38.107944336552883, 46.352929931897698 ], [ 38.112028754441631, 46.352009198405888 ], [ 38.115930996550333, 46.350905229890877 ], [ 38.119647240355867, 46.349614021047053 ], [ 38.130420645283465, 46.345355315175638 ], [ 38.137270870226352, 46.342173013731276 ], [ 38.149919629536519, 46.334714434481732 ], [ 38.152947822860547, 46.332703410861797 ], [ 38.155832851092249, 46.330542667638255 ], [ 38.161125106850641, 46.325719556124859 ], [ 38.166220010855881, 46.320658888122374 ], [ 38.171501939093254, 46.315732404856703 ], [ 38.176607183438882, 46.310560326978901 ], [ 38.181152256547279, 46.304738988586621 ], [ 38.189742759354139, 46.292224412026592 ], [ 38.191986242058171, 46.28846353805023 ], [ 38.193978800566683, 46.284453945935844 ], [ 38.195480260325851, 46.280628883605516 ], [ 38.19673338928505, 46.276600255329875 ], [ 38.197772124388955, 46.272399196044596 ], [ 38.198625682437495, 46.268053222219969 ], [ 38.199318952809449, 46.26358668445453 ], [ 38.200304665692975, 46.254376061127154 ], [ 38.200854464317693, 46.244914688896536 ], [ 38.201042955012475, 46.235324708579157 ], [ 38.20089937162183, 46.225714021456106 ], [ 38.200409845596397, 46.216186483519493 ], [ 38.199516750171064, 46.206851725223544 ], [ 38.198888082738513, 46.202294893006929 ], [ 38.197176545011061, 46.193491789314585 ], [ 38.196046764658149, 46.189287318735467 ], [ 38.194696271686702, 46.185246231897217 ], [ 38.192911344241111, 46.18093812526012 ], [ 38.187233560838649, 46.169590559353452 ], [ 38.180452440497859, 46.1544961358763 ], [ 38.176790941939856, 46.146999110916006 ], [ 38.174712155296497, 46.14339348930784 ], [ 38.172125809180358, 46.139524442878361 ], [ 38.166367810607269, 46.132177002897599 ], [ 38.160628988823071, 46.125476643664086 ], [ 38.154567349509342, 46.119120281726993 ], [ 38.151172584607707, 46.115969234966322 ], [ 38.135660209094176, 46.102326451200142 ], [ 38.131858083134979, 46.099466247774274 ], [ 38.127828996783613, 46.09676717260519 ], [ 38.123605625251457, 46.094226078293111 ], [ 38.119216165177065, 46.09184434555403 ], [ 38.11468481139179, 46.089628030479126 ], [ 38.110032224461833, 46.087588023615169 ], [ 38.101435922469349, 46.084327517852337 ], [ 38.030254320024397, 46.058328426393714 ], [ 38.023896526114171, 46.055651270592456 ], [ 38.021541919121908, 46.054340037706638 ], [ 38.020162520807887, 46.053216863723243 ], [ 38.019806807214664, 46.052427782178057 ], [ 38.020000000002312, 46.052076709102948 ] ], [ [ 37.980000000001382, 46.359074769388201 ], [ 37.979996410862512, 46.356067486006353 ], [ 37.980323684628985, 46.355323684628985 ], [ 37.980788489072253, 46.355098833899696 ], [ 37.982376856395106, 46.354963063291152 ], [ 37.993507522286222, 46.355000000001382 ] ], [ [ 37.959999999997308, 46.369987064599968 ], [ 37.959964696708006, 46.3660981204861 ], [ 37.960220500551586, 46.365220500557754 ], [ 37.96134687245425, 46.364965445612228 ], [ 37.966676896430215, 46.365000000003477 ] ], [ [ 37.940000000000566, 46.384925336133165 ], [ 37.939895449974486, 46.377678871598093 ], [ 37.940156527943728, 46.376276756847574 ], [ 37.940580443735868, 46.375592747821933 ], [ 37.941358040830572, 46.375198129257605 ], [ 37.942356839452017, 46.375025539982929 ], [ 37.948177140625987, 46.374919758778674 ], [ 37.95049162206255, 46.374555448658008 ], [ 37.953319346501559, 46.373393642095273 ], [ 37.959947611608243, 46.370026194198886 ] ], [ [ 37.880000000002838, 46.437070290271947 ], [ 37.879782943280638, 46.430291367372739 ], [ 37.879956638742641, 46.425456839315281 ], [ 37.880424630230422, 46.422778518549656 ], [ 37.881333475029116, 46.420821963121924 ], [ 37.882102911776585, 46.419899501320394 ], [ 37.884065184099931, 46.418315971637739 ], [ 37.894749730200679, 46.412325976212763 ], [ 37.896829445705194, 46.410808466909955 ], [ 37.897718118062024, 46.409955373750023 ], [ 37.898974369395866, 46.40807341958989 ], [ 37.901005773402339, 46.401793125418628 ], [ 37.902217739921682, 46.399892837986314 ], [ 37.903083839589087, 46.399038571461801 ], [ 37.905132832682604, 46.397564633919352 ], [ 37.908692636906494, 46.395882080926462 ], [ 37.911398617061053, 46.395283507873692 ], [ 37.912949079751705, 46.395270199116688 ], [ 37.916039874115974, 46.395797777070939 ], [ 37.917402318108351, 46.396313203275596 ], [ 37.918531903680233, 46.396975011088308 ], [ 37.919360624516216, 46.39775373987645 ], [ 37.919805213205038, 46.398459335261506 ], [ 37.920039150080015, 46.39911040061034 ], [ 37.920000000003824, 46.399863607666532 ] ], [ [ 38.121046185257342, 46.685261546317292 ], [ 38.117114954410084, 46.685178797356436 ], [ 38.112400856505523, 46.684738449233173 ], [ 38.106991731749247, 46.683714783346176 ], [ 38.104308969432914, 46.682899548350989 ], [ 38.101766580724096, 46.681860487276793 ], [ 38.09206462341313, 46.677140316635949 ], [ 38.083829011013059, 46.673699434104648 ], [ 38.081983843259763, 46.672759091318596 ], [ 38.076483608234106, 46.669334240147563 ], [ 38.074346083915515, 46.668171238969151 ], [ 38.069884704144989, 46.666079889655116 ], [ 38.063885436837644, 46.663645049214765 ], [ 38.062013490653371, 46.662736385400486 ], [ 38.05635778083073, 46.659505978480063 ], [ 38.054121108956394, 46.65846249576537 ], [ 38.051772020383787, 46.657536449270474 ], [ 38.047055844557228, 46.656206062464669 ], [ 38.032750440374414, 46.653980696877795 ], [ 38.027728379636336, 46.652764848958327 ], [ 38.025127139094572, 46.651913574572312 ], [ 38.020019381119383, 46.649899421040395 ], [ 38.012652066995074, 46.646317510632663 ], [ 38.010258960720613, 46.644839715366224 ], [ 38.007879527224205, 46.642966812603674 ], [ 38.005646948904506, 46.640744679261573 ], [ 38.003692798152755, 46.638221449806785 ], [ 38.002138301626502, 46.635451174452285 ], [ 38.000959521187625, 46.632195201471966 ], [ 38.000266344376271, 46.628972700411495 ], [ 37.999936643618256, 46.626034489929566 ], [ 37.999855424059724, 46.623627474660715 ], [ 37.999999999998295, 46.621389165589164 ] ], [ [ 36.680000000000291, 46.773343042750582 ], [ 36.680034322249981, 46.772833563338992 ], [ 36.681007076035741, 46.772020585974118 ], [ 36.68287205395184, 46.77103197826078 ], [ 36.685513165797502, 46.769957202696503 ], [ 36.691767744603496, 46.768024325203733 ], [ 36.707101904076701, 46.763925253046402 ], [ 36.711295696497153, 46.762575448419902 ], [ 36.715173980692803, 46.761165896641238 ], [ 36.725167944831192, 46.757104319000049 ], [ 36.735906660627172, 46.753507480093702 ], [ 36.73843443925287, 46.752409662283945 ], [ 36.742033363028774, 46.750480069841409 ], [ 36.752360970976433, 46.744512175539739 ], [ 36.75450561646192, 46.743046198423656 ], [ 36.756439728091394, 46.741421268880586 ], [ 36.758880782917601, 46.738598750273241 ], [ 36.763066318723233, 46.732446808991362 ], [ 36.765364956613446, 46.729650163509156 ], [ 36.76712854142378, 46.728044225319991 ], [ 36.772812966127859, 46.723800345648776 ], [ 36.774519824659116, 46.722287016859973 ], [ 36.775958777601375, 46.720573505436072 ], [ 36.776802857339419, 46.719109811623369 ], [ 36.777448387263092, 46.717507825057922 ], [ 36.777910431687552, 46.715795487426369 ], [ 36.778199574211527, 46.713998738524772 ], [ 36.778279293791357, 46.710248401326467 ], [ 36.777682972361816, 46.706441148582634 ], [ 36.777109667972042, 46.704572455975615 ], [ 36.776331595628982, 46.702757906327285 ], [ 36.774779544407174, 46.700183025612638 ], [ 36.772855575422874, 46.697726995965482 ], [ 36.76364148021149, 46.688009740816412 ], [ 36.760999725098216, 46.684773476980219 ], [ 36.758487529097955, 46.681316427975659 ], [ 36.753344745980527, 46.673137295784137 ], [ 36.746815503749332, 46.66211327629707 ], [ 36.745467450570573, 46.659564726518411 ], [ 36.744502024875118, 46.657163346308266 ], [ 36.744072823920504, 46.655459092094873 ], [ 36.743882049448473, 46.653884012838191 ], [ 36.743902541723941, 46.65249044168884 ], [ 36.744104435338116, 46.651327854746171 ], [ 36.744667914297239, 46.650093169103819 ], [ 36.745396417003917, 46.649603583000157 ] ], [ [ 37.742988899790021, 47.075000000004479 ], [ 37.748340312019579, 47.075032180103996 ], [ 37.760057409643487, 47.0756609669263 ], [ 37.797923932409979, 47.078477992754841 ], [ 37.806334282460945, 47.07880933690182 ], [ 37.814485907466313, 47.078802022634193 ], [ 37.82016295227438, 47.078553074853609 ], [ 37.846243596913524, 47.07671721899677 ], [ 37.879617594723207, 47.075035322790164 ], [ 37.893644141054025, 47.074006248043816 ], [ 37.902706039686358, 47.073010277586818 ], [ 37.91142025776756, 47.071637933266231 ], [ 37.915609440714725, 47.070768515194281 ], [ 37.923746980872544, 47.068746173573651 ], [ 37.949356814136664, 47.063268896785964 ], [ 37.957962977420962, 47.061164267220605 ], [ 37.971929421881164, 47.057251009538575 ], [ 37.989878483054156, 47.052648241208082 ], [ 38.010093745668385, 47.047056222239675 ], [ 38.027989579674667, 47.042457516593757 ], [ 38.036622817191812, 47.039955793753577 ], [ 38.054453740180236, 47.034118024742142 ], [ 38.067636928958137, 47.030187094600493 ], [ 38.072512107919223, 47.02903687606377 ], [ 38.081455437417667, 47.027522308089686 ], [ 38.090588568961245, 47.026628406916288 ], [ 38.099800668888797, 47.026275460425673 ], [ 38.108985961237778, 47.026434733043374 ], [ 38.118036831517706, 47.027127806584744 ], [ 38.1268369398258, 47.028427933791363 ], [ 38.135254520332843, 47.030463362611592 ], [ 38.139295447112723, 47.031790598967227 ], [ 38.151574688780777, 47.036285644679332 ], [ 38.180724970272138, 47.047879932501367 ], [ 38.19082917610271, 47.051572118083612 ], [ 38.209257573267884, 47.057530207082095 ], [ 38.235103995839488, 47.066354416288334 ], [ 38.245541389849244, 47.069584925630593 ], [ 38.250809210252015, 47.07100303640857 ], [ 38.25555571928583, 47.072127764232889 ], [ 38.265126238568783, 47.074055533634301 ], [ 38.28921593922442, 47.078192338061669 ], [ 38.305328873831364, 47.081158125903251 ], [ 38.310727270047487, 47.082027415373766 ], [ 38.320464229170874, 47.083237553430209 ], [ 38.330285937290739, 47.084077658045956 ], [ 38.340168007750606, 47.084644808745395 ], [ 38.350090961605865, 47.085011683850091 ], [ 38.369997942166755, 47.085338429337313 ], [ 38.394860164052574, 47.085234917727661 ], [ 38.414590122971745, 47.084761893534363 ], [ 38.429184030021553, 47.084071785137809 ], [ 38.443481085533882, 47.082926307656805 ], [ 38.457318819313059, 47.081083613642363 ], [ 38.466878043008435, 47.079376436679212 ], [ 38.476662531063504, 47.077894398421989 ], [ 38.486120854037445, 47.076867286566625 ], [ 38.500597870693142, 47.075832209322023 ], [ 38.520244024487369, 47.075065477465905 ], [ 38.550051176083365, 47.074634135824923 ], [ 38.579867495424004, 47.074781659468883 ], [ 38.599524906349416, 47.075357682436746 ], [ 38.609212511236564, 47.075901723576649 ], [ 38.618755576635159, 47.076704853647897 ], [ 38.628102546166033, 47.077861825012938 ], [ 38.637187857129035, 47.079496298987003 ], [ 38.670029248191575, 47.087259486460162 ], [ 38.690838054567472, 47.092618558448251 ], [ 38.700277358486836, 47.09478459786164 ], [ 38.725730472246113, 47.100311385719237 ], [ 38.731096327834969, 47.101293337400342 ], [ 38.740787269556094, 47.102655913759584 ], [ 38.750568888270912, 47.103594578000518 ], [ 38.760404503586685, 47.104214369347204 ], [ 38.775185157558674, 47.104710208362931 ], [ 38.789893842151486, 47.104830198524382 ], [ 38.804390386647171, 47.104658796111913 ], [ 38.818485376011111, 47.104212315945283 ], [ 38.831909463822662, 47.103451534026135 ], [ 38.844459472740745, 47.102472400136698 ], [ 38.848669000319504, 47.102385539190685 ], [ 38.852956816288952, 47.102513853365757 ], [ 38.862760777997266, 47.103486193307475 ], [ 38.906620600800736, 47.110007421208863 ], [ 38.911669971433888, 47.110511348263302 ], [ 38.916141060553933, 47.110755187839189 ], [ 38.920548027306722, 47.110791038472883 ], [ 38.929064996957237, 47.110214761667066 ], [ 38.933115728081603, 47.109579735002846 ], [ 38.936982767418328, 47.108690517385185 ], [ 38.940649658658167, 47.107546347574861 ], [ 38.944185545431523, 47.106231686431585 ], [ 38.951032145423802, 47.103320375740125 ], [ 38.954632434686914, 47.101482201819032 ], [ 38.957984836932646, 47.099495976856254 ], [ 38.963272276486862, 47.09571888344837 ], [ 38.965540042414688, 47.093751575587852 ], [ 38.967454365966873, 47.09167192330581 ], [ 38.968922678082997, 47.089426232579335 ], [ 38.969865558286024, 47.086980088188085 ], [ 38.970283279388781, 47.084385617335357 ], [ 38.970188161902698, 47.081714593783062 ], [ 38.969504878037114, 47.078706180087444 ], [ 38.968339983703977, 47.075680917514326 ], [ 38.967010268813851, 47.072942618607307 ], [ 38.960503452437813, 47.060985522745725 ], [ 38.958539895819683, 47.057911265139019 ], [ 38.956353166124025, 47.054923378568631 ], [ 38.953888691149125, 47.052084445637874 ], [ 38.948057448256407, 47.046934942846846 ], [ 38.940540440308695, 47.041650677845418 ], [ 38.932428178580423, 47.036747495041908 ], [ 38.917528061025955, 47.028525772100252 ], [ 38.90963826051852, 47.024763856241769 ], [ 38.895693338949151, 47.018840595116892 ], [ 38.878142970458285, 47.012338871730947 ], [ 38.868393621053492, 47.009193671517309 ], [ 38.859431176730695, 47.006810293824969 ], [ 38.84589357712656, 47.003473345220542 ], [ 38.837047378725046, 47.000961210596721 ], [ 38.832744293880573, 46.999497991049296 ], [ 38.828064803440924, 46.997640843681012 ], [ 38.823544655339219, 46.995554759626444 ], [ 38.819205952320345, 46.993251940631644 ], [ 38.815075117850512, 46.990739678853203 ], [ 38.811183383939102, 46.988020477193956 ], [ 38.80756728426713, 46.985092168776937 ], [ 38.804580791634514, 46.982302904421211 ], [ 38.793169568627341, 46.970395775384333 ], [ 38.784413936966132, 46.961956253715883 ], [ 38.77644483301102, 46.95381302283014 ], [ 38.773651721673083, 46.951271140855724 ], [ 38.770677660651984, 46.948908249571303 ], [ 38.767550682010253, 46.946684496144321 ], [ 38.753880419873965, 46.937918743036171 ], [ 38.735686454154425, 46.92750308736445 ], [ 38.728013686584099, 46.92367198275398 ], [ 38.718906424137764, 46.91951433803645 ], [ 38.709391577798343, 46.915526308571941 ], [ 38.704510414141886, 46.913646180149762 ], [ 38.694536887863471, 46.910235482147918 ], [ 38.689452463522017, 46.908762991476237 ], [ 38.680218364130695, 46.90657333700787 ], [ 38.652318285688921, 46.901494519314809 ], [ 38.637690485554003, 46.898635271115509 ], [ 38.628517933280506, 46.897283549935494 ], [ 38.619092183016768, 46.896362652352487 ], [ 38.609478089968377, 46.89575937043363 ], [ 38.599725665973395, 46.895387128146815 ], [ 38.584917968963659, 46.895123547945389 ], [ 38.569972117579788, 46.895080686618151 ], [ 38.519754675489118, 46.895388827032676 ], [ 38.499663697819564, 46.895259876287085 ], [ 38.489655381760507, 46.895005307082975 ], [ 38.4796939676405, 46.894541477072366 ], [ 38.469804226698713, 46.893778510616251 ], [ 38.460020372174817, 46.892595762058257 ], [ 38.450389127083085, 46.890833281045843 ], [ 38.44509088472212, 46.889534096642528 ], [ 38.434672017685777, 46.886355758815448 ], [ 38.429544701834743, 46.884542230173672 ], [ 38.419452933197078, 46.880598599775382 ], [ 38.409602110186924, 46.876368256732249 ], [ 38.400055796682928, 46.871974399287637 ], [ 38.390925272428319, 46.86750327795297 ], [ 38.383268404585003, 46.863402833634183 ], [ 38.379703696101345, 46.861199664837258 ], [ 38.376369325568888, 46.858811803662626 ], [ 38.372968349664617, 46.855855566075753 ], [ 38.36996675607535, 46.852570465236575 ], [ 38.367650774899239, 46.849348165497055 ], [ 38.365633474630592, 46.845899423879153 ], [ 38.363849684119145, 46.842274469421589 ], [ 38.362238441857727, 46.838520320880114 ], [ 38.356391936646268, 46.82308215090427 ], [ 38.35480749750873, 46.81932782328834 ], [ 38.353063245247093, 46.815701191504772 ], [ 38.351100284360065, 46.81224778932048 ], [ 38.346445793297782, 46.805875222099111 ], [ 38.340546888665131, 46.799090235136944 ], [ 38.334928087341616, 46.793168709740179 ], [ 38.331515439355996, 46.790029117326405 ], [ 38.327911969915959, 46.787026419389591 ], [ 38.320326794779248, 46.78136886555555 ], [ 38.316825979325102, 46.778981075364428 ], [ 38.309505024897362, 46.774537060934456 ], [ 38.292580664604458, 46.765049222051651 ], [ 38.285233893499829, 46.760833365971656 ], [ 38.281711955543948, 46.758618692586161 ], [ 38.267164902840534, 46.749291640102619 ], [ 38.25230670284499, 46.738707762801134 ], [ 38.243884071806718, 46.733256896785917 ], [ 38.230650775176912, 46.725421332634511 ], [ 38.217153462921409, 46.718079058255753 ], [ 38.20696889310846, 46.713390857212275 ], [ 38.194197048021415, 46.708024917178207 ], [ 38.180766866388922, 46.702817044018204 ], [ 38.17405864977593, 46.700395029739596 ], [ 38.159768382448007, 46.695698770434831 ], [ 38.152630332474956, 46.693587099730252 ], [ 38.133167248256484, 46.688291812067973 ] ], [ [ 36.505169258479782, 46.751009345110333 ], [ 36.523790548620596, 46.754029981942288 ], [ 36.528974414897448, 46.754734908998387 ], [ 36.534003648061308, 46.75498742680513 ], [ 36.545991862577281, 46.755044290198732 ], [ 36.549032011980188, 46.755321394004511 ], [ 36.552541177586328, 46.756380077495066 ], [ 36.557713023996257, 46.758856512000136 ] ], [ [ 36.611051499932046, 46.772762874983414 ], [ 36.618174447840154, 46.774497571904696 ], [ 36.62167517979227, 46.774930847003013 ], [ 36.656072111460617, 46.775000000001455 ] ], [ [ 37.260000000000218, 46.932781009969176 ], [ 37.259895102777755, 46.931915402144007 ], [ 37.260449484308388, 46.929904697185272 ], [ 37.26113145247092, 46.92881096196416 ], [ 37.262151389881126, 46.927830853547093 ], [ 37.263473795194216, 46.927007193825993 ], [ 37.266709545975303, 46.925826049865002 ], [ 37.274516253730702, 46.92451625373122 ], [ 37.276978626934145, 46.923645293601275 ], [ 37.277971305763096, 46.922971305763532 ], [ 37.278766254177995, 46.922099587511468 ], [ 37.281317396920926, 46.917984063586445 ], [ 37.282152647972794, 46.917152647971307 ], [ 37.283191191790635, 46.916524525122135 ], [ 37.285735054106475, 46.915735054103941 ], [ 37.294499426885928, 46.914499426884056 ], [ 37.296970499041514, 46.913637165707449 ], [ 37.297938780475171, 46.91293878047501 ], [ 37.298667240325166, 46.912000573657984 ], [ 37.299572820728855, 46.909572820727618 ], [ 37.300041525573661, 46.90670819224205 ], [ 37.300502676237798, 46.902169342903306 ], [ 37.30100615969009, 46.899339493022218 ], [ 37.301460649745714, 46.898095948456465 ], [ 37.302300303302822, 46.897022658477994 ], [ 37.303570872615516, 46.896200502489378 ], [ 37.305180481515343, 46.895615927561181 ], [ 37.307010489323957, 46.895228616251757 ], [ 37.310863404360262, 46.894890780128712 ], [ 37.31638050576646, 46.895000000004188 ] ], [ [ 37.192104712666378, 46.92500000000291 ], [ 37.198595547992554, 46.924968945222979 ], [ 37.199631323388957, 46.925129425483284 ], [ 37.19987580418438, 46.925358285800492 ], [ 37.200025620186338, 46.92591073974242 ], [ 37.200000000000671, 46.9292136196662 ] ], [ [ 37.202771990683175, 46.930692997673702 ], [ 37.216080820832715, 46.934051374125623 ], [ 37.22002284602798, 46.934814419294256 ], [ 37.224611883112054, 46.935028443082132 ], [ 37.242666761114776, 46.934999999997729 ] ], [ [ 37.508487786200988, 47.054344707354005 ], [ 37.509629617612376, 47.054863909163679 ], [ 37.513666047745915, 47.055659220460782 ], [ 37.520449681730888, 47.056215339379939 ], [ 37.527164403670028, 47.057281460493428 ], [ 37.531027547828337, 47.0582590495601 ], [ 37.534739505632047, 47.059436008163786 ], [ 37.542070169312055, 47.062224373610952 ], [ 37.544780448514523, 47.062987081778211 ], [ 37.547652974819115, 47.06355492120656 ], [ 37.550649116976558, 47.063974928291955 ], [ 37.556896074055679, 47.064517244096699 ], [ 37.576455899042031, 47.065483536736245 ], [ 37.582983141588265, 47.066092676739189 ], [ 37.58621443134394, 47.066548956586516 ], [ 37.592945001134041, 47.068007519068836 ], [ 37.606900054111975, 47.072165634797422 ], [ 37.610429158636464, 47.073027850077175 ], [ 37.616855491624044, 47.074083328674959 ], [ 37.626680872352985, 47.074864232696974 ], [ 37.639946574724171, 47.07518492071393 ], [ 37.703626870067069, 47.075000000004479 ] ] ] } }
]
}
