{
"type": "FeatureCollection",
"name": "esr_02_50_iso_ws",
"crs": { "type": "name", "properties": { "name": "urn:ogc:def:crs:OGC:1.3:CRS84" } },
"features": [
{ "type": "Feature", "properties": { "gid": 1, "objectid": 41.0, "z": 0.5, "shape_leng": 14.9237086679 }, "geometry": { "type": "MultiLineString", "coordinates": [ [ [ 37.889178285462833, 64.923147254184073 ], [ 37.913369522007997, 64.928181949391842 ], [ 37.924540361971651, 64.924585085347701 ], [ 38.009028571133967, 64.905555408549958 ], [ 38.015046796921581, 64.904445344451176 ], [ 38.021836723914134, 64.902452127178549 ], [ 38.119618376135008, 64.88078977126861 ], [ 38.138605275729788, 64.877037744838276 ], [ 38.203866084018898, 64.885046400726424 ], [ 38.230023755080822, 64.876748776907448 ], [ 38.239693144292801, 64.879909668292498 ], [ 38.32572570984496, 64.873179874586754 ], [ 38.334006880700997, 64.868632115918388 ], [ 38.348776589118756, 64.872165738677779 ], [ 38.4111440639536, 64.877418805190246 ], [ 38.44526744018367, 64.869831154428653 ], [ 38.492366274353174, 64.862120153964554 ], [ 38.555678597098506, 64.849156471580443 ], [ 38.587073340866596, 64.834281772433371 ], [ 38.637728647139738, 64.825487156849704 ], [ 38.677149028415386, 64.824118386328394 ], [ 38.698198553771419, 64.799390345462598 ], [ 38.702287509804705, 64.799345464634825 ], [ 38.706615281553354, 64.79787556204252 ], [ 38.798906772615794, 64.780804134061384 ], [ 38.805517862711099, 64.780494694961817 ], [ 38.899533842966775, 64.768280819829727 ], [ 38.90849598633946, 64.766201036371001 ], [ 38.991967999230837, 64.752572799319807 ], [ 39.001346352466555, 64.750323159358175 ], [ 39.072557781808484, 64.728777857468231 ], [ 39.076603771434804, 64.727035171978116 ], [ 39.137042194168373, 64.709317828965141 ], [ 39.15775665295962, 64.706202066489027 ], [ 39.165654360112967, 64.704779760635631 ], [ 39.23151506998704, 64.703016134124539 ], [ 39.269439336683831, 64.697878718463471 ], [ 39.285889851686136, 64.704527679365128 ], [ 39.317021800423447, 64.697636101613284 ], [ 39.357440183550466, 64.705312026489992 ], [ 39.379827366865413, 64.698632137544337 ], [ 39.391591181993135, 64.69620557103201 ], [ 39.42800835243554, 64.690081570253881 ], [ 39.462266337053734, 64.688830005543537 ], [ 39.479069587643608, 64.690830452978958 ], [ 39.550359303568257, 64.700635895031212 ], [ 39.569109415373646, 64.703092834664858 ], [ 39.618107383444965, 64.710356450785127 ], [ 39.631190674787035, 64.713044710646614 ], [ 39.661117921394123, 64.718949815229337 ], [ 39.708884996274719, 64.722416019605703 ], [ 39.720012758480266, 64.727413229993545 ], [ 39.720324485213609, 64.729156805027799 ], [ 39.774606502527718, 64.763907244880215 ], [ 39.795826754474604, 64.755606095684982 ], [ 39.826056826888816, 64.768859977339218 ], [ 39.86496426996024, 64.785518229327863 ], [ 39.881170917491602, 64.802377563508344 ], [ 39.950855565693985, 64.829648443716053 ], [ 39.952684510921245, 64.830091277413942 ], [ 39.956122324598368, 64.831487334900999 ], [ 39.993113923497788, 64.868403822401888 ], [ 40.006599513304593, 64.887997691708847 ], [ 40.023722395053483, 64.916060625662908 ], [ 40.034753336716733, 64.92335619548976 ], [ 40.092196164114398, 64.984471400326697 ], [ 40.095955492157373, 64.990798090119029 ], [ 40.071811673595164, 65.034429392966672 ], [ 40.067463347106241, 65.040514236810907 ], [ 40.028029819222866, 65.07834036831639 ], [ 40.007023145502899, 65.085800240747631 ], [ 39.969222516243406, 65.115482345310852 ], [ 39.96242539800005, 65.128078282141473 ], [ 39.954545398170012, 65.156781156169075 ], [ 39.941939087555568, 65.189209424192086 ], [ 39.930528637865734, 65.197252871832461 ], [ 39.879899204665037, 65.219423057467907 ], [ 39.842977997061098, 65.260256604407914 ], [ 39.834114995115726, 65.268945032381396 ], [ 39.78648867968883, 65.271988832551926 ], [ 39.758632260651268, 65.292638553277413 ], [ 39.729921719015749, 65.305633699899886 ], [ 39.696139630381367, 65.329459973378164 ], [ 39.681287500105157, 65.352932445370357 ], [ 39.672975477631667, 65.377601638523686 ], [ 39.6671216913237, 65.397875628114093 ], [ 39.702366907033252, 65.425589654463693 ], [ 39.711287258542256, 65.465098745626278 ], [ 39.718824300536653, 65.501356522843651 ], [ 39.698952560414966, 65.528829518225393 ], [ 39.714689347878505, 65.545858101060787 ], [ 39.735749191531852, 65.571435076097373 ], [ 39.757906631581193, 65.588025459816095 ], [ 39.790216983558025, 65.604057839722429 ], [ 39.973791156226184, 65.661509661513378 ], [ 40.009845787993982, 65.672230577154494 ], [ 40.066538469298507, 65.684908324212358 ], [ 40.102514584024902, 65.696636828361193 ], [ 40.142339654790646, 65.71426634921238 ], [ 40.185730471246643, 65.732621052098636 ], [ 40.250570654505339, 65.739723683756949 ], [ 40.260854853142519, 65.743962152555468 ], [ 40.297819380240981, 65.778021232341473 ], [ 40.358873388162465, 65.798727486093412 ], [ 40.398273706072416, 65.80136638619291 ], [ 40.432890105454248, 65.821573028064506 ], [ 40.45488067143026, 65.844595450937163 ], [ 40.492035131697776, 65.870491687441302 ], [ 40.510732909839192, 65.884279401507229 ], [ 40.546369123680051, 65.91084403336572 ], [ 40.564422157391334, 65.969634204548356 ], [ 40.60963191650211, 66.010085041647471 ], [ 40.673877363659528, 66.07670994981072 ], [ 40.666738980642037, 66.174267851049763 ], [ 40.573940001414655, 66.255169525247993 ], [ 40.459725873134801, 66.300379284358769 ], [ 40.308518519959875, 66.310711460522839 ], [ 40.285318089081557, 66.303466858822617 ], [ 40.199305929127149, 66.277792033914011 ], [ 40.194162779284056, 66.276376202280574 ], [ 40.177493014925858, 66.272723698188315 ], [ 40.108924804764683, 66.250893465854517 ], [ 40.104081059806163, 66.248766816934221 ], [ 40.029496843562924, 66.226172191498392 ], [ 40.017606261826586, 66.222302891852507 ], [ 39.923739331381626, 66.209171248498137 ], [ 39.909902399886107, 66.2069801689359 ], [ 39.82905424885405, 66.188843109222944 ], [ 39.80938093242014, 66.184344551118613 ], [ 39.725579871112132, 66.175813256064373 ], [ 39.704387191042827, 66.173158381469023 ], [ 39.613986345328215, 66.161856413164173 ], [ 39.593697606527712, 66.159743158888944 ], [ 39.502830384037338, 66.153239017454439 ], [ 39.475099294330107, 66.150356574449802 ], [ 39.397921732044779, 66.138669170424805 ], [ 39.364647363865572, 66.131654443728735 ], [ 39.328730862223949, 66.126352975436134 ], [ 39.260702110448676, 66.115546576053134 ], [ 39.224893303297051, 66.105103500973257 ], [ 39.161645273081376, 66.094968273668201 ], [ 39.117417260247748, 66.088797024887754 ], [ 39.054284887839515, 66.083837476544545 ], [ 39.003452893870417, 66.085011192641105 ], [ 38.944590197963407, 66.080895560429894 ], [ 38.886085422491419, 66.079059765572424 ], [ 38.795805134388502, 66.060105236683739 ], [ 38.743211551685874, 66.051089159343917 ], [ 38.685158812775626, 66.048403502209226 ], [ 38.625684698956434, 66.04647588077944 ], [ 38.546449353248988, 66.056825537962254 ], [ 38.455558883128106, 66.040604448047816 ], [ 38.400939058672634, 66.040233283536566 ], [ 38.334824936784685, 66.056059097201796 ], [ 38.292390863498554, 66.058162677174607 ], [ 38.226791727240254, 66.051441975214516 ], [ 38.122176204226037, 66.059392643583124 ], [ 38.073188675931362, 66.062758854357639 ], [ 38.00892186838621, 66.066928709508034 ], [ 37.966094887422457, 66.069493802337206 ], [ 37.901856604381464, 66.071909002988946 ], [ 37.850149388818011, 66.076077317062413 ], [ 37.631323765992533, 66.100561219223948 ], [ 37.583959440307865, 66.111170867327132 ], [ 37.530454376756211, 66.122605859622183 ], [ 37.489596849336579, 66.134706887139998 ], [ 37.434405422856912, 66.148224027216258 ], [ 37.397168056617488, 66.160973821184541 ], [ 37.340287932820502, 66.173672545061095 ], [ 37.300087197232642, 66.186072635027813 ], [ 37.244703255695697, 66.196062921590112 ], [ 37.199566155395644, 66.202419266585025 ], [ 37.139203486542101, 66.214559636588149 ], [ 37.105935961750276, 66.218612936267164 ], [ 37.033486426764398, 66.224225625992403 ], [ 37.000726343350891, 66.22763997157756 ], [ 36.921090168209162, 66.235434178757828 ], [ 36.889899195681323, 66.238798024816788 ], [ 36.77021769735444, 66.247424153276484 ], [ 36.739116339507802, 66.249071797821728 ], [ 36.64996001179685, 66.249987235569392 ], [ 36.618029093937366, 66.248524036447691 ], [ 36.534140534407925, 66.250870708841887 ], [ 36.496387082574131, 66.257429323071904 ], [ 36.424492786652934, 66.262954185862441 ], [ 36.391800538112989, 66.264191877940846 ], [ 36.311738299264107, 66.272810436858094 ], [ 36.268798131393964, 66.287327543017568 ], [ 36.21061791761889, 66.294012959639133 ], [ 36.172352020774326, 66.292709888381125 ], [ 36.094614704794367, 66.301207167387588 ], [ 36.066027619555825, 66.301080039847989 ], [ 35.979614828509568, 66.310300530676614 ], [ 35.955607940952177, 66.314298568497236 ], [ 35.870712809730435, 66.322926997439936 ], [ 35.841041559222447, 66.327695301457538 ], [ 35.762125575420328, 66.33450726087915 ], [ 35.730332970968504, 66.338185807588161 ], [ 35.650615709833914, 66.345862120302684 ], [ 35.623619268095467, 66.345348968097881 ], [ 35.533551092463426, 66.355451539624596 ], [ 35.515557715378236, 66.358301067710272 ], [ 35.426239374195632, 66.373492832732211 ], [ 35.414600879725242, 66.376460308514652 ], [ 35.326149443528379, 66.398386669126978 ], [ 35.322756855734042, 66.399897859213638 ], [ 35.274679641748605, 66.412167746370073 ], [ 35.234732672848565, 66.411714537112914 ], [ 35.183781947431385, 66.412391489051515 ], [ 35.141231435991358, 66.412536026371583 ], [ 35.102634335140522, 66.414096698223261 ], [ 35.043609290660356, 66.410533837624882 ], [ 34.964999668038217, 66.40617309170193 ], [ 34.943194660867505, 66.403242767293762 ], [ 34.849445993022584, 66.391046654011063 ], [ 34.84701531995961, 66.390487595665149 ], [ 34.757160822307924, 66.373040134756593 ], [ 34.750179783586759, 66.370279783397564 ], [ 34.707959184917854, 66.358078343022498 ], [ 34.667888824100487, 66.346470385484395 ], [ 34.634910363776839, 66.332579077759817 ], [ 34.580567579701835, 66.30517745716503 ], [ 34.56041730383015, 66.270951995102223 ], [ 34.553384178201782, 66.260842738600445 ], [ 34.553353503812161, 66.255348210703232 ], [ 34.548954739846465, 66.211141032908927 ], [ 34.556038073147704, 66.189753828497544 ], [ 34.563408246118286, 66.155663623969303 ], [ 34.595939618651869, 66.101372504956203 ], [ 34.602729817503246, 66.087105118378645 ], [ 34.656795876682793, 66.05625429986685 ], [ 34.660269308660759, 66.055371363007055 ], [ 34.71989847131772, 66.020382115122629 ], [ 34.737791547275322, 65.9882681495219 ], [ 34.768422613488042, 65.963989145151572 ], [ 34.79565463564353, 65.96127785884886 ], [ 34.839748432612453, 65.935601957389849 ], [ 34.869293692769247, 65.923546280449955 ], [ 34.899267295128141, 65.903168000746575 ], [ 34.914519119760371, 65.860673257484564 ], [ 34.916384294236195, 65.857511574271541 ], [ 34.916543079627445, 65.856571258904296 ], [ 34.917689657362757, 65.855186943066713 ], [ 34.931511654358587, 65.841772290659833 ], [ 34.947675557807202, 65.830692527291887 ], [ 34.952442120120395, 65.826818874251444 ], [ 35.017832982645018, 65.808730847726167 ], [ 35.027911283265041, 65.802016587462276 ], [ 35.028108006750699, 65.792555716951085 ], [ 35.057847205331257, 65.723859418969425 ], [ 35.066329794179296, 65.674418238719284 ], [ 35.018082074573613, 65.645867866100161 ], [ 35.01315535743197, 65.644120870420124 ], [ 34.994340174322133, 65.637586563418154 ], [ 34.945557123501203, 65.613644801094722 ], [ 34.892032240546541, 65.594751693977742 ], [ 34.891684899164943, 65.59458204203122 ], [ 34.891614068052206, 65.594552067690529 ], [ 34.891583312652017, 65.594498695441814 ], [ 34.881826690529181, 65.561748036707343 ], [ 34.881646217370815, 65.55649807905138 ], [ 34.864696279721102, 65.521256507388841 ], [ 34.829095579640239, 65.488524393324155 ], [ 34.824911171672397, 65.482934823201504 ], [ 34.808182979788398, 65.461530716042091 ], [ 34.813449865454515, 65.428826769944919 ], [ 34.817452646952063, 65.411916838158561 ], [ 34.811186822480522, 65.397451857847045 ], [ 34.797407955527831, 65.388202509071618 ], [ 34.752695654897366, 65.36921590568096 ], [ 34.735084391140845, 65.345778778151782 ], [ 34.714373009090252, 65.327580220531786 ], [ 34.710664151614878, 65.308410184778154 ], [ 34.727952082976174, 65.297629481720037 ], [ 34.752165652724159, 65.269369308793102 ], [ 34.769077986086018, 65.258126635002611 ], [ 34.794231459658477, 65.235507718229258 ], [ 34.814791430049922, 65.207804606470859 ], [ 34.833610815228838, 65.199942669525683 ], [ 34.851234047353501, 65.197527612821546 ], [ 34.874886520803557, 65.171111026429571 ], [ 34.87850457917375, 65.158304705109913 ], [ 34.915398248005772, 65.144191285289708 ], [ 34.918672055093396, 65.143296439695462 ], [ 34.920701873925339, 65.142616333745593 ], [ 34.959847479665711, 65.123749910446463 ], [ 34.970333090765109, 65.115978479356329 ], [ 35.00525357760489, 65.120980363528417 ], [ 35.033727471964198, 65.10968828146008 ], [ 35.046767113875887, 65.10854361673421 ], [ 35.064719603120579, 65.108383357350306 ], [ 35.08886122982949, 65.10295587222214 ], [ 35.116268289202765, 65.08481551631121 ], [ 35.120365724069529, 65.08337618218502 ], [ 35.125775523818504, 65.082137007251731 ], [ 35.158185719061294, 65.077068723374509 ], [ 35.192582934221775, 65.07518689596327 ], [ 35.202636921778378, 65.076305053895396 ], [ 35.220445571147252, 65.073923566451526 ], [ 35.240015798612149, 65.073857962954321 ], [ 35.248297762169386, 65.074455409892778 ], [ 35.289920208946569, 65.08337202004634 ], [ 35.296732099537735, 65.085322947823499 ], [ 35.330091888550726, 65.083709976475916 ], [ 35.347043964735462, 65.091188287770024 ], [ 35.373666306448285, 65.092862561519723 ], [ 35.39386544404266, 65.095595212362241 ], [ 35.417322513487363, 65.10369284849736 ], [ 35.434274905885104, 65.109874493675306 ], [ 35.449055623961613, 65.118523600453102 ], [ 35.459814566755199, 65.127260523004225 ], [ 35.498402076453317, 65.142915048330963 ], [ 35.526667718077192, 65.143184061846227 ], [ 35.52704826065758, 65.140827936600601 ], [ 35.528233291450363, 65.13963702582987 ], [ 35.558047837344873, 65.140722049691362 ], [ 35.562270488590116, 65.138498382439252 ], [ 35.573693574449919, 65.151668994294596 ], [ 35.584184230276264, 65.156193229049791 ], [ 35.597518124399471, 65.160547211446101 ], [ 35.616795646958167, 65.159418488750873 ], [ 35.641191393078827, 65.171871616083081 ], [ 35.643920997521548, 65.172664712939877 ], [ 35.651241110856063, 65.173889223966512 ], [ 35.678196036562497, 65.181459195126138 ], [ 35.68304067876312, 65.182343041771787 ], [ 35.69661934490432, 65.191016443233877 ], [ 35.718668702160414, 65.185616746312121 ], [ 35.730565684585599, 65.186523729789769 ], [ 35.742715806685851, 65.194962204768785 ], [ 35.760358407002172, 65.188569413949267 ], [ 35.771771251878818, 65.186734738715984 ], [ 35.788913545737159, 65.191188731012573 ], [ 35.797582101324281, 65.190790861292101 ], [ 35.801780288296925, 65.193017721656304 ], [ 35.810638883544129, 65.189507893024654 ], [ 35.83633806250873, 65.189703953976334 ], [ 35.867098581962694, 65.179152125230814 ], [ 35.870821517048228, 65.169830007726034 ], [ 35.890958836476898, 65.170433231527625 ], [ 35.900274185143758, 65.171688310991271 ], [ 35.915549368073812, 65.183049642349999 ], [ 35.918028849861003, 65.183769864685075 ], [ 35.931654073734592, 65.200487016991246 ], [ 35.935486064074212, 65.203307160467375 ], [ 35.94008921584475, 65.201590242228121 ], [ 35.944172638977875, 65.199822566428452 ], [ 35.96969489811454, 65.19744010931754 ], [ 35.984959262656162, 65.203397037039508 ], [ 36.012999602040622, 65.202417936947313 ], [ 36.018788693909414, 65.194824865917383 ], [ 36.033548740102503, 65.187663727483709 ], [ 36.045504845897199, 65.181897785092588 ], [ 36.059324970177897, 65.173402366374035 ], [ 36.073801122358532, 65.164353712622074 ], [ 36.088927157980038, 65.163229380064877 ], [ 36.113055820606007, 65.167622548237034 ], [ 36.127265707691663, 65.173879839901986 ], [ 36.14330180392426, 65.166099520109071 ], [ 36.160061893795614, 65.163127009553193 ], [ 36.175198412238501, 65.165881588065645 ], [ 36.189721006725506, 65.174952112356607 ], [ 36.234715716433072, 65.177020462171754 ], [ 36.246103537094314, 65.169302819325878 ], [ 36.263606080567172, 65.157828999057585 ], [ 36.256496538670092, 65.135068004572531 ], [ 36.256053423640083, 65.134429805068066 ], [ 36.255952979481663, 65.134374690707887 ], [ 36.256089917806207, 65.134077344249874 ], [ 36.248522772934052, 65.096094361288124 ], [ 36.247230634850041, 65.096761502383742 ], [ 36.247135910176439, 65.096081169525974 ], [ 36.215177166464912, 65.074623901891812 ], [ 36.214842803063277, 65.074390070018126 ], [ 36.205162091355419, 65.068932934809709 ], [ 36.180804168092493, 65.051462792747827 ], [ 36.157907402273906, 65.001727286755454 ], [ 36.158261174510812, 64.999690778495278 ], [ 36.158980830034238, 64.973405189739537 ], [ 36.193850111827601, 64.952004005812455 ], [ 36.225035496303462, 64.937692946012305 ], [ 36.256891035329431, 64.940706484732914 ], [ 36.293463593232445, 64.94821671536198 ], [ 36.299420812822063, 64.948826667416142 ], [ 36.305219319227092, 64.948543369406195 ], [ 36.36818104583665, 64.942259445539094 ], [ 36.404447870721924, 64.960440489769212 ], [ 36.448548688858978, 64.974902595990045 ], [ 36.468802133924441, 64.982486156732307 ], [ 36.522195941826908, 65.000328607246161 ], [ 36.533538751973538, 65.003998257467174 ], [ 36.537094351515407, 65.005029950363792 ], [ 36.539068987316625, 65.005340209492772 ], [ 36.620627132768391, 65.029184417478973 ], [ 36.649359167495277, 65.040244238669402 ], [ 36.6744894781732, 65.049526561793755 ], [ 36.68026104006276, 65.052333035855611 ], [ 36.691064966580598, 65.058823686966264 ], [ 36.728433827083848, 65.075575719834831 ], [ 36.768268942425493, 65.102110832551375 ], [ 36.769499596223, 65.104513898593723 ], [ 36.769928792026008, 65.104877881865889 ], [ 36.79157323713298, 65.139243691810464 ], [ 36.787611363208384, 65.144698263204305 ], [ 36.787897902424561, 65.148305835784527 ], [ 36.796315666899375, 65.205045884067658 ], [ 36.857747874251743, 65.197661689278846 ], [ 36.888031214504849, 65.187639251016776 ], [ 36.902273038684712, 65.160141570364885 ] ] ] } },
{ "type": "Feature", "properties": { "gid": 2, "objectid": 42.0, "z": 1.0, "shape_leng": 10.9837544563 }, "geometry": { "type": "MultiLineString", "coordinates": [ [ [ 37.590632341816729, 65.183818181860261 ], [ 37.59005006524967, 65.183887101477126 ], [ 37.49394072942971, 65.194979885869657 ], [ 37.456302251317538, 65.198308489445537 ], [ 37.395651047394551, 65.202410927973801 ], [ 37.311852752944219, 65.208332151349225 ], [ 37.300459744146849, 65.208912790811269 ], [ 37.298017069450054, 65.209013583415015 ], [ 37.265792570222459, 65.210992409032883 ], [ 37.204555456075468, 65.214464825941945 ], [ 37.183786650682976, 65.215675365427273 ], [ 37.141284779267266, 65.215842165082108 ], [ 37.08346104128583, 65.226783777703531 ], [ 37.046119744554858, 65.234174693891021 ], [ 36.988717742759093, 65.230968902033112 ], [ 36.982761571591254, 65.233751930951371 ], [ 36.972975189637566, 65.22740070305008 ], [ 36.946472750118176, 65.221779128347464 ], [ 36.915158808056788, 65.220004143018798 ], [ 36.889078898806474, 65.216190062914393 ], [ 36.875955358788019, 65.220533370768067 ], [ 36.872330335681966, 65.220969101123103 ], [ 36.792928282346054, 65.235297413266494 ], [ 36.715185134846365, 65.215831840585452 ], [ 36.711617142529633, 65.209899657464177 ], [ 36.703687257191746, 65.205075923368099 ], [ 36.686391348717791, 65.202887286402927 ], [ 36.653353804984306, 65.203653923759759 ], [ 36.622010444509272, 65.197289031930325 ], [ 36.603467452936457, 65.193110654639952 ], [ 36.582328305827048, 65.190635264821992 ], [ 36.551603542844532, 65.190170775807985 ], [ 36.532374593094517, 65.184306231371067 ], [ 36.513390567881402, 65.180628900488955 ], [ 36.495170337788352, 65.179097262807772 ], [ 36.474192552865134, 65.180758625327144 ], [ 36.461337655986426, 65.177443395732666 ], [ 36.439209127915149, 65.177342542971132 ], [ 36.423704068351071, 65.176752997722417 ], [ 36.410046912336838, 65.178483987503625 ], [ 36.399896536066137, 65.178478303641896 ], [ 36.377782789990363, 65.183514081741976 ], [ 36.370008805533871, 65.186541445000387 ], [ 36.348275335490996, 65.192948277617688 ], [ 36.328177945746631, 65.205724275176294 ], [ 36.29187806155835, 65.211905364281904 ], [ 36.280200105960944, 65.207049621880287 ], [ 36.266796998854261, 65.21349724219192 ], [ 36.259829074813865, 65.217846371320718 ], [ 36.235111091678903, 65.216442805438362 ], [ 36.224213147404953, 65.210215731393021 ], [ 36.198882176962854, 65.212679760225001 ], [ 36.195469758793479, 65.213319855902228 ], [ 36.183033621942855, 65.214974269052732 ], [ 36.163138916657886, 65.2184344198904 ], [ 36.149611625994964, 65.220873471553261 ], [ 36.12387175366166, 65.223081481002851 ], [ 36.100104599958286, 65.223972782958299 ], [ 36.087192979262966, 65.224356028527779 ], [ 36.055691571207774, 65.22599741621525 ], [ 36.044951471121863, 65.226383849818433 ], [ 36.03742726665223, 65.22885713512369 ], [ 36.024634436398628, 65.23248852252442 ], [ 36.007410403733957, 65.231534352700749 ], [ 35.997372211350125, 65.23464766085084 ], [ 35.982895056920938, 65.230087172472793 ], [ 35.972878743239505, 65.230948113123304 ], [ 35.954063570694359, 65.230212660899383 ], [ 35.941243695939193, 65.234994323822434 ], [ 35.937986118384288, 65.232596916845125 ], [ 35.922320068362808, 65.232235227697004 ], [ 35.907076849282021, 65.234546168911038 ], [ 35.898581829984437, 65.23705828753009 ], [ 35.889719569168051, 65.23393368143303 ], [ 35.870021893424564, 65.232715734266094 ], [ 35.850815338257291, 65.238381361006873 ], [ 35.832360671192873, 65.234081957125568 ], [ 35.823710271579387, 65.236236877797694 ], [ 35.814604564744627, 65.23302537627751 ], [ 35.795092961256159, 65.23639620844915 ], [ 35.775462651785404, 65.236652791500092 ], [ 35.766005903773532, 65.239231768297032 ], [ 35.759043898113418, 65.237928242917462 ], [ 35.733742798460355, 65.241882373054921 ], [ 35.704822427738634, 65.243955244921437 ], [ 35.701060545601649, 65.244738499212019 ], [ 35.696672301215642, 65.24451091814268 ], [ 35.665477370101144, 65.246828876202983 ], [ 35.649814592776238, 65.247467905442988 ], [ 35.607588835118861, 65.250971751142117 ], [ 35.592477326965422, 65.255885783233737 ], [ 35.562009572357113, 65.268731348696804 ], [ 35.527641338456363, 65.281116333164505 ], [ 35.506253538420481, 65.287340088223516 ], [ 35.462011965966781, 65.307636165205622 ], [ 35.458147208613866, 65.309297861138475 ], [ 35.456806820162399, 65.309959400474327 ], [ 35.454535107303002, 65.311432517060894 ], [ 35.404457662167317, 65.339393506510532 ], [ 35.394309155788562, 65.344100639500596 ], [ 35.368344734772165, 65.386410743056445 ], [ 35.364100212056655, 65.395373160004908 ], [ 35.359171838092266, 65.402264866614246 ], [ 35.34987892117357, 65.45317257683206 ], [ 35.34830874083849, 65.461240575954491 ], [ 35.350162938280846, 65.50719006803422 ], [ 35.34838797929109, 65.534629409434331 ], [ 35.327447687872393, 65.578820195820413 ], [ 35.325891146087145, 65.581896193063642 ], [ 35.326253511506422, 65.583747789482061 ], [ 35.32752552161395, 65.643407095951261 ], [ 35.326926656096418, 65.648549302830418 ], [ 35.328729488421288, 65.652763483754825 ], [ 35.343987605258121, 65.69746028371452 ], [ 35.347209848827333, 65.723440956237027 ], [ 35.343666506800275, 65.743688842427332 ], [ 35.352658557429152, 65.767591736948816 ], [ 35.36287460807938, 65.807783013166159 ], [ 35.367526852991546, 65.818558814411574 ], [ 35.396274926024603, 65.87580571360013 ], [ 35.414583525504099, 65.900197686176455 ], [ 35.437685348864875, 65.930861906119446 ], [ 35.451657166006157, 65.942705703564627 ], [ 35.486393869796359, 65.974914194332086 ], [ 35.513255643454727, 65.986597189083056 ], [ 35.544704300220587, 66.008853285267946 ], [ 35.608110791246986, 66.033711620912072 ], [ 35.627742868571659, 66.039898082599507 ], [ 35.729524795446252, 66.064559967388107 ], [ 35.739566355536226, 66.066540534535363 ], [ 35.744762824571922, 66.067135289049588 ], [ 35.759091275860669, 66.069445040702817 ], [ 35.846016821829892, 66.084053518076018 ], [ 35.897474762154161, 66.087884874083045 ], [ 35.956016812924759, 66.09418498937157 ], [ 35.971728387579901, 66.09431795813731 ], [ 35.993478474323638, 66.094799173224658 ], [ 36.038843006433979, 66.096039946249277 ], [ 36.068280929524974, 66.097817368165238 ], [ 36.110001177861761, 66.098038028722044 ], [ 36.166862156256627, 66.098811668009262 ], [ 36.175734549178856, 66.098977110494218 ], [ 36.18159217573708, 66.099271860846898 ], [ 36.246148714664798, 66.099866985110509 ], [ 36.297008029258052, 66.100727145691167 ], [ 36.311307534037041, 66.100778977197535 ], [ 36.330231098589195, 66.100599630866839 ], [ 36.37999006285105, 66.101317720211284 ], [ 36.414682274378777, 66.101829603343617 ], [ 36.444800900382802, 66.102135566470793 ], [ 36.482103611706407, 66.101757722717707 ], [ 36.512060400375105, 66.102224348476739 ], [ 36.534587215821375, 66.102510361830355 ], [ 36.575765874251488, 66.102983634162285 ], [ 36.624059725800237, 66.102079190910388 ], [ 36.641607907600701, 66.102183908296979 ], [ 36.65588735771604, 66.102156264765597 ], [ 36.704120744412592, 66.102552853990346 ], [ 36.762461518621421, 66.101043216185758 ], [ 36.770089529192887, 66.101026099801004 ], [ 36.776370468302105, 66.100975204128247 ], [ 36.832196071263809, 66.101028998891707 ], [ 36.893018512666458, 66.09918412203848 ], [ 36.898013302547042, 66.099109077826199 ], [ 36.905516286584259, 66.09885383692739 ], [ 36.960083766825846, 66.098355480382565 ], [ 37.002824523151617, 66.096854686038682 ], [ 37.024461692271871, 66.096471407159811 ], [ 37.055068086134384, 66.095334056793945 ], [ 37.084842594704355, 66.094841860627582 ], [ 37.105976754974165, 66.094352333821121 ], [ 37.150913343706691, 66.093272112091654 ], [ 37.204055346155769, 66.09190194994153 ], [ 37.213605668701348, 66.091579820145967 ], [ 37.272055684763586, 66.09031075518584 ], [ 37.300121497697489, 66.090192364907068 ], [ 37.381092207448148, 66.088085234892787 ], [ 37.388556524121668, 66.087844543086192 ], [ 37.392257204774069, 66.087879862068803 ], [ 37.405777377411198, 66.087671861532726 ], [ 37.491632195000477, 66.08453561058559 ], [ 37.562022762955223, 66.082161543963707 ], [ 37.583200537265043, 66.08107012489927 ], [ 37.59149572433671, 66.081375282461579 ], [ 37.696337061512224, 66.071761071187211 ], [ 37.70037667905865, 66.072160302384987 ], [ 37.804725753594653, 66.06251398546749 ], [ 37.8110105253146, 66.060176240309488 ], [ 37.916871568959436, 66.051642381513318 ], [ 37.924748416000568, 66.051346231310163 ], [ 38.029870472804816, 66.045050017317465 ], [ 38.038820794143305, 66.044469289336234 ], [ 38.140882953783262, 66.037456019781587 ], [ 38.151063825513063, 66.036739312970894 ], [ 38.251096909967657, 66.028247584283235 ], [ 38.268875766196345, 66.030069047206837 ], [ 38.363811923482046, 66.024441936228015 ], [ 38.375448117352903, 66.021656567070863 ], [ 38.484687766234913, 66.022398896108029 ], [ 38.489159161370537, 66.023341165782767 ], [ 38.596612277629902, 66.02842899378453 ], [ 38.604859397892142, 66.027351761586146 ], [ 38.723807625545362, 66.03120700443111 ], [ 38.730753103402208, 66.031528318664641 ], [ 38.824987370710119, 66.04332651957526 ], [ 38.834336618165253, 66.04207783624588 ], [ 38.839450719955494, 66.043741018787841 ], [ 38.914722212168385, 66.044801252326636 ], [ 38.939405526660323, 66.042258119239762 ], [ 38.956540570274342, 66.04559843907191 ], [ 39.023993279537592, 66.049335970121319 ], [ 39.052166256995406, 66.047175848376412 ], [ 39.077491552234278, 66.050359531800495 ], [ 39.130657703397446, 66.051478306151694 ], [ 39.171769338398121, 66.049031484813952 ], [ 39.213485444299295, 66.053595442484948 ], [ 39.291549517889564, 66.052226050233116 ], [ 39.332375882935708, 66.056093720108152 ], [ 39.346754366153618, 66.054371498408841 ], [ 39.368769490378384, 66.056663508992642 ], [ 39.413833530779925, 66.055450307903925 ], [ 39.434608121620954, 66.05548228678532 ], [ 39.478042275077371, 66.049155913438881 ], [ 39.534919702622574, 66.058696244566818 ], [ 39.539826788590346, 66.058853316208229 ], [ 39.542375408040243, 66.05920706711197 ], [ 39.605733020362152, 66.051906712091409 ], [ 39.649736556792107, 66.057249906181937 ], [ 39.66715866858442, 66.054101825488033 ], [ 39.706625468199491, 66.05569878670218 ], [ 39.739014690188924, 66.052325869779509 ], [ 39.759477431332982, 66.055095536910869 ], [ 39.797427955243563, 66.048886806602354 ], [ 39.868296976215731, 66.052999326944757 ], [ 39.872409357863944, 66.05147600005148 ], [ 39.883466657789597, 66.050924507290006 ], [ 39.933528428315242, 66.040786197816431 ], [ 39.963557221795838, 66.043531803356018 ], [ 39.994783719565078, 66.030880668447992 ], [ 40.059064239263591, 66.025733439499106 ], [ 40.076113616654766, 66.019761518939106 ], [ 40.099999264872281, 66.018131034608814 ], [ 40.1278908586537, 66.010793859575756 ], [ 40.145905416895459, 66.009226204856645 ], [ 40.162110088305894, 66.005502140585975 ], [ 40.190709574861216, 65.96469327507657 ], [ 40.203119503116, 65.93033615176688 ], [ 40.190630757380859, 65.918533266536599 ], [ 40.131181879769429, 65.845391593306033 ], [ 40.130578988362743, 65.839268931027732 ], [ 40.123004990193294, 65.788215329768832 ], [ 40.075014734233264, 65.759726549498851 ], [ 40.046551099760222, 65.744266584617435 ], [ 39.99550743307924, 65.713029899270623 ], [ 39.955760043667397, 65.686741026758682 ], [ 39.914000967517552, 65.674323883358795 ], [ 39.908758835037588, 65.671717393037454 ], [ 39.838383913724215, 65.645554025948627 ], [ 39.817435199627653, 65.643284767909904 ], [ 39.809573967126255, 65.638855679440951 ], [ 39.744953263143543, 65.606790919628111 ], [ 39.700638383044918, 65.573610152176059 ], [ 39.693438695758232, 65.56486620208301 ], [ 39.661965120787613, 65.530809036456162 ], [ 39.672625956736738, 65.486614306850299 ], [ 39.670092298780276, 65.470292761398071 ], [ 39.652373836259414, 65.444345788113424 ], [ 39.648027725852558, 65.417174496018561 ], [ 39.628273382652083, 65.401641256190487 ], [ 39.639980955253236, 65.361093277038947 ], [ 39.641655000232277, 65.356124890750039 ], [ 39.671359260770316, 65.309179946736663 ], [ 39.701837129527121, 65.287684116687217 ], [ 39.69492543826351, 65.25478071022377 ], [ 39.683492098192914, 65.23196571467264 ], [ 39.660834311172948, 65.198348335426999 ], [ 39.650084341788954, 65.179051661223752 ], [ 39.638419830429484, 65.168215811427274 ], [ 39.59490724180074, 65.132968345627887 ], [ 39.584130510513319, 65.125527351963797 ], [ 39.534943565129765, 65.091388817192637 ], [ 39.526932112843497, 65.087886049092162 ], [ 39.483651501577697, 65.066978109825868 ], [ 39.466211924169386, 65.058410300247601 ], [ 39.463452894575255, 65.057072214840503 ], [ 39.408717390702805, 65.037938945402914 ], [ 39.381683135419735, 65.028833651682476 ], [ 39.352432882835387, 65.022546108142762 ], [ 39.311672433177591, 65.015173705454799 ], [ 39.299430173472558, 65.012898111905145 ], [ 39.294172165726252, 65.01171749310754 ], [ 39.23749487879104, 65.005571654794096 ], [ 39.207656947386624, 65.001661113026898 ], [ 39.123086980995197, 64.996202017471717 ], [ 39.120233425535901, 64.996031084403512 ], [ 39.118668440962324, 64.995827550272281 ], [ 39.112920608124227, 64.995632891775983 ], [ 39.008898789034049, 64.993171076596013 ], [ 38.940409563380001, 64.995781373392674 ], [ 38.897688932091171, 64.996436451445277 ], [ 38.787762797102914, 65.001831693458428 ], [ 38.787521685444631, 65.001840160344841 ], [ 38.786714635338285, 65.001905395503968 ], [ 38.679837590229113, 65.010271168765144 ], [ 38.654831979190988, 65.013401565156641 ], [ 38.573793130053787, 65.022370940016231 ], [ 38.530738792265822, 65.027776701870721 ], [ 38.467879724164959, 65.035546471757755 ], [ 38.449637099460233, 65.037502708350189 ], [ 38.411965692648664, 65.042849118748677 ], [ 38.358769578218926, 65.050507578009388 ], [ 38.340097595894008, 65.053041621198702 ], [ 38.298878692105177, 65.05944586958509 ], [ 38.246524258371267, 65.067708471935475 ], [ 38.171768140469794, 65.080043141264468 ], [ 38.1513971425303, 65.083297904100561 ], [ 38.123077423588256, 65.088805552921315 ], [ 38.083651810739013, 65.096234715922037 ], [ 38.065604751100295, 65.100127618803469 ], [ 38.021553280617923, 65.108310146722886 ], [ 37.980236265764745, 65.117554210490141 ], [ 37.964519946195594, 65.120302426410603 ], [ 37.926494809173221, 65.128315312409597 ], [ 37.899314861017046, 65.133523917422281 ], [ 37.88955241451913, 65.135639841930242 ], [ 37.82754950415989, 65.146258715452973 ], [ 37.792265915602911, 65.153136394423314 ], [ 37.750668930981305, 65.159320011953355 ], [ 37.69240482804895, 65.169454869101173 ], [ 37.670815608478847, 65.172175489133338 ], [ 37.590801286496685, 65.183800616112478 ], [ 37.590632341816729, 65.183818181860261 ] ] ] } },
{ "type": "Feature", "properties": { "gid": 3, "objectid": 43.0, "z": 1.5, "shape_leng": 7.2572845845799998 }, "geometry": { "type": "MultiLineString", "coordinates": [ [ [ 39.225711233171751, 65.359065565950004 ], [ 39.235377504737698, 65.362354673285154 ], [ 39.248730929917656, 65.369063740814454 ], [ 39.280774820959778, 65.393542659978266 ], [ 39.308485154659138, 65.415532776329201 ], [ 39.320894346907153, 65.427018591377418 ], [ 39.348795737008913, 65.461108470277395 ], [ 39.370272132378886, 65.487987428918132 ], [ 39.391619767004158, 65.514532142842654 ], [ 39.408639503948507, 65.534817017411115 ], [ 39.422108971950365, 65.559298310079612 ], [ 39.444219510143739, 65.582899743298185 ], [ 39.463263240133529, 65.615159553242847 ], [ 39.476193128837622, 65.644019278479391 ], [ 39.482351852508145, 65.671627980555058 ], [ 39.47416252628318, 65.686935372999869 ], [ 39.454890226741554, 65.72684726055013 ], [ 39.406381750610308, 65.76665858560591 ], [ 39.402178691874724, 65.769610354167526 ], [ 39.399878022944904, 65.770802018640097 ], [ 39.391344583898899, 65.77438541612355 ], [ 39.348692586529069, 65.791582992053009 ], [ 39.328834929081495, 65.800062501788489 ], [ 39.293284058367135, 65.809831943755853 ], [ 39.263488239928847, 65.815821881478769 ], [ 39.22526431469305, 65.826825328360428 ], [ 39.219644821598195, 65.827314643305726 ], [ 39.198751912699663, 65.831299661120283 ], [ 39.136896459618583, 65.84275674354285 ], [ 39.100647700572154, 65.846401273767697 ], [ 39.043999576417264, 65.856647218068247 ], [ 39.028347795712762, 65.857489145637373 ], [ 39.006564008392161, 65.860143675061408 ], [ 38.972288707416737, 65.862768382663489 ], [ 38.948271272762213, 65.866019531124039 ], [ 38.906724874686915, 65.868273936852347 ], [ 38.852074126480147, 65.873236215309589 ], [ 38.851987939357059, 65.873240351298591 ], [ 38.851920975110261, 65.87324749144318 ], [ 38.786484162483248, 65.875747188736568 ], [ 38.747917253785999, 65.878409323137021 ], [ 38.725768196178251, 65.878597176561016 ], [ 38.703982049875776, 65.87951180327218 ], [ 38.664333452397841, 65.879246096097631 ], [ 38.635850711725652, 65.879925569941406 ], [ 38.60022795049008, 65.87945482727082 ], [ 38.569355268075014, 65.880187028684304 ], [ 38.540528347162763, 65.879867943076533 ], [ 38.5172580692888, 65.880143128175405 ], [ 38.474502411918365, 65.879388310335344 ], [ 38.440767658277764, 65.879809287827811 ], [ 38.414841481891926, 65.879224150266964 ], [ 38.317769733388559, 65.877307753355126 ], [ 38.287043040676508, 65.876789992544218 ], [ 38.254116904514376, 65.876479297527112 ], [ 38.221738898282638, 65.875487805547891 ], [ 38.201041835229262, 65.87534924132342 ], [ 38.158041698392481, 65.874107563329744 ], [ 38.109267279200139, 65.873277103572036 ], [ 38.094706050454988, 65.872773775598034 ], [ 38.085932022964698, 65.872646260802867 ], [ 38.027620013424894, 65.870027879063855 ], [ 37.972240477451123, 65.868770930843311 ], [ 37.965866804574034, 65.868395727826282 ], [ 37.954684499956784, 65.86811044314527 ], [ 37.89633175288327, 65.865848984773038 ], [ 37.857828160471399, 65.865139967630967 ], [ 37.834971129152109, 65.863828740591998 ], [ 37.794024454793544, 65.862624444751418 ], [ 37.763439558839309, 65.861357041198062 ], [ 37.744172789345612, 65.860964351741131 ], [ 37.698849765976775, 65.85894435197406 ], [ 37.633347974333446, 65.857387310286867 ], [ 37.632414671694278, 65.85731139309064 ], [ 37.627269322794746, 65.857207658831612 ], [ 37.557306389135192, 65.854970529966522 ], [ 37.521498442845768, 65.854520865759696 ], [ 37.441499969470897, 65.853412662341725 ], [ 37.420610479457537, 65.853062641792349 ], [ 37.410291400359711, 65.853068668133346 ], [ 37.367986553959781, 65.85285082727205 ], [ 37.296766613493674, 65.851907065734849 ], [ 37.233532899728743, 65.85172852766118 ], [ 37.182034346376895, 65.851466863750829 ], [ 37.127355866687139, 65.851855359243928 ], [ 37.073302269229316, 65.851645085363998 ], [ 37.058498007259914, 65.85112373897573 ], [ 37.028512776538264, 65.851483648613794 ], [ 36.968875416845549, 65.851337172294734 ], [ 36.926200770452851, 65.849810110521503 ], [ 36.864214404951781, 65.849977248159121 ], [ 36.84180774934066, 65.849039992346661 ], [ 36.793016613781219, 65.845944836852141 ], [ 36.761714641936123, 65.845573384285672 ], [ 36.675662222434767, 65.840968214557506 ], [ 36.672481455563684, 65.840735445162863 ], [ 36.670014007904683, 65.840550374079612 ], [ 36.580271168189938, 65.834041400972637 ], [ 36.557326748166815, 65.831297245313181 ], [ 36.541998232001788, 65.830404775813804 ], [ 36.509602791644284, 65.826648741087411 ], [ 36.485191359723103, 65.824114567090874 ], [ 36.433047471902682, 65.816222302659298 ], [ 36.392772292922018, 65.81267501275579 ], [ 36.388481623405823, 65.811681087579927 ], [ 36.381708219167194, 65.810724011724233 ], [ 36.30953905142087, 65.797267904184991 ], [ 36.293891048160731, 65.795151509126299 ], [ 36.234392559184926, 65.777770405678893 ], [ 36.19222841472947, 65.768426764538162 ], [ 36.16812989950995, 65.75614914947073 ], [ 36.100901254758355, 65.729496862622909 ], [ 36.089752602390945, 65.705553016785416 ], [ 36.052167549933074, 65.692369028736721 ], [ 36.043006355117541, 65.656897873588605 ], [ 36.056338237714954, 65.629720585391624 ], [ 36.070877626727452, 65.606649769280921 ], [ 36.088041807408445, 65.591849366232054 ], [ 36.121299503283808, 65.559119602796272 ], [ 36.128371614453499, 65.556573642999865 ], [ 36.171316426931298, 65.526882530670264 ], [ 36.206776852923213, 65.506251605824218 ], [ 36.209182989026885, 65.505111585007398 ], [ 36.210840768064372, 65.504592013428919 ], [ 36.290936865087133, 65.473437001215643 ], [ 36.300453081872547, 65.470569816636271 ], [ 36.351875778185786, 65.45723838203412 ], [ 36.369993243453791, 65.453257069224492 ], [ 36.392320173661574, 65.451415859075496 ], [ 36.42390078867902, 65.444450618946576 ], [ 36.443132891334244, 65.441460669069784 ], [ 36.457895642277435, 65.4389614736574 ], [ 36.512481515150284, 65.432863631896907 ], [ 36.562668365833815, 65.428724460842204 ], [ 36.596128627163125, 65.426755431544734 ], [ 36.665164307894884, 65.422244872999727 ], [ 36.682497635352775, 65.421245227800682 ], [ 36.696283297598711, 65.420654278306756 ], [ 36.777201269462239, 65.418321516932338 ], [ 36.849790241685696, 65.415692718350329 ], [ 36.876570564651047, 65.41463714488782 ], [ 36.915361413615756, 65.413692226575222 ], [ 36.966259915803676, 65.415182789351093 ], [ 36.971595459443051, 65.41334338519664 ], [ 36.985909115668619, 65.414532632785267 ], [ 37.053237050640746, 65.411335973331006 ], [ 37.069161375431577, 65.413087689099484 ], [ 37.078305643051863, 65.411540219865856 ], [ 37.102441299546626, 65.414002046309179 ], [ 37.173999641061528, 65.411021448206156 ], [ 37.191467386859586, 65.413116277617519 ], [ 37.199886459726258, 65.411366451153299 ], [ 37.258610127159045, 65.412218802710413 ], [ 37.317400254061795, 65.409086979838321 ], [ 37.318130199157167, 65.409100483477232 ], [ 37.319696735372418, 65.408990035197348 ], [ 37.429481289102114, 65.405889209141606 ], [ 37.440349539552699, 65.405826305403025 ], [ 37.528037143070833, 65.401037790026749 ], [ 37.543189276519115, 65.397764341789298 ], [ 37.589692362817004, 65.394703141631908 ], [ 37.630169584692339, 65.393259631062392 ], [ 37.657567877860856, 65.384771067037946 ], [ 37.684357168487622, 65.38299035235832 ], [ 37.767941252182936, 65.368766098777996 ], [ 37.781814988513361, 65.367267496389104 ], [ 37.840543594560586, 65.35931394979707 ], [ 37.868973618911696, 65.357043715019245 ], [ 37.879265152136213, 65.355110521632014 ], [ 37.953616709637572, 65.347037683211965 ], [ 37.990753155609127, 65.339894336269936 ], [ 38.038854399841512, 65.333689039267483 ], [ 38.101641891902545, 65.324272570200264 ], [ 38.12084022880299, 65.321797984623117 ], [ 38.163821660855319, 65.316597622222616 ], [ 38.195153000910068, 65.313843487761915 ], [ 38.211496486561373, 65.311458189811674 ], [ 38.266824268081109, 65.305749367398676 ], [ 38.315994478791254, 65.299540080188308 ], [ 38.335886568354908, 65.297368331623147 ], [ 38.372391236916883, 65.293360565774492 ], [ 38.405187878364814, 65.290899405808887 ], [ 38.41943002671178, 65.288941894235904 ], [ 38.467958079098025, 65.284371790243313 ], [ 38.524553404917242, 65.279306191005162 ], [ 38.540422868551104, 65.277688103727996 ], [ 38.601706822650158, 65.273730320390314 ], [ 38.64390158385504, 65.270162291955785 ], [ 38.661166780831991, 65.269323580228956 ], [ 38.736271406247397, 65.266670906275976 ], [ 38.75992859787948, 65.265841750646359 ], [ 38.764087560513872, 65.265726108496892 ], [ 38.824329073424451, 65.269381760954275 ], [ 38.860152364417445, 65.271112475835253 ], [ 38.898079010279616, 65.276336121241911 ], [ 38.959229737054557, 65.282033253955888 ], [ 38.968968018045416, 65.283723969871062 ], [ 39.023780703588272, 65.293635060050292 ], [ 39.053077375690918, 65.298583526731818 ], [ 39.122997371116071, 65.318793031081441 ], [ 39.135919754917268, 65.322797573855496 ], [ 39.143570884902147, 65.325019199299277 ], [ 39.225711233171751, 65.359065565950004 ] ] ] } }
]
}
