{
"type": "FeatureCollection",
"name": "hsr_02_50_iso_ws",
"crs": { "type": "name", "properties": { "name": "urn:ogc:def:crs:OGC:1.3:CRS84" } },
"features": [
{ "type": "Feature", "properties": { "gid": 1, "objectid": 32.0, "z": 0.2, "index": 0.0, "z1": 0.0, "z2": 0.0, "index1": 0.0, "index2": 0.0 }, "geometry": { "type": "MultiLineString", "coordinates": [ [ [ 40.614215502271009, 66.473891659920866 ], [ 40.607627312245313, 66.468169863415824 ], [ 40.578552732666196, 66.449740957508766 ], [ 40.561674573404161, 66.441664606434585 ], [ 40.527400533003004, 66.411028506365369 ], [ 40.486892597124154, 66.395370626298359 ], [ 40.43535766777137, 66.382551678801974 ], [ 40.395786162411241, 66.371349306551679 ], [ 40.328197161430694, 66.365265117579838 ], [ 40.294845924716299, 66.35562566895527 ], [ 40.252157263374158, 66.329639351348362 ], [ 40.206356713384537, 66.310632715383747 ], [ 40.16674256755141, 66.295733138915296 ], [ 40.122555783775283, 66.280047653173938 ], [ 40.085422899530499, 66.263744439675065 ], [ 40.04441357639746, 66.250068872246686 ], [ 39.990341440007001, 66.244487470627064 ], [ 39.966228677225502, 66.240820560819088 ], [ 39.894535849503939, 66.220945734370673 ], [ 39.797529400417261, 66.196596644535077 ], [ 39.746671749067957, 66.191123841843307 ], [ 39.690554214186761, 66.185857916734733 ], [ 39.640255994265431, 66.179488086974743 ], [ 39.582788130566883, 66.171692532905638 ], [ 39.525058294006158, 66.166446564868238 ], [ 39.469599200823779, 66.160681999615861 ], [ 39.416828513280109, 66.151194560945441 ], [ 39.364096134006104, 66.14007779902397 ], [ 39.307176568276248, 66.13167616579824 ], [ 39.260069619387764, 66.123456096698703 ], [ 39.209038747802083, 66.108573746085312 ], [ 39.163383789924353, 66.10072306639637 ], [ 39.104635063173248, 66.09252570493851 ], [ 39.057497532510865, 66.088600324605181 ], [ 38.992025755753275, 66.090112074834906 ], [ 38.947464133729227, 66.086891273640617 ], [ 38.893375837294968, 66.092791106022162 ] ], [ [ 38.552680570122902, 66.074317936717875 ], [ 38.509181960602461, 66.057622957503156 ], [ 38.450066314246612, 66.063907794817396 ], [ 38.412887236030372, 66.065394957946012 ], [ 38.369245722591586, 66.057092754435928 ], [ 38.253851546443912, 66.065493392659903 ], [ 38.150427669261319, 66.074258558135682 ], [ 38.108954071085464, 66.074897686769077 ], [ 38.10077170763185, 66.072240766014204 ], [ 38.097497878705326, 66.075695489402278 ], [ 38.055304869365614, 66.080687014713533 ], [ 37.944771652342808, 66.086289272425347 ], [ 37.891901701397728, 66.085345748037128 ], [ 37.876172491836769, 66.086649809978553 ], [ 37.858936699351091, 66.093888318813754 ], [ 37.671137585996178, 66.124237014031962 ], [ 37.582496691542531, 66.116601572968762 ], [ 37.542348112343575, 66.125647424010822 ], [ 37.489242159917922, 66.1413761435943 ], [ 37.449124894577835, 66.151764274178333 ], [ 37.398642833010058, 66.182840733003104 ], [ 37.388178215631399, 66.185232598349216 ], [ 37.353766051655953, 66.197696103470719 ], [ 37.304806450367209, 66.203124109616056 ], [ 37.249309651844669, 66.220467923329068 ], [ 37.202820799975598, 66.225196755975105 ], [ 37.191448881356393, 66.227449504498622 ], [ 37.104052606799144, 66.22767444686184 ], [ 37.055155581376368, 66.231550570097227 ], [ 36.997997886574126, 66.237507701527647 ], [ 36.944909606765634, 66.24296809984304 ], [ 36.888187804041195, 66.249085363804738 ], [ 36.771570853834476, 66.25655550818567 ], [ 36.705540552422462, 66.262809237530689 ], [ 36.65610391311202, 66.263352359721466 ], [ 36.595983662151525, 66.25756322087193 ], [ 36.540773065149608, 66.259211396871365 ], [ 36.45950051556423, 66.284234896982468 ], [ 36.432239846082666, 66.287351350096344 ], [ 36.373427814676688, 66.276640768501238 ], [ 36.321888083519298, 66.282466662978663 ], [ 36.223083527309711, 66.318643312683321 ], [ 36.130455627313438, 66.328402203900623 ], [ 36.125767053396089, 66.329189335236208 ], [ 36.128212353236563, 66.32861700871581 ], [ 36.12845754074084, 66.328576175903436 ], [ 36.047772435293268, 66.314256868059658 ], [ 35.994846271391054, 66.320099885513685 ], [ 35.939968566559514, 66.329239060221937 ], [ 35.888547167971467, 66.334664979615013 ], [ 35.825645975932275, 66.356238658176267 ], [ 35.729433993004989, 66.368384467274097 ], [ 35.609521831742427, 66.359746905865961 ], [ 35.557118569588113, 66.366004454455833 ], [ 35.502759945895491, 66.374612978808727 ], [ 35.45218286800457, 66.383767826784606 ], [ 35.404337434916727, 66.395967013228017 ], [ 35.356206126794916, 66.40876411594229 ], [ 35.319807615309514, 66.424977423779694 ], [ 35.272102111615823, 66.438263866486636 ], [ 35.232526571431663, 66.469523481915587 ], [ 35.204715273459556, 66.476756112846545 ], [ 35.137707170331794, 66.473044033773476 ], [ 35.085942889068974, 66.489170361132096 ], [ 35.053153700406256, 66.502084206487837 ], [ 35.000146630307484, 66.519986309329397 ], [ 34.972433151724545, 66.54628130939102 ], [ 34.939168726159551, 66.555085501800988 ], [ 34.882862405189371, 66.558194896158966 ], [ 34.817431876304965, 66.568906852800865 ], [ 34.753248692708439, 66.564592122031172 ], [ 34.689173888167716, 66.547463071499806 ], [ 34.617548392674621, 66.550909022476787 ], [ 34.602958752300765, 66.5474994780526 ], [ 34.559187734667034, 66.520131110493878 ], [ 34.490476386072373, 66.514338589007934 ], [ 34.460159311824157, 66.524782327404012 ], [ 34.40575022090718, 66.54186040431523 ], [ 34.388408147988343, 66.555793741845378 ], [ 34.337986850125162, 66.575686413747462 ], [ 34.290184213216094, 66.607444185687257 ], [ 34.277533482291005, 66.623221473018987 ], [ 34.216808572684499, 66.6415221971439 ], [ 34.19205206037077, 66.63990765524801 ], [ 34.106661268626397, 66.647305756683636 ], [ 34.082227785205873, 66.659797937758469 ], [ 34.054482757081132, 66.649418922468556 ], [ 34.024152487389074, 66.666098456004079 ], [ 33.977593006195207, 66.659214492447177 ], [ 33.884916337319737, 66.672423085496177 ], [ 33.864761837805418, 66.676869441118583 ], [ 33.790845615443743, 66.703786551006601 ], [ 33.784241194123865, 66.71212743448632 ], [ 33.769753640128442, 66.713648954115342 ], [ 33.70773211324564, 66.738372631432867 ], [ 33.648503616284813, 66.754583633042728 ], [ 33.636927262567099, 66.753410029803433 ], [ 33.62841285987821, 66.754607921433603 ], [ 33.594578852997074, 66.728002134590611 ], [ 33.57730426006674, 66.729973307352338 ], [ 33.531294185209845, 66.724142034527176 ], [ 33.498895968514262, 66.732806651201827 ], [ 33.485608465031021, 66.732603291464443 ], [ 33.473838975161925, 66.731183547795865 ], [ 33.405300874612294, 66.715819477281855 ], [ 33.315197952459187, 66.73506875555546 ], [ 33.228311744096573, 66.749741711424633 ], [ 33.221514049102666, 66.751612656873476 ], [ 33.187283283827185, 66.768942553073543 ], [ 33.148612237342661, 66.735623355954999 ], [ 33.227628290427788, 66.696182587314979 ], [ 33.274681071714497, 66.658972110803006 ], [ 33.309852541096916, 66.644867752093091 ], [ 33.321532297992292, 66.634498448689612 ], [ 33.375709336465661, 66.627126476942067 ], [ 33.394057476416492, 66.624335607662886 ], [ 33.449779526352302, 66.601397871439985 ], [ 33.458081281100135, 66.593618253962632 ], [ 33.483417900217376, 66.565655184102127 ], [ 33.462495652205746, 66.511940637017744 ], [ 33.454418691297121, 66.51482489351838 ], [ 33.469191020081894, 66.50218317236795 ], [ 33.468985374154784, 66.50350741626238 ], [ 33.524212406962818, 66.476328272648971 ], [ 33.547928249616973, 66.465094803658417 ] ], [ [ 33.630905163039415, 66.419428611160356 ], [ 33.647731981782385, 66.408744264717939 ], [ 33.604055948231689, 66.390012762309254 ], [ 33.598631277451204, 66.385884306215246 ], [ 33.604522044402927, 66.383136921380412 ], [ 33.659679930129698, 66.368213781326631 ], [ 33.67987721895048, 66.341443078657903 ], [ 33.702345559919252, 66.335375754599283 ], [ 33.764459687772671, 66.345085700377354 ], [ 33.826226274828571, 66.3273578152548 ], [ 33.84330837764719, 66.318567503152792 ], [ 33.891875706285646, 66.29973545886611 ], [ 33.898757557980161, 66.262762647247087 ] ], [ [ 34.048003083382355, 66.236589290531185 ], [ 34.065275090135401, 66.238818949277686 ], [ 34.126782916188063, 66.227285594348473 ], [ 34.131312718806214, 66.218965515870536 ] ], [ [ 34.421280843672946, 66.115431718323578 ], [ 34.448075956795947, 66.123639709254405 ], [ 34.49791100632865, 66.10668670885218 ], [ 34.555650008896919, 66.058913172226312 ], [ 34.56397929788011, 66.055469113893196 ], [ 34.609957028667907, 66.028715386448425 ], [ 34.623460673858176, 66.021186307691153 ], [ 34.676927117754644, 66.023151936118666 ], [ 34.710116367259729, 66.004213414249477 ], [ 34.730619304969821, 65.96293849880027 ], [ 34.71693851980325, 65.928635809307139 ] ], [ [ 34.724942440950429, 65.921243758122614 ], [ 34.763361552948538, 65.922359010615821 ], [ 34.796737523571323, 65.906819552736067 ], [ 34.844794177333824, 65.863260783618898 ], [ 34.846996489271987, 65.858727761064074 ], [ 34.859817846350779, 65.838463893807898 ], [ 34.870747267552474, 65.822778995596366 ], [ 34.883780360203787, 65.795262714062176 ], [ 34.900515761819406, 65.80670760780049 ], [ 34.945801875135601, 65.803161137770132 ], [ 34.984049147471524, 65.789414479084485 ], [ 34.976622538761148, 65.763438194106186 ], [ 34.965053052703411, 65.712277219314217 ], [ 34.969621473788777, 65.708670121526666 ], [ 34.963343265884816, 65.706126714347249 ], [ 34.918992341219564, 65.680933814135756 ], [ 34.912334908760386, 65.677741689436573 ], [ 34.882062233351405, 65.656146765628307 ], [ 34.879166503458748, 65.654303858034893 ], [ 34.860830955403799, 65.64857186070742 ], [ 34.817286663004779, 65.638110147592784 ], [ 34.800735912987875, 65.62247657193808 ], [ 34.802240171120502, 65.584513991940128 ], [ 34.79886727794667, 65.556987625372187 ], [ 34.769922460469445, 65.547978627408213 ], [ 34.760395476565407, 65.535710465243085 ], [ 34.745326633390562, 65.530166492753835 ], [ 34.728668444680864, 65.491800102132345 ], [ 34.702898660311007, 65.462346672116894 ], [ 34.676569472165397, 65.463111334229382 ], [ 34.663681756890696, 65.423909114117123 ], [ 34.663379764529964, 65.422147483292122 ], [ 34.660506736923764, 65.415450014214116 ], [ 34.638478040531595, 65.39495856989015 ], [ 34.597904644502705, 65.400521434483494 ], [ 34.580834271466358, 65.39696024521254 ], [ 34.563593793274777, 65.395181479827443 ], [ 34.546946748378105, 65.389439995990074 ], [ 34.55237758998561, 65.368903737926416 ], [ 34.560358763988916, 65.349324261958941 ], [ 34.547234649260588, 65.31457456727378 ], [ 34.544238771566597, 65.296406622619656 ], [ 34.55420142877125, 65.292345186360706 ], [ 34.572260437733405, 65.257704501178523 ], [ 34.591991050285401, 65.250513821916741 ], [ 34.613918086946796, 65.255072301344626 ], [ 34.688332379428175, 65.215397921354395 ], [ 34.694314438576839, 65.202140624227468 ], [ 34.751944484753153, 65.096759574626049 ], [ 34.7712139254254, 65.086490804555183 ], [ 34.810749222786455, 65.073332336407589 ], [ 34.815333825467008, 65.065141003124268 ], [ 34.846138631459326, 65.059307918243519 ], [ 34.86057892198744, 65.052465896740557 ], [ 34.866517155111126, 65.049208614302302 ], [ 34.87711327416406, 65.039605725021943 ], [ 34.868558816640927, 65.007334856061732 ], [ 34.868601440041061, 65.007166635375995 ], [ 34.913937232013268, 64.96752473085877 ], [ 34.933163826852365, 64.936492634478782 ], [ 34.990843730273014, 64.80396699244011 ], [ 35.04749138273479, 64.770832893165846 ], [ 35.047859694110343, 64.771049028706443 ], [ 35.047954666992155, 64.770521696467767 ], [ 35.047965104753587, 64.767378094395212 ], [ 35.047572891217101, 64.732916108925679 ], [ 35.050171783048427, 64.731518570846788 ], [ 35.053416105361975, 64.725753713875804 ], [ 35.071552558398253, 64.700359349793871 ], [ 35.068289801554897, 64.67707456135031 ], [ 35.058866655228542, 64.65509495895833 ], [ 35.019877014223312, 64.60796301906521 ], [ 35.009650969375798, 64.601439495152647 ], [ 34.988553835821335, 64.576847821448666 ], [ 34.983003521774776, 64.569975659498596 ], [ 34.985887514074477, 64.564615097282626 ], [ 35.00368078829348, 64.521522844370338 ], [ 35.011175738836869, 64.517325132383235 ], [ 35.017449967254038, 64.504016660142952 ], [ 35.035639153713475, 64.496968552270118 ], [ 35.073312755768711, 64.490837147270213 ], [ 35.087460456608881, 64.49000042162163 ], [ 35.132463563179044, 64.465828018233935 ], [ 35.156887121516775, 64.456593830513157 ], [ 35.18414048351417, 64.461193820148708 ], [ 35.211960126791382, 64.462268861934831 ], [ 35.225076073784408, 64.455423491013846 ], [ 35.235936413388174, 64.44153720175018 ], [ 35.264070764595147, 64.409306821984558 ], [ 35.296164364241065, 64.399444782404373 ], [ 35.323827695861894, 64.398563450082406 ], [ 35.355573052413206, 64.394975660929163 ], [ 35.367321519854215, 64.39467834367673 ], [ 35.400130959817147, 64.387752598399004 ], [ 35.448057222885836, 64.382212917098514 ], [ 35.466818265405891, 64.389449460377421 ], [ 35.51580054160155, 64.407590539092723 ], [ 35.535796404205087, 64.405739626596244 ], [ 35.563155129850259, 64.404086271824895 ], [ 35.60009337027077, 64.420019881203302 ], [ 35.642766729986874, 64.423769473105494 ], [ 35.673870163202196, 64.412303694498405 ], [ 35.688275781009054, 64.408943333859611 ], [ 35.757671717401593, 64.399320585998851 ], [ 35.77448652615567, 64.392881236974176 ], [ 35.829839508576811, 64.352170156485897 ], [ 35.838580736319329, 64.347243185293451 ], [ 35.843629761489922, 64.346349238359949 ], [ 35.864698001318175, 64.343604535799386 ], [ 35.927360258458123, 64.340382440153974 ], [ 35.948354822550868, 64.335117428509022 ], [ 35.981988045728883, 64.347100965827906 ], [ 36.015922204682283, 64.349400914339753 ], [ 36.041708172641052, 64.341694087354085 ], [ 36.0605866402949, 64.319170856309938 ], [ 36.093015282378531, 64.308266099578759 ], [ 36.081633854031736, 64.278233469667612 ], [ 36.089631438644574, 64.251241576290283 ], [ 36.131655478420839, 64.215906159828648 ], [ 36.142549938758748, 64.210609514819339 ], [ 36.145119984685266, 64.207861685925309 ], [ 36.205287243199507, 64.181405234401723 ], [ 36.209378201725599, 64.179388343673168 ], [ 36.254055325938737, 64.15220982357647 ], [ 36.266695184778712, 64.145809750283775 ], [ 36.294726016436471, 64.150187556639253 ], [ 36.310378700709464, 64.136651889264556 ], [ 36.344849793666071, 64.137215959868684 ], [ 36.387346218391031, 64.131580530309407 ], [ 36.403768111729732, 64.128734981790444 ], [ 36.420767297946441, 64.10393750616646 ], [ 36.427061592017822, 64.0958292338874 ], [ 36.450402436181378, 64.082589430800112 ], [ 36.459193773498555, 64.081218149134656 ], [ 36.464075213425645, 64.078733842405256 ], [ 36.485371858587371, 64.041962023871861 ], [ 36.49001108315133, 64.039595691629188 ], [ 36.498300581843068, 64.033118056828357 ], [ 36.546900410765375, 64.014827254304748 ], [ 36.591132504538109, 64.00115757865575 ], [ 36.618267018522658, 64.008459749446104 ], [ 36.66145811723618, 63.99058563568542 ], [ 36.681071358783868, 63.986827625780393 ], [ 36.735818268698495, 63.973444134811928 ], [ 36.741817740894476, 63.972949765775411 ], [ 36.80722151472952, 63.96571290340222 ], [ 36.809315970342197, 63.965802752984018 ], [ 36.839043653450062, 63.989122812239771 ], [ 36.877656332035258, 63.957782568944822 ], [ 36.89681621878475, 63.95955602542017 ], [ 36.948724859186825, 63.971883498838054 ], [ 36.96419200115281, 63.951674909545602 ], [ 36.971322540179244, 63.947399923385149 ], [ 37.003235504271345, 63.936414847717913 ], [ 37.021486332279892, 63.937749926375545 ], [ 37.029749476925758, 63.931802382205319 ], [ 37.064055249982687, 63.944002402269689 ], [ 37.089327421497842, 63.938281811319087 ], [ 37.122487314762168, 63.954455624450873 ], [ 37.13910940106507, 63.935255825483296 ], [ 37.157569544226192, 63.93909890042778 ], [ 37.212486775493744, 63.908599062757219 ], [ 37.212490597536146, 63.908596715209683 ], [ 37.252891686177463, 63.875123031779424 ], [ 37.272235081731253, 63.855589446520753 ], [ 37.307794357508158, 63.86896898779014 ], [ 37.387649486321607, 63.879914939992943 ], [ 37.395762244024922, 63.878500399147072 ], [ 37.471464228296156, 63.867905243550979 ], [ 37.474757351334063, 63.866606302945058 ], [ 37.480730001872871, 63.864712735769103 ], [ 37.508756421302678, 63.880749820065944 ], [ 37.51539056606282, 63.901502314467621 ], [ 37.577098684036173, 63.923116073663493 ], [ 37.590744482571722, 63.930850283315635 ], [ 37.612946599198153, 63.949416966006652 ], [ 37.649565343905238, 63.9458423420146 ], [ 37.673295956439802, 63.947735298042971 ], [ 37.686802343148941, 63.939578355883043 ], [ 37.701029436277281, 63.94498783163732 ], [ 37.760622323559915, 63.971886849139992 ], [ 37.780292362647742, 63.995212697787792 ], [ 37.802000358886346, 64.023003675593031 ], [ 37.855571166910636, 64.037802549504761 ], [ 37.881218474998605, 64.025283407769223 ], [ 37.885058861884431, 64.015088608553924 ], [ 37.9002713287191, 64.019045603166944 ], [ 37.905284266580679, 64.026605505852899 ], [ 37.966912515043191, 64.052003979399217 ], [ 37.973655266050685, 64.057182561340653 ], [ 37.973774589903883, 64.060370000013847 ], [ 37.968771485531875, 64.061354687081007 ], [ 37.967850033935918, 64.065656289698381 ], [ 37.937591437708704, 64.115486782251594 ], [ 37.912710331740641, 64.182055950506879 ], [ 37.912369552923394, 64.184166260925906 ], [ 37.911216878812411, 64.183494128014104 ], [ 37.840949785426403, 64.216552695081191 ], [ 37.840390546047331, 64.245224241156507 ], [ 37.825459430983869, 64.255070544546527 ], [ 37.814351064131188, 64.266468737587331 ], [ 37.770853265199548, 64.285265084916432 ], [ 37.754194776684017, 64.292747106981608 ], [ 37.713955072849899, 64.312545871933196 ], [ 37.712075585368495, 64.313107170219268 ], [ 37.667706197640712, 64.326920625040714 ], [ 37.64789977010156, 64.332247863316297 ], [ 37.645908018544958, 64.332643353867866 ], [ 37.585785528157487, 64.324065207012609 ], [ 37.562213844332405, 64.331858632122135 ], [ 37.497563631342928, 64.341745226687749 ], [ 37.4802128884985, 64.341307935894292 ], [ 37.475909685461431, 64.343021169504937 ], [ 37.415931485345936, 64.339221469232086 ], [ 37.392092382699161, 64.323027030852302 ], [ 37.311865310697613, 64.324197880178076 ], [ 37.292498912847805, 64.325702598383941 ], [ 37.215052295541682, 64.337673773428946 ], [ 37.193543198980421, 64.341535261693934 ], [ 37.131549974077757, 64.359962628903304 ], [ 37.110880724172716, 64.37878636602187 ], [ 37.077676350530965, 64.392547616131253 ], [ 37.048646697840013, 64.407392560802805 ], [ 37.022018316405592, 64.426164996672071 ], [ 36.995504283753689, 64.440510391144926 ], [ 36.962520405002579, 64.461381530291078 ], [ 36.937252034469566, 64.470432937658188 ], [ 36.898810516955621, 64.495173973660656 ], [ 36.881320855063734, 64.50749462404201 ], [ 36.838538410927924, 64.534580160103303 ], [ 36.82348520722735, 64.548910785393673 ], [ 36.79216078787789, 64.576891568613178 ], [ 36.776781570919468, 64.606369623259468 ], [ 36.755944748951208, 64.621843925331746 ], [ 36.73516668948281, 64.643773270861971 ], [ 36.716354888514672, 64.659144052071554 ], [ 36.683555609859468, 64.680603624678099 ], [ 36.657217552481541, 64.695116144743281 ], [ 36.608265586619382, 64.685747284856973 ], [ 36.546589516961888, 64.676663641916207 ], [ 36.546239969065994, 64.699885648977329 ], [ 36.528638696425389, 64.712411554657649 ], [ 36.493791113254815, 64.735743481120153 ], [ 36.488437187061265, 64.752618659349537 ], [ 36.470538553563586, 64.780231896718703 ], [ 36.456598294247669, 64.806121390134649 ], [ 36.454824038060849, 64.820845637303194 ], [ 36.454628872299622, 64.872410503328808 ], [ 36.460204395589244, 64.878666909567926 ], [ 36.452232223022349, 64.875087771870426 ], [ 36.510235700279736, 64.931747234793818 ], [ 36.529217847546533, 64.936521718569622 ], [ 36.534465355413715, 64.93711408002639 ] ], [ [ 36.545287020629758, 64.938335676551162 ], [ 36.55651428610156, 64.939603058992475 ], [ 36.635731523867491, 64.952467355218744 ], [ 36.691234720183274, 64.960217287258331 ], [ 36.727445388227409, 64.967464795074306 ], [ 36.746734341340925, 64.989543677333131 ], [ 36.769864393339958, 65.002145538721493 ], [ 36.796701335314424, 65.007736442576345 ] ], [ [ 37.646809125033087, 65.051655424343494 ], [ 37.688720498208625, 65.040552688871685 ], [ 37.728102989516685, 65.028561911087309 ], [ 37.722644764434335, 65.015491919431781 ] ], [ [ 37.989187652483167, 64.888386443467823 ], [ 38.012995432956814, 64.887229112078842 ], [ 38.056403914892883, 64.868071376171315 ] ], [ [ 38.43820640892568, 64.830940402845442 ], [ 38.47728925743661, 64.821892882842917 ], [ 38.500342424558028, 64.805979916712886 ] ], [ [ 38.597626209901534, 64.787653152389339 ], [ 38.610647362886198, 64.790837002136016 ], [ 38.664894694127838, 64.799084440477714 ], [ 38.675597655343267, 64.780152722665605 ], [ 38.720247577446514, 64.77327516154412 ], [ 38.765313890016955, 64.7840641177973 ], [ 38.775665357523451, 64.765884723725435 ], [ 38.824683691877112, 64.763590368540463 ], [ 38.871080478260467, 64.774596325467485 ], [ 38.878220885613644, 64.756868576303532 ], [ 38.935577990778256, 64.734083650513696 ], [ 38.956527615439086, 64.730558317620364 ], [ 39.014267827537083, 64.727896408432684 ], [ 39.054443403820301, 64.715226452550382 ], [ 39.064785382577384, 64.710771963528089 ] ], [ [ 39.327937839281333, 64.637357329156202 ], [ 39.36231670054633, 64.64444203576943 ], [ 39.408746940196693, 64.622992847595015 ], [ 39.431573611777196, 64.608444878780688 ] ], [ [ 39.66482385032765, 64.573876225200138 ], [ 39.713790465746627, 64.58533047628589 ], [ 39.736279882941801, 64.616524413104401 ], [ 39.750945603700643, 64.638924706250805 ], [ 39.757698927169258, 64.647744190620813 ], [ 39.761145941745838, 64.690662162058402 ], [ 39.761944192818191, 64.693937284864774 ], [ 39.831273486292105, 64.710638069813342 ], [ 39.864169631178811, 64.721176834769665 ], [ 39.889025963450024, 64.742592136652092 ], [ 39.93552076690321, 64.744721853836381 ], [ 39.949496480840082, 64.752121158635475 ], [ 39.974711090577273, 64.780018212168329 ], [ 40.032306108860269, 64.792733946655176 ], [ 40.102384017544068, 64.786399855478635 ], [ 40.120005351065629, 64.806895464142201 ], [ 40.138712522988499, 64.823587853839911 ], [ 40.153695337812678, 64.843767838414465 ], [ 40.173669261763393, 64.862921022173452 ], [ 40.165750649834195, 64.916864479419075 ], [ 40.156487815955245, 64.94993098561838 ], [ 40.148321728160283, 64.966856424005584 ], [ 40.13644218055191, 64.994955858110245 ], [ 40.121401985114062, 65.012524972848041 ], [ 40.102808788433435, 65.039902751112038 ], [ 40.100873718132846, 65.077709420580561 ], [ 40.07580213367703, 65.098834384996678 ], [ 40.080037222982412, 65.090986218219768 ], [ 40.016965366881834, 65.097894928480002 ], [ 39.989864675604622, 65.117569050071438 ], [ 39.977988107090027, 65.139577863490672 ], [ 39.972262000781427, 65.159509229364687 ], [ 39.969569396271254, 65.18734203693748 ], [ 39.970750781223614, 65.197015849152763 ] ], [ [ 40.294478801791172, 65.741679446342232 ], [ 40.296334271544879, 65.748476879281952 ], [ 40.312527213383987, 65.773864040478713 ], [ 40.355277127946465, 65.787358873651215 ], [ 40.391010798745526, 65.783164938585514 ] ], [ [ 40.459682748721093, 65.817355883056166 ], [ 40.468970049372786, 65.836781028338009 ], [ 40.493948205974561, 65.854287442609461 ], [ 40.52380628639014, 65.876304747143877 ], [ 40.547886275595431, 65.893672929716558 ], [ 40.575232963325163, 65.916317626586533 ], [ 40.603322661863899, 65.932553454014965 ], [ 40.628431644319789, 65.921767226449447 ], [ 40.631184292375451, 65.923006567284062 ] ], [ [ 40.74907377607957, 65.980405080223079 ], [ 40.749730210041832, 65.980800875215266 ], [ 40.798039149496617, 66.011126799163264 ], [ 40.854010982464388, 66.015493292903557 ], [ 40.862012676766028, 66.01239543972514 ] ] ] } },
{ "type": "Feature", "properties": { "gid": 2, "objectid": 33.0, "z": 0.2, "index": 0.0, "z1": 0.0, "z2": 0.0, "index1": 0.0, "index2": 0.0 }, "geometry": { "type": "MultiLineString", "coordinates": [ [ [ 35.651451406356557, 65.035859934108942 ], [ 35.62618909854433, 65.029656460865226 ], [ 35.596925825215351, 65.034841231681639 ], [ 35.58468583076683, 65.037274005051586 ], [ 35.560521922532644, 65.045267472705746 ], [ 35.551232017820496, 65.050557557333377 ], [ 35.538935085860487, 65.063176840976666 ], [ 35.526286782503973, 65.069150049104792 ], [ 35.531011037095595, 65.098825531884302 ], [ 35.541971390837716, 65.100915935698083 ], [ 35.560213398737687, 65.109683300735981 ], [ 35.581320565710485, 65.124170923780127 ], [ 35.622289641982263, 65.150621511646079 ], [ 35.636264298766037, 65.156610560185129 ], [ 35.656014126852938, 65.157300682418281 ], [ 35.678184233453067, 65.175262563094236 ], [ 35.697456208777965, 65.178778502966509 ], [ 35.717254379458666, 65.18150283187066 ], [ 35.740068247512738, 65.183242079710965 ], [ 35.758851614831656, 65.184521550643751 ], [ 35.798697344489483, 65.179246228508532 ], [ 35.822512433682277, 65.167387595494802 ], [ 35.835895718235349, 65.155526338523543 ], [ 35.843239548583483, 65.139160905408005 ], [ 35.851990771934766, 65.133641880263951 ], [ 35.871081684104809, 65.130175906138959 ], [ 35.875185464803565, 65.120783380891282 ], [ 35.877381453916428, 65.108933950443429 ], [ 35.87933355246787, 65.095175071248491 ], [ 35.864178690502854, 65.093332108605011 ], [ 35.866742178455809, 65.083737819859493 ], [ 35.879771490581334, 65.079348563205713 ], [ 35.883322399448048, 65.069226641830028 ], [ 35.900751855373528, 65.065173512175534 ], [ 35.9089356700606, 65.067342112037352 ], [ 35.940702622337994, 65.064304577936127 ], [ 35.95487462330135, 65.065729367714198 ], [ 35.981773286974317, 65.064186323063041 ], [ 35.998592415602616, 65.064101296171543 ], [ 36.01965013596066, 65.058630198229366 ], [ 36.01830297946799, 65.048128206886872 ], [ 36.015936819589115, 65.030398572511331 ], [ 36.013705634319308, 65.027776723480258 ], [ 36.005544997178333, 65.007370440044781 ], [ 35.988825145337671, 65.005040015792474 ], [ 35.974970569292168, 65.001470898998377 ], [ 35.96875394536255, 65.005426962827244 ], [ 35.952149789282089, 65.006900217838904 ], [ 35.939059645777832, 65.003331332845846 ], [ 35.928132006461908, 64.9990245931441 ], [ 35.906947335813982, 64.993721390310441 ], [ 35.895601921725813, 64.990457330521224 ], [ 35.890290430248569, 64.993439675203376 ], [ 35.866834023239846, 64.984015635393007 ], [ 35.844803633070114, 64.975974273875181 ], [ 35.830319105993169, 64.972823782936814 ], [ 35.806002453049643, 64.965635439708421 ], [ 35.777760160450327, 64.967507553654229 ], [ 35.773352351960057, 64.96621377212432 ], [ 35.759843430434671, 64.951332208882377 ], [ 35.749370433284582, 64.948882214976152 ], [ 35.741786348338792, 64.952134408347831 ], [ 35.731381172288934, 64.966510361395194 ], [ 35.72989764594962, 64.966753097105652 ], [ 35.704196593567872, 64.966724260804824 ], [ 35.700181068674283, 64.982919441790784 ], [ 35.715590194853576, 64.997791401321706 ], [ 35.714598552153006, 65.004993858816249 ], [ 35.710619455348933, 65.008242271531458 ], [ 35.681971362533602, 65.023293086076706 ], [ 35.665218739191914, 65.033815892573443 ], [ 35.651451406356557, 65.035859934108942 ] ] ] } },
{ "type": "Feature", "properties": { "gid": 4, "objectid": 49.0, "z": 0.6, "index": 0.0, "z1": 0.0, "z2": 0.0, "index1": 0.0, "index2": 0.0 }, "geometry": { "type": "MultiLineString", "coordinates": [ [ [ 35.670957441627252, 65.872811690755043 ], [ 35.627530821668188, 65.841000569776952 ], [ 35.588749221813487, 65.79929008282852 ], [ 35.580460703225981, 65.790116266427503 ], [ 35.566659255058767, 65.76951770841697 ], [ 35.558001429890282, 65.755583622336417 ], [ 35.556146776849346, 65.751361042643111 ], [ 35.538877345297806, 65.716979982174962 ], [ 35.534070263191097, 65.704625673068222 ], [ 35.526031173900265, 65.670235938046972 ], [ 35.526896841700363, 65.651304058210371 ], [ 35.535710379292141, 65.606957140542363 ], [ 35.542799209022633, 65.583405430403218 ], [ 35.561486249658628, 65.536286858150561 ], [ 35.562751835783274, 65.531520603901299 ], [ 35.566279953498452, 65.524902564357035 ], [ 35.585945713643014, 65.485101198963093 ], [ 35.608924185216893, 65.449847885545751 ], [ 35.613114925898117, 65.444411117096024 ], [ 35.665812049741362, 65.398384904288832 ], [ 35.669394385611668, 65.395428946474567 ], [ 35.706627855848637, 65.378884533569362 ], [ 35.72038595871345, 65.372458169040328 ], [ 35.75912146022165, 65.362568429016392 ], [ 35.776491150234506, 65.351217546951375 ], [ 35.801004800636292, 65.346550297617796 ], [ 35.836363998576417, 65.335712407133542 ], [ 35.844611491389514, 65.334467283482809 ], [ 35.866949557286716, 65.328952497729915 ], [ 35.886298607227218, 65.325148278814595 ], [ 35.893181245042797, 65.323070365757303 ], [ 35.925554311030282, 65.31807227223544 ], [ 35.948715883787372, 65.312993512699904 ], [ 35.962265451140411, 65.312037881772994 ], [ 35.988648915732483, 65.307564350609027 ], [ 36.000011127598555, 65.306315501522477 ], [ 36.006932298914762, 65.304931333826971 ], [ 36.033370171087881, 65.303458987134945 ], [ 36.067977095910464, 65.298297031833499 ], [ 36.070115802922373, 65.298093889505253 ], [ 36.071936573142011, 65.297769774289918 ], [ 36.102359677632194, 65.296178866177797 ], [ 36.132062318105454, 65.292132567228691 ], [ 36.138599083595182, 65.291466098868113 ], [ 36.144648549718113, 65.290147164872906 ], [ 36.170256832290761, 65.288018034701963 ], [ 36.199194919292495, 65.281937130959705 ], [ 36.205746384439408, 65.281518706917268 ], [ 36.212727143440134, 65.280569012087653 ], [ 36.23882258728554, 65.279096134028805 ], [ 36.269817207456072, 65.275009093580593 ], [ 36.277095688277768, 65.274685612326721 ], [ 36.284612770017702, 65.27362530141545 ], [ 36.311018101700029, 65.271790996641357 ], [ 36.342906828827836, 65.266137176375196 ], [ 36.349525119803729, 65.265587924222928 ], [ 36.358558552969043, 65.264254160920245 ], [ 36.412692544672609, 65.255917723879975 ], [ 36.42418260226259, 65.255488500588399 ], [ 36.467732457454986, 65.25486800307408 ], [ 36.487964909905713, 65.254815836033231 ], [ 36.494553675271163, 65.255368137164623 ], [ 36.542159077460383, 65.258522458148946 ], [ 36.572930822509079, 65.259433629562409 ], [ 36.585163345254841, 65.260258666050504 ], [ 36.600204875878262, 65.260331589564885 ], [ 36.645620116458304, 65.26402830985171 ], [ 36.703358415234106, 65.266874494023796 ], [ 36.720869825661794, 65.268156749996706 ], [ 36.752647608485859, 65.271450442756759 ], [ 36.802859006598737, 65.278198241157952 ], [ 36.818810733602731, 65.280600919973949 ], [ 36.894868941559253, 65.288106982785393 ], [ 36.927438412898482, 65.289051347634086 ], [ 36.959544806933991, 65.292176675757219 ], [ 36.990974874268431, 65.292050929936522 ], [ 37.001009695362882, 65.296756214560446 ], [ 37.025193001612934, 65.294229318045836 ], [ 37.055911120154633, 65.297702695152111 ], [ 37.101380185744347, 65.296962088435976 ], [ 37.109356085926265, 65.298538760936935 ], [ 37.122485363313899, 65.297402038664586 ], [ 37.159407028932037, 65.300120476134907 ], [ 37.225869634337869, 65.298485744802747 ], [ 37.226437175097089, 65.298522122266149 ], [ 37.227258111110132, 65.298475897136086 ], [ 37.262865307657194, 65.300093906618713 ], [ 37.319678367828601, 65.29890883970802 ], [ 37.336160362308874, 65.297352593661344 ], [ 37.384311032914411, 65.295970791248692 ], [ 37.435385277345631, 65.29477251717617 ], [ 37.458617359552591, 65.293411686103354 ], [ 37.527929078918532, 65.289244011630217 ], [ 37.54056577476149, 65.288594113681029 ], [ 37.546320607056259, 65.288025514386391 ], [ 37.64017361164224, 65.278001893493638 ], [ 37.679243937222054, 65.273174569247203 ], [ 37.739131694761454, 65.264826801507297 ], [ 37.806352825933573, 65.2546311740698 ], [ 37.836858100774407, 65.24964820265086 ], [ 37.931274082358868, 65.233176938843826 ], [ 37.932529537549271, 65.232940825615515 ], [ 37.935993560848146, 65.232255482522305 ], [ 38.026085087618412, 65.215202911655069 ], [ 38.072515713978646, 65.205408573925524 ], [ 38.115731602229062, 65.197264906608325 ], [ 38.138564740434958, 65.19263057615899 ], [ 38.198646165041282, 65.182572652007366 ], [ 38.202815503318561, 65.181897232167103 ], [ 38.20497454771612, 65.181576154998766 ], [ 38.269341868010088, 65.170998631041584 ], [ 38.303370670011645, 65.165797048641252 ], [ 38.340263341666287, 65.159518571163062 ], [ 38.405386311314942, 65.149256063625216 ], [ 38.415159466985642, 65.147659593396384 ], [ 38.467212140007177, 65.140386365652375 ], [ 38.514991762152931, 65.133657354504976 ], [ 38.53191124408113, 65.131352513002639 ], [ 38.583114482702513, 65.125627854227787 ], [ 38.634186971277813, 65.118697990357759 ], [ 38.636562016519747, 65.118418877384102 ], [ 38.69391522173828, 65.113630608793756 ], [ 38.740396887686074, 65.10852852192329 ], [ 38.750650290097838, 65.108156689591851 ], [ 38.761721743900125, 65.107922886483721 ], [ 38.804391920610215, 65.108960654073599 ], [ 38.833981495088665, 65.108314823701221 ], [ 38.859979893579293, 65.109933085896046 ], [ 38.907985867910611, 65.111936253604654 ], [ 38.916246120566939, 65.11268560762619 ], [ 38.922253238117264, 65.112683473322249 ], [ 38.976916908857675, 65.117962203767092 ], [ 39.013651852743351, 65.121400226449623 ], [ 39.041674220236018, 65.125673874576023 ], [ 39.106463930180325, 65.13812318165219 ], [ 39.107185224802379, 65.13830667615548 ], [ 39.108650107875292, 65.13872010149862 ], [ 39.166670335078379, 65.154578229878098 ], [ 39.192705876041146, 65.162240840250888 ], [ 39.225724627875024, 65.174376487095287 ], [ 39.271353042706323, 65.192396996568277 ], [ 39.282622805214487, 65.197422854958859 ], [ 39.3432878591193, 65.226498977146548 ], [ 39.344009516444203, 65.226920253779099 ], [ 39.363109023608558, 65.239463590783998 ], [ 39.406195463390759, 65.267587750728126 ], [ 39.407452246035973, 65.268537480067607 ], [ 39.414148036586994, 65.274718217217014 ], [ 39.464937593322247, 65.320585513738479 ], [ 39.504743096655147, 65.377110894274665 ], [ 39.521332414024073, 65.405099232411885 ], [ 39.528925527047249, 65.427255517679441 ], [ 39.532186082160479, 65.434119846500835 ], [ 39.550920873345603, 65.468474107110524 ], [ 39.570693024590582, 65.485995302184165 ], [ 39.580995654741855, 65.506659367703833 ], [ 39.597711594618886, 65.523078842605173 ], [ 39.609478449685412, 65.55254405319647 ], [ 39.634624027945392, 65.582075214664656 ], [ 39.652710831651348, 65.596708671389933 ], [ 39.694983473138564, 65.644434439589531 ], [ 39.700052445416077, 65.650630196836573 ], [ 39.707050100416382, 65.657705460042052 ], [ 39.709567436555517, 65.674107588281913 ], [ 39.715265109687607, 65.715078052213357 ], [ 39.711593520700262, 65.765805491890205 ], [ 39.711006861700298, 65.768004938840022 ], [ 39.709723148986086, 65.769892438987881 ], [ 39.685965172564465, 65.815226230130065 ], [ 39.648369452981569, 65.840376302752702 ], [ 39.619347597050364, 65.855915832933533 ], [ 39.602238766863593, 65.864915859983739 ], [ 39.551151309755369, 65.886347963616572 ], [ 39.53412033467248, 65.894432865974522 ], [ 39.528959780447622, 65.897213511423615 ], [ 39.460205662078806, 65.910032635150856 ], [ 39.431398907796392, 65.918931593601883 ], [ 39.399860885314411, 65.921220085256209 ], [ 39.346092265335756, 65.931991510184162 ], [ 39.343399136811058, 65.931841188281396 ], [ 39.339606818386528, 65.932493653814163 ], [ 39.277717246914108, 65.935375422257493 ], [ 39.250968973599811, 65.939862516337598 ], [ 39.214771338971332, 65.939316976771806 ], [ 39.168956430210528, 65.945955347604468 ], [ 39.159274642497621, 65.946487654742668 ], [ 39.154967991984449, 65.947200988615805 ], [ 39.088267774532142, 65.946934106701519 ], [ 39.049523394773132, 65.951869250060554 ], [ 39.032296404802764, 65.949945207721612 ], [ 39.005635314046231, 65.953701179751079 ], [ 38.963794618677639, 65.953941964948172 ], [ 38.944186311022349, 65.956563481417106 ], [ 38.901869259403611, 65.953155009370676 ], [ 38.84393130517492, 65.96245690422802 ], [ 38.843236059758055, 65.962153659278556 ], [ 38.83930150463857, 65.962744886630389 ], [ 38.773892021585198, 65.960899328263622 ], [ 38.735783493815688, 65.964630990933074 ], [ 38.722554881886026, 65.960415078425285 ], [ 38.692560185678303, 65.964747470829025 ], [ 38.655699407623615, 65.962394844053051 ], [ 38.624799303335749, 65.965169806018821 ], [ 38.600802989323711, 65.957873416264192 ], [ 38.559426706917293, 65.966326305406255 ], [ 38.53470495367219, 65.964902283445554 ], [ 38.512476564872486, 65.966780231203302 ], [ 38.479810215150792, 65.955420381571457 ], [ 38.431536176260124, 65.968439161180868 ], [ 38.414288055158977, 65.967576411334448 ], [ 38.397290171618806, 65.968821444515925 ], [ 38.359150735523144, 65.956985168824758 ], [ 38.311136572763644, 65.970213752483687 ], [ 38.294242609590583, 65.969367037207121 ], [ 38.275695314063341, 65.970644966753753 ], [ 38.238586351955746, 65.961963516958349 ], [ 38.198556157076382, 65.971492366115854 ], [ 38.174910159239516, 65.970270779136627 ], [ 38.146915027860814, 65.9722162708822 ], [ 38.118320172892709, 65.96661417163341 ], [ 38.088266970156837, 65.973074998662923 ], [ 38.055942183273146, 65.971409015000972 ], [ 38.016946546453255, 65.974451275182219 ], [ 37.997454140717309, 65.970789713599515 ], [ 37.976813159286394, 65.974986988559976 ], [ 37.93580259652299, 65.97260320492569 ], [ 37.886494666894578, 65.977232749417453 ], [ 37.875831763034512, 65.975798302999465 ], [ 37.864542926883587, 65.977470428049855 ], [ 37.8145599113559, 65.973869745252159 ], [ 37.753324865610921, 65.980493699171348 ], [ 37.752971696794702, 65.980483588220523 ], [ 37.75260268126658, 65.9805015707243 ], [ 37.693057076252444, 65.975590667640063 ], [ 37.648534161729913, 65.981594078879425 ], [ 37.630042987617344, 65.981112465364276 ], [ 37.609184216278663, 65.982291951408115 ], [ 37.571827510819276, 65.978857001457072 ], [ 37.548292007799319, 65.981591739186115 ], [ 37.506258104680455, 65.979940943918336 ], [ 37.458732972667349, 65.985308762144996 ], [ 37.451987277079752, 65.984967233118368 ], [ 37.447847921932407, 65.985347116900812 ], [ 37.383981110251625, 65.981746282825043 ], [ 37.349583517323481, 65.986419403128821 ], [ 37.326482021526317, 65.985838989021431 ], [ 37.293459651311423, 65.988808998517925 ], [ 37.263433438973152, 65.987459236392169 ], [ 37.250615779008513, 65.988618601564667 ], [ 37.19922180010326, 65.985973614446266 ], [ 37.150152197664283, 65.992460102806945 ], [ 37.124728666763986, 65.993546832465654 ], [ 37.073923821735661, 65.991093929307681 ], [ 37.048278952544933, 65.993622475478332 ], [ 37.006373357009579, 65.992265357024735 ], [ 36.962133140186779, 65.999295326993888 ], [ 36.948855181468389, 65.999330003072828 ], [ 36.940192045934964, 65.999885304088821 ], [ 36.876633239568037, 65.996079843658663 ], [ 36.828241798619274, 66.002835699633579 ], [ 36.809049749357655, 66.003778493508435 ], [ 36.755711716348742, 66.001653386403632 ], [ 36.712988624665741, 66.005229484297161 ], [ 36.701556194686418, 66.003116847012279 ], [ 36.6722753706199, 66.006146195290057 ], [ 36.63684110802933, 66.004338947506767 ], [ 36.59419613317732, 66.007328596329899 ], [ 36.573688885135198, 66.004449825097254 ], [ 36.537449870174896, 66.007999337532965 ], [ 36.509104713699344, 66.006591619279789 ], [ 36.47662963456969, 66.007809375510988 ], [ 36.447582943175803, 66.002795474600134 ], [ 36.395131444187427, 66.007686413828196 ], [ 36.378338665595948, 66.007077180227498 ], [ 36.359692256028211, 66.007429591303662 ], [ 36.322536919949926, 66.000224428553338 ], [ 36.235061446637701, 66.004399756086059 ], [ 36.23465879340074, 66.004384817122627 ], [ 36.234310544270556, 66.004392707316583 ], [ 36.205437928867468, 65.99625467174701 ], [ 36.142720293140883, 65.997725207285839 ], [ 36.101967125210649, 65.995704161712638 ], [ 35.986596659477073, 65.989007840420527 ], [ 35.983029482216807, 65.988579875280266 ], [ 35.9820723281955, 65.988330295185733 ], [ 35.977759390141728, 65.987533839535899 ], [ 35.884305519441114, 65.968460226187744 ], [ 35.834152162165992, 65.950597235292662 ], [ 35.800628579963814, 65.941344479600957 ], [ 35.782054463303211, 65.932822259845125 ], [ 35.715305106354208, 65.89869868200185 ], [ 35.6985585483053, 65.891427884947916 ], [ 35.670957441627252, 65.872811690755043 ] ] ] } },
{ "type": "Feature", "properties": { "gid": 5, "objectid": 50.0, "z": 0.0, "index": 0.0, "z1": 1.0, "z2": 0.0, "index1": 0.0, "index2": 0.0 }, "geometry": { "type": "MultiLineString", "coordinates": [ [ [ 37.155675912000049, 66.246296678000078 ], [ 37.294824219000077, 66.22504882800007 ], [ 37.628222656000048, 66.129589844000066 ], [ 37.900683594000043, 66.095605469000077 ], [ 38.397558594000031, 66.064453125000057 ], [ 38.653906250000034, 66.069042969000066 ], [ 39.289062500000057, 66.132031250000068 ], [ 40.10332031300004, 66.299951172000078 ], [ 40.521582031000037, 66.446630859000038 ], [ 40.603875935000076, 66.493148018000056 ], [ 40.623909178000076, 66.455838207000056 ], [ 40.869547932000046, 65.998361818000035 ], [ 40.774414063000052, 65.987890625000034 ], [ 40.691601563000063, 65.963427734000049 ], [ 40.512792969000031, 65.843798828000047 ], [ 40.327832031000071, 65.751708984000061 ], [ 39.816503906000037, 65.597949219000043 ], [ 39.781152344000077, 65.534716797000044 ], [ 39.749121094000031, 65.447949219000066 ], [ 39.798046875000068, 65.349853516000053 ], [ 39.896484375000057, 65.254785156000082 ], [ 40.142675781000037, 65.063281250000045 ], [ 40.28125, 64.998095703000047 ], [ 40.37539062500008, 64.89628906300004 ], [ 40.444921875000034, 64.778710938000074 ], [ 40.407812500000034, 64.754882813000052 ], [ 40.203710938000029, 64.784033203000035 ], [ 40.057812500000068, 64.770751953000058 ], [ 39.848632813000052, 64.690527344000031 ], [ 39.833007813000052, 64.656396484000084 ], [ 39.758007813000063, 64.577050781000082 ], [ 39.567382813000052, 64.570556641000053 ], [ 39.053515625000045, 64.713916016000042 ], [ 38.61308593800004, 64.786669922000044 ], [ 38.540917969000077, 64.791259766000053 ], [ 38.441992188000029, 64.827148438000052 ], [ 38.412109375000057, 64.857080078000081 ], [ 38.228222656000071, 64.851220703000081 ], [ 38.115722656000059, 64.854589844000031 ], [ 38.009375, 64.87875976600003 ], [ 37.528125, 65.108251953000035 ], [ 37.140820313000063, 65.194287109000072 ], [ 37.050195313000074, 65.195898438000029 ], [ 36.882812500000057, 65.172363281000059 ], [ 36.785937500000045, 64.987158203000035 ], [ 36.652929688000029, 64.935449219000077 ], [ 36.534570313000074, 64.938623047000078 ], [ 36.528222656000025, 64.847363281000071 ], [ 36.578710938000029, 64.790966797000067 ], [ 36.624218750000068, 64.750537109000049 ], [ 36.76933593800004, 64.685253906000071 ], [ 37.040429688000074, 64.489160156000082 ], [ 37.183691406000037, 64.408496094000043 ], [ 37.289550781000059, 64.377929688000052 ], [ 37.429589844000077, 64.373583984000049 ], [ 37.740625, 64.396972656000059 ], [ 37.84355468800004, 64.366308594000031 ], [ 37.953710938000029, 64.32011718800004 ], [ 37.977148438000029, 64.207031250000057 ], [ 38.062207031000071, 64.091015625000068 ], [ 38.070800781000059, 64.02583007800007 ], [ 37.967968750000068, 63.949121094000077 ], [ 37.635351563000029, 63.893408203000035 ], [ 37.442187500000045, 63.813378906000082 ], [ 37.372753906000071, 63.816748047000033 ], [ 36.975195313000029, 63.909521484000038 ], [ 36.713769531000025, 63.945068359000061 ], [ 36.364941406000071, 64.002832031000082 ], [ 36.301953125000068, 64.034375 ], [ 36.146484375000057, 64.189013672000044 ], [ 35.802050781000048, 64.335351563000074 ], [ 35.647070313000029, 64.378320313000074 ], [ 35.43203125000008, 64.346777344000031 ], [ 35.284082031000025, 64.362548828000058 ], [ 35.035351563000063, 64.440234375000045 ], [ 34.86953125000008, 64.560009766000064 ], [ 34.858300781000025, 64.706689453000081 ], [ 34.905468750000068, 64.73867187500008 ], [ 34.952246094000031, 64.755957031000037 ], [ 34.832617188000029, 64.800195313000074 ], [ 34.827148438000052, 64.912695313000029 ], [ 34.803515625000045, 64.985986328000081 ], [ 34.671093750000068, 65.168115234000084 ], [ 34.535937500000045, 65.277929688000029 ], [ 34.406445313000063, 65.395751953000058 ], [ 34.544140625000068, 65.456689453000081 ], [ 34.615722656000059, 65.509912109000084 ], [ 34.715527344000066, 65.664062500000057 ], [ 34.73476562500008, 65.716308594000054 ], [ 34.776953125000034, 65.768261719000066 ], [ 34.793164063000063, 65.816357422000067 ], [ 34.786328125000068, 65.864550781000048 ], [ 34.69179687500008, 65.951855469000066 ], [ 34.399804688000074, 66.128417969000054 ], [ 34.112695313000074, 66.225244141000076 ], [ 33.566699219000043, 66.320996094000066 ], [ 33.41582031300004, 66.315625 ], [ 33.360546875000068, 66.329541016000064 ], [ 33.47695312500008, 66.346875 ], [ 33.593261719000054, 66.38457031300004 ], [ 33.655957031000071, 66.442626953000058 ], [ 33.517675781000037, 66.471386719000066 ], [ 33.405273438000052, 66.484277344000077 ], [ 33.217382813000029, 66.53164062500008 ], [ 33.182910156000048, 66.573876953000081 ], [ 33.22441406300004, 66.603857422000033 ], [ 33.180566406000025, 66.679931641000053 ], [ 32.928710938000052, 66.704101563000052 ], [ 32.862402344000031, 66.721386719000066 ], [ 32.857324219000077, 66.746923828000035 ], [ 32.686425781000025, 66.829541016000064 ], [ 32.463671875000045, 66.916308594000043 ], [ 32.500976563000052, 67.003857422000067 ], [ 32.340625, 67.067871094000054 ], [ 32.20156250000008, 67.113232422000067 ], [ 31.983007813000029, 67.129833984000072 ], [ 31.895312500000045, 67.161425781000048 ], [ 32.399902344000054, 67.152685547000033 ], [ 32.930468750000045, 67.086816406000082 ], [ 32.885253906000059, 67.061132813000029 ], [ 32.847558594000077, 67.021533203000047 ], [ 33.001953125000057, 66.908300781000037 ], [ 33.15019531300004, 66.843945313000063 ], [ 33.482031250000034, 66.764550781000082 ], [ 33.522949219000054, 66.764355469000066 ], [ 33.595410156000071, 66.784619141000064 ], [ 33.75957031300004, 66.750976563000052 ], [ 33.893652344000031, 66.706738281000071 ], [ 34.146093750000034, 66.703271484000084 ], [ 34.45156250000008, 66.651220703000035 ], [ 34.430859375000068, 66.629785156000082 ], [ 34.396093750000034, 66.613183594000077 ], [ 34.482617188000063, 66.550341797000044 ], [ 34.610253906000025, 66.559619141000042 ], [ 34.82460937500008, 66.61113281300004 ], [ 35.363964844000066, 66.428662109000072 ], [ 35.51347656300004, 66.395800781000048 ], [ 36.37343750000008, 66.302294922000044 ], [ 36.76992187500008, 66.293554688000029 ], [ 36.983691406000048, 66.272558594000031 ], [ 37.155675912000049, 66.246296678000078 ] ] ] } },
{ "type": "Feature", "properties": { "gid": 3, "objectid": 47.0, "z": 0.4, "index": 0.0, "z1": 1.0, "z2": 0.0, "index1": 0.0, "index2": 0.0 }, "geometry": { "type": "MultiLineString", "coordinates": [ [ [ 40.842859194753714, 66.048066788993651 ], [ 40.80588683612234, 66.056314396017171 ], [ 40.701701296187821, 65.996165548997055 ], [ 40.607725323701857, 65.965536908013803 ], [ 40.551545926642689, 65.933065253182633 ], [ 40.544892551199212, 65.927555859441782 ], [ 40.496732572773908, 65.89281949430017 ], [ 40.489986411943391, 65.887844885241066 ], [ 40.440030098729096, 65.852832056658315 ], [ 40.362704255891117, 65.810837747314622 ], [ 40.27720442675502, 65.783848080955181 ], [ 40.182988767548636, 65.74328034878647 ], [ 40.122263901765166, 65.71898882335887 ], [ 40.100758888249459, 65.706956583122519 ], [ 40.047027019503787, 65.68923881014058 ], [ 40.008608854084741, 65.679662010501602 ], [ 39.957162820574126, 65.665073443233268 ], [ 39.912829011398514, 65.639139602892101 ], [ 39.906255474932607, 65.636684093653457 ], [ 39.820415276124493, 65.636768013060703 ], [ 39.802933857263383, 65.626918825873986 ], [ 39.748875903678822, 65.601108216022112 ], [ 39.709983734246634, 65.573031217914831 ], [ 39.699094925745158, 65.55980686600742 ], [ 39.672509586285685, 65.530244710771512 ], [ 39.709406539848771, 65.487328964842277 ], [ 39.701937458579891, 65.441678961779076 ], [ 39.701000397795724, 65.437528629812789 ], [ 39.639354665854739, 65.400567129869273 ], [ 39.650697872897581, 65.366455341329129 ], [ 39.654527992654039, 65.355087955784256 ], [ 39.680603242977782, 65.316745136788143 ], [ 39.734957567619858, 65.280959229417931 ], [ 39.75115946270671, 65.283276588375998 ], [ 39.793161167224866, 65.251768073227197 ], [ 39.816491829558856, 65.246956744260501 ], [ 39.851369906784498, 65.213347304987224 ], [ 39.865252686973747, 65.199795789874827 ], [ 39.88143990760733, 65.190768935815925 ], [ 39.930720587497603, 65.155561204042897 ], [ 39.930954001567557, 65.153148458732176 ], [ 39.942406214198911, 65.113285726976869 ], [ 39.942669351217717, 65.112798100141049 ], [ 39.953325068261563, 65.105062435002708 ], [ 39.950778036305564, 65.054329743983544 ], [ 39.949449304629582, 65.03213394762497 ], [ 39.928680744247742, 64.982216384407479 ], [ 39.916297954619893, 64.96172634466717 ], [ 39.910246062227202, 64.953198760336932 ], [ 39.877181694111755, 64.914924187825932 ], [ 39.863127561151543, 64.899230850140214 ], [ 39.835768945678922, 64.871689252155193 ], [ 39.796856513916282, 64.838698153969801 ], [ 39.786718925639491, 64.831344889527827 ], [ 39.742394033790333, 64.811973004212746 ], [ 39.710556129928591, 64.797865152198995 ], [ 39.705987832610901, 64.796516791611907 ], [ 39.696633726769562, 64.792860075089266 ], [ 39.649694391748199, 64.775585337723896 ], [ 39.627124564551309, 64.769811663431085 ], [ 39.591144666046659, 64.762972686617957 ], [ 39.539719984724911, 64.753134515649435 ], [ 39.533928141307229, 64.752045473600504 ], [ 39.529233556015356, 64.750892608575725 ], [ 39.45100297917088, 64.743081328193568 ], [ 39.414677751014096, 64.742650554922818 ], [ 39.366824185897713, 64.736805874006734 ], [ 39.357315913737693, 64.739893316462371 ], [ 39.314607955049723, 64.733795208005233 ], [ 39.29098734405494, 64.733958845146958 ], [ 39.276969572809321, 64.732605113822558 ], [ 39.231147077789615, 64.733250963592695 ], [ 39.192873420383023, 64.737759836560087 ], [ 39.180373511993935, 64.738098435471329 ], [ 39.1158861671247, 64.748775116881063 ], [ 39.084492053607505, 64.753000341912411 ], [ 39.030952841938472, 64.761866070060989 ], [ 38.997286375790281, 64.767422933065973 ], [ 38.940403951513872, 64.780477909720503 ], [ 38.918647802336693, 64.787515792682768 ], [ 38.900968559228318, 64.786624652937519 ], [ 38.892510956506158, 64.807622650929261 ], [ 38.845730964669315, 64.796525792393368 ], [ 38.819502969479913, 64.804762159845268 ], [ 38.795398143345665, 64.803834461403312 ], [ 38.785237780019145, 64.821678235595755 ], [ 38.751519243382063, 64.813605957300865 ], [ 38.720168000403646, 64.824901164014648 ], [ 38.689779053325765, 64.824878260926312 ], [ 38.68320938824769, 64.836498880951694 ], [ 38.664610497235117, 64.833671217296796 ], [ 38.587121599775969, 64.848319084885702 ], [ 38.57493912577786, 64.85369967807128 ], [ 38.49998988286103, 64.868865693377302 ], [ 38.494705213790496, 64.870299912683663 ], [ 38.494144818061727, 64.870634222927151 ], [ 38.493156236690993, 64.870585044984182 ], [ 38.491592385969909, 64.87048815414164 ], [ 38.433624223456775, 64.880425946208561 ], [ 38.414249394947547, 64.884326087198133 ], [ 38.342125646064289, 64.881557566135598 ], [ 38.32924085727069, 64.884274495889258 ], [ 38.3265799826695, 64.883452636229833 ], [ 38.260595494310223, 64.894104966013458 ], [ 38.236351149593304, 64.901397449571959 ], [ 38.219691337704717, 64.899345787853235 ], [ 38.200875376722365, 64.90857233952562 ], [ 38.151710414855131, 64.900539220376345 ], [ 38.112187145456176, 64.907357739873987 ], [ 38.065898529723256, 64.919994306037552 ], [ 38.016891691248134, 64.928568977146028 ], [ 37.953397836456134, 64.937477272840738 ], [ 37.924642262554698, 64.945707869657781 ], [ 37.87392363674013, 64.96452439556748 ], [ 37.850611677073118, 64.972607102168752 ], [ 37.801108732699618, 64.994911803900379 ], [ 37.796361362950904, 64.997451191204163 ], [ 37.789735348553336, 64.997864685432546 ], [ 37.759885203198849, 65.030018864588783 ], [ 37.762985979035875, 65.037443822177124 ], [ 37.684220996416116, 65.061425377734849 ], [ 37.674942443849488, 65.063883357685086 ], [ 37.594862099271268, 65.084866807475976 ], [ 37.578498802133367, 65.085217056934198 ], [ 37.546575055911887, 65.072392590201048 ] ], [ [ 36.945761151939735, 65.1631095410483 ], [ 36.900193234421863, 65.189976076009884 ], [ 36.861198395487065, 65.201996127823861 ], [ 36.802866039506739, 65.201374711872631 ], [ 36.784884871118322, 65.146625369412618 ], [ 36.783771356323996, 65.144592972676037 ], [ 36.785362986342193, 65.14237534185304 ], [ 36.775679605758398, 65.126954201503452 ], [ 36.764780073899658, 65.114857577966291 ], [ 36.75542892581143, 65.11078969376473 ], [ 36.739373265074505, 65.101856950055719 ], [ 36.711045924326754, 65.082562386924167 ], [ 36.670759624139578, 65.058404320916452 ], [ 36.670034432198065, 65.058087782330517 ], [ 36.669326866202027, 65.057830719615595 ], [ 36.617580602967848, 65.032622458169499 ], [ 36.558610827385621, 65.007406403103289 ], [ 36.541767137227055, 65.0011219252047 ], [ 36.535565243353744, 64.997552292887121 ], [ 36.487522449508162, 64.97715636104482 ], [ 36.447333354259285, 64.954482833254588 ], [ 36.441081819750366, 64.95137015906954 ], [ 36.434316385060924, 64.946617884368663 ], [ 36.368647466799302, 64.928727893508039 ], [ 36.367180944183986, 64.916595086757297 ], [ 36.320772387323757, 64.901954407530809 ], [ 36.294580847952659, 64.890259260468156 ], [ 36.236037013390273, 64.85858885202839 ], [ 36.234972175228961, 64.840352213082895 ], [ 36.221065577123227, 64.813873649698564 ], [ 36.186050150860012, 64.774187696693957 ], [ 36.165010146072859, 64.756810902348661 ], [ 36.135843849344496, 64.727059251799801 ], [ 36.092361374743632, 64.688627189694785 ], [ 36.087894856580476, 64.683611925615025 ], [ 36.085124968107266, 64.680958145600073 ], [ 36.042329815925825, 64.642526883737446 ], [ 36.031461936352628, 64.635200805245461 ], [ 36.006944589571617, 64.625649322282698 ], [ 35.989956147022895, 64.617458508684649 ], [ 35.953863866750851, 64.604686739323483 ], [ 35.928458755643078, 64.60433073406972 ], [ 35.902139951806134, 64.61050675117815 ], [ 35.881062423300989, 64.604473754214268 ], [ 35.85867609863999, 64.612747195715201 ], [ 35.82639487623976, 64.626231944770552 ], [ 35.798649894750383, 64.654901946061841 ], [ 35.778568392139391, 64.666267442076901 ], [ 35.762825523648587, 64.683222000134322 ], [ 35.738147993444784, 64.699648611600367 ], [ 35.726616184536454, 64.707711689614371 ], [ 35.711584189139217, 64.717065664117399 ], [ 35.684618241786666, 64.729752864783279 ], [ 35.669181259942036, 64.736294767695654 ], [ 35.656428862210248, 64.746529743955762 ], [ 35.648189912604664, 64.748671979767096 ], [ 35.634657454462342, 64.748297354675799 ], [ 35.623700445263182, 64.751026594651307 ], [ 35.600215654783767, 64.769817763262836 ], [ 35.595291646921339, 64.772938773952774 ], [ 35.567565764951837, 64.794490987595111 ], [ 35.551790622928763, 64.800208675071303 ], [ 35.52510146374334, 64.805144483172739 ], [ 35.508870609428527, 64.804611323204824 ], [ 35.505929317812956, 64.812611215238633 ], [ 35.494072839697708, 64.830641205710094 ], [ 35.487930631596157, 64.848607099946037 ], [ 35.525770584390557, 64.857815528739593 ], [ 35.531582758238017, 64.84050380682686 ], [ 35.585086056136788, 64.829605234987014 ], [ 35.613853492810506, 64.824162156262958 ], [ 35.644589758161658, 64.813403919779375 ], [ 35.666733713897088, 64.826143911657766 ], [ 35.653338188993189, 64.856184212243647 ], [ 35.655518532144868, 64.862454579972166 ], [ 35.680869022639058, 64.912103411898045 ], [ 35.699492607152877, 64.920165940577249 ], [ 35.714645656909909, 64.915795280197983 ], [ 35.740546365545015, 64.91691856304908 ], [ 35.744444403841044, 64.921480913413802 ], [ 35.759445183350294, 64.916106920183665 ], [ 35.771089215464599, 64.922354712012805 ], [ 35.786691440102004, 64.920889991342904 ], [ 35.790747803763338, 64.924683272940513 ], [ 35.817433207892407, 64.925871441697495 ], [ 35.856185520311499, 64.932617579361249 ], [ 35.863567343309171, 64.933485880541411 ], [ 35.867079382860652, 64.934299623870288 ], [ 35.885074506368369, 64.938682511885474 ], [ 35.902298463770421, 64.941123788186928 ], [ 35.909902666018752, 64.943029422578547 ], [ 35.933489070739597, 64.942530906981233 ], [ 35.959865233624555, 64.949532276012235 ], [ 35.972546151846529, 64.953813100597529 ], [ 36.005473137549529, 64.962009796563621 ], [ 36.008153886738, 64.961074785212929 ], [ 36.010575977976316, 64.9619527959876 ], [ 36.037938311954292, 64.957620247263549 ], [ 36.059808414884174, 64.970983662879064 ], [ 36.065043388880554, 64.976917171177831 ], [ 36.086366669231211, 64.997874721160883 ], [ 36.084956702969066, 65.024690572649035 ], [ 36.083354295609752, 65.032648578078749 ], [ 36.087819582986356, 65.046968808179315 ], [ 36.084176537959138, 65.057823367693288 ], [ 36.094277863871014, 65.068702224103674 ], [ 36.10292878065593, 65.075039813014939 ], [ 36.116641877193672, 65.07959187765664 ], [ 36.127957331009384, 65.089938274151905 ], [ 36.152062822850098, 65.096128920336923 ], [ 36.203275104300815, 65.109653861742174 ], [ 36.206242201074986, 65.113663972271866 ], [ 36.218957866767596, 65.121994804511019 ], [ 36.249811642512213, 65.137121064159203 ], [ 36.254618031874998, 65.13722841236455 ], [ 36.265402225613911, 65.155111888972954 ], [ 36.247677171733812, 65.172168514760472 ], [ 36.231513816699646, 65.183697623531771 ], [ 36.184339856583506, 65.183061900497705 ], [ 36.129941009232539, 65.178804274408378 ], [ 36.111107424305374, 65.171118636913945 ], [ 36.100270869734345, 65.169375926645557 ], [ 36.07054363970758, 65.17257944217647 ], [ 36.066150855993385, 65.176629406763823 ], [ 36.045963768934712, 65.188653329729334 ], [ 36.040822423678151, 65.191132790943811 ], [ 36.019647618337387, 65.201461791792042 ], [ 36.016906631575694, 65.205056916489355 ], [ 35.96994106005161, 65.198016102454801 ], [ 35.919847989251252, 65.181355120654246 ], [ 35.920147191551337, 65.178928326964467 ], [ 35.910447497321115, 65.170235185669299 ], [ 35.902431114856995, 65.167476204667821 ], [ 35.895682336580649, 65.167649961789721 ], [ 35.869351133114833, 65.179399115473643 ], [ 35.835953672034634, 65.192446766010164 ], [ 35.786320722541916, 65.199026179892883 ], [ 35.737573209517109, 65.201524739917716 ], [ 35.690008460896991, 65.197016255395283 ], [ 35.601390369578553, 65.167807369965999 ], [ 35.580381690782815, 65.160912552910418 ], [ 35.566689907984255, 65.156468410190428 ], [ 35.563383134464004, 65.156941224253387 ], [ 35.5578353802631, 65.155338256925404 ], [ 35.528265562999877, 65.149409510977534 ], [ 35.517796008098287, 65.145376675736884 ], [ 35.464569245221412, 65.121608771143769 ], [ 35.459777780372008, 65.116158921049703 ], [ 35.446009060629876, 65.104044306841388 ], [ 35.441631403449833, 65.098883994858681 ], [ 35.398929404822411, 65.083276192919641 ], [ 35.393339958169349, 65.084424746033562 ], [ 35.361637435271462, 65.079828015394071 ], [ 35.352379750558612, 65.080122258186861 ], [ 35.329661296498728, 65.066083794557983 ], [ 35.326679426798421, 65.044890911565801 ], [ 35.302317609352031, 65.040509393951652 ], [ 35.276683269257887, 65.036026365643977 ], [ 35.256416636893903, 65.037254151484433 ], [ 35.235793682779331, 65.043692614181111 ], [ 35.210768853932677, 65.047355506219844 ], [ 35.198406223764437, 65.049091785272992 ], [ 35.145494874610392, 65.057134663962643 ], [ 35.14060272827561, 65.058382908821045 ], [ 35.134940906940813, 65.06158432988741 ], [ 35.114157636075106, 65.075995540635745 ], [ 35.100989293441728, 65.079910402884707 ], [ 35.080076091828232, 65.090107952735821 ], [ 35.051144743833049, 65.104075995073856 ], [ 35.045359941588742, 65.106264531983413 ], [ 35.033795374372914, 65.109621287174377 ], [ 35.006597623720211, 65.125139960666274 ], [ 34.989432589503963, 65.124658832322893 ], [ 34.968319750983994, 65.143675562078045 ], [ 34.948778085876256, 65.154686610465433 ], [ 34.930471168954796, 65.166121015147041 ], [ 34.903484164315273, 65.182485423723847 ], [ 34.896187739519576, 65.189953564917289 ], [ 34.868405381319405, 65.217298757666924 ], [ 34.861719215085088, 65.223104863918707 ], [ 34.83058465021179, 65.240192070930902 ], [ 34.822289579940957, 65.24595160644094 ], [ 34.821514334176811, 65.247025880213243 ], [ 34.816216353421737, 65.252038660965013 ], [ 34.798653474823368, 65.296712759609363 ], [ 34.778404304419439, 65.334936062936322 ], [ 34.775892495912672, 65.34256473860296 ], [ 34.777110687511652, 65.346214159341002 ], [ 34.780593702376791, 65.347918637377063 ], [ 34.81939139232054, 65.388212028494422 ], [ 34.834774660841617, 65.42105775058377 ], [ 34.834058039021443, 65.473478908937977 ], [ 34.834959403578978, 65.476487035801313 ], [ 34.85478913039708, 65.497326959397526 ], [ 34.874407198745757, 65.51559713125971 ], [ 34.87725292177862, 65.520884367117219 ], [ 34.901379644681697, 65.54782218987026 ], [ 34.906013306572333, 65.553417594274038 ], [ 34.907708589162212, 65.561677193283799 ], [ 34.924305224969544, 65.589225179115658 ], [ 34.954838199806545, 65.604492203750908 ], [ 35.004850836936328, 65.639742661747732 ], [ 35.014329197478276, 65.643507261185789 ], [ 35.017748646176187, 65.644891110652793 ], [ 35.06751709604589, 65.673606982902129 ], [ 35.060066501413587, 65.726603077291657 ], [ 35.052615719941969, 65.731643776936892 ], [ 35.033435892666603, 65.756607544113706 ], [ 35.033181230417654, 65.789120052813928 ], [ 35.031665613176358, 65.80356928022951 ], [ 35.017041800991137, 65.814042039870344 ], [ 34.970836391814487, 65.834072206402197 ], [ 34.952554183364612, 65.847192775763801 ], [ 34.934650446830403, 65.866549582580774 ], [ 34.920982103725748, 65.87969152846199 ], [ 34.907381327349867, 65.907454721618706 ], [ 34.866963098909821, 65.936437311742338 ], [ 34.852223631285653, 65.943762591687232 ], [ 34.788483551215961, 65.985347232399477 ], [ 34.787673404764178, 65.986968376706443 ], [ 34.786751564606675, 65.9885649592253 ], [ 34.783116432830866, 65.994758771605234 ], [ 34.749505901359953, 66.049227200368477 ], [ 34.720678932466399, 66.089146127356798 ], [ 34.712758750531066, 66.110163823195819 ], [ 34.684726954281302, 66.164550137044046 ], [ 34.683299442069256, 66.180945903270299 ], [ 34.671680225274145, 66.222192748966449 ], [ 34.673403033077193, 66.233054451076953 ], [ 34.677408947518416, 66.275173221860371 ], [ 34.687631942459177, 66.289470903215317 ], [ 34.727504615832117, 66.314600071265943 ], [ 34.760009316956769, 66.322625210188562 ], [ 34.81462592809487, 66.344243065494084 ], [ 34.827673604842971, 66.346629628642404 ], [ 34.921471309709943, 66.366227231417668 ], [ 34.935611660897848, 66.367959596176718 ], [ 35.008533283951749, 66.376461493837269 ], [ 35.03794817187736, 66.379864714934172 ], [ 35.044358504936213, 66.38047717629172 ], [ 35.139066695955989, 66.383517551763475 ], [ 35.196311875442973, 66.385940142416189 ], [ 35.235952345450642, 66.383783482739204 ], [ 35.270119792956393, 66.383071095642663 ], [ 35.336041539838448, 66.35049754273507 ], [ 35.440444503274193, 66.329159370128821 ], [ 35.551499219251241, 66.313402667532614 ], [ 35.670390472310828, 66.311516758087294 ], [ 35.784511113193844, 66.301214584826141 ], [ 35.895483816137187, 66.279563783511549 ], [ 36.009284829400713, 66.266728468341171 ], [ 36.124021017956636, 66.262858987134791 ], [ 36.235618987815599, 66.257542043342369 ], [ 36.34962810857553, 66.227221486758992 ], [ 36.46172768413453, 66.227652309229654 ], [ 36.582192334019055, 66.209995422876148 ], [ 36.699809404297469, 66.208830969772066 ], [ 36.817373762234752, 66.201389192039699 ], [ 36.832621532947144, 66.200746687194624 ], [ 36.949844828926871, 66.190444480729639 ], [ 37.198096206357263, 66.192131891752126 ], [ 37.396477174636004, 66.150729925608118 ], [ 37.410059789151944, 66.142368548356956 ], [ 37.490294319846726, 66.121592287188946 ], [ 37.507066224690902, 66.116624848022241 ], [ 37.619976172889494, 66.063419714708232 ], [ 37.850827287835273, 66.046472869576974 ], [ 37.908097175455566, 66.06348572026036 ], [ 37.954284347764769, 66.064309983739918 ], [ 38.015276446898497, 66.060291996865999 ], [ 38.058863702241126, 66.055135529193592 ], [ 38.13003297007532, 66.050179342455635 ], [ 38.17584372560674, 66.049473376071603 ], [ 38.234221262188044, 66.044351983739148 ], [ 38.310382300343974, 66.052223306109227 ], [ 38.314836338791906, 66.049979885559992 ], [ 38.322573160432512, 66.051544885009321 ], [ 38.385162875776587, 66.02873627082954 ], [ 38.472661796044235, 66.029915127481331 ], [ 38.518114399568731, 66.047360059150492 ], [ 38.53511673403051, 66.040836711992597 ], [ 38.559773668974287, 66.049282825391856 ], [ 38.613090161154219, 66.034910168411557 ], [ 38.708599316920242, 66.037973826645668 ], [ 38.73565550305284, 66.039225509866924 ], [ 38.817883525240234, 66.054304548342884 ], [ 38.86052379706598, 66.052267509203375 ], [ 38.904276399331081, 66.071567940925888 ], [ 38.938338267471522, 66.067852547279472 ], [ 39.027461511493982, 66.074294149661114 ], [ 39.047535065004979, 66.073830649187585 ], [ 39.141810126340829, 66.081681409879934 ], [ 39.158327579843899, 66.0839861327986 ], [ 39.249637495602656, 66.099687492176599 ], [ 39.261689238755935, 66.103202193404229 ], [ 39.355903136558538, 66.11964233158875 ], [ 39.365342268010977, 66.121035598025742 ], [ 39.374087026560971, 66.122879121878213 ], [ 39.479628401633875, 66.141853999241107 ], [ 39.484526588014091, 66.142363129725709 ], [ 39.599986261120705, 66.152855065811309 ], [ 39.600724285108413, 66.152955178087836 ], [ 39.711159640770404, 66.166940850282231 ], [ 39.713683498142927, 66.167177683673913 ], [ 39.81539880083443, 66.178123289057226 ], [ 39.819559228031835, 66.179192223731661 ], [ 39.914659433608961, 66.201964130541455 ], [ 39.915940243154296, 66.202170718021023 ], [ 40.022014823713164, 66.218715775470628 ], [ 40.025037152780044, 66.219027744504331 ], [ 40.096863432238024, 66.242979983952011 ], [ 40.107053358016913, 66.245148185276832 ], [ 40.110258758570239, 66.245963230911002 ], [ 40.196321681996835, 66.26904765150897 ], [ 40.215262794397859, 66.275410640078974 ], [ 40.286278173360301, 66.300412673463256 ], [ 40.312021340851175, 66.310018008662269 ], [ 40.384943104392846, 66.336398747946191 ], [ 40.397204438966639, 66.341207223624281 ], [ 40.427323818457921, 66.354993230022956 ], [ 40.48174858110724, 66.370400438950981 ], [ 40.484405194245426, 66.371061252590209 ], [ 40.565421065992325, 66.40237701273503 ], [ 40.568111632859768, 66.40478199548312 ], [ 40.632966031022193, 66.435815408538417 ], [ 40.634230074141612, 66.436616621557562 ] ] ] } }
]
}
