{
"type": "FeatureCollection",
"name": "obesp_02_50_iso_ws",
"crs": { "type": "name", "properties": { "name": "urn:ogc:def:crs:OGC:1.3:CRS84" } },
"features": [
{ "type": "Feature", "properties": { "gid": 1, "objectid": 1.0, "z": 5.0, "index": 0.0, "shape_leng": 16.164048818400001, "z1": null }, "geometry": { "type": "MultiLineString", "coordinates": [ [ [ 40.646576511990929, 66.481332177580839 ], [ 40.592422655018538, 66.446648059034885 ], [ 40.564849861190851, 66.433696316933663 ], [ 40.522493184347013, 66.412551244473377 ], [ 40.489105936422618, 66.399560734353145 ], [ 40.438134813396687, 66.38229169875558 ], [ 40.397176116725745, 66.370418967126284 ], [ 40.339131350285982, 66.361751931195727 ], [ 40.294445329439384, 66.349224255827721 ], [ 40.248906652798553, 66.331976363479214 ], [ 40.210723450180694, 66.317049121688115 ], [ 40.163159386683105, 66.299159441449262 ], [ 40.127751158149181, 66.287342688898377 ], [ 40.082538802445072, 66.267492178958605 ], [ 40.05068478076214, 66.257256441749632 ], [ 39.957514472967375, 66.233000252105057 ], [ 39.893057650136029, 66.223911056964539 ], [ 39.856944073013494, 66.215376865657277 ], [ 39.794858228727207, 66.201203009273797 ], [ 39.756960545221716, 66.197297037506416 ], [ 39.689175764148899, 66.188761790006538 ], [ 39.648408980929844, 66.183762426226167 ], [ 39.580015851220196, 66.176683772195247 ], [ 39.538145971068786, 66.17316271507309 ], [ 39.468586952242617, 66.165932566145898 ], [ 39.431422200889585, 66.159680345779748 ], [ 39.365507278903237, 66.145784509746591 ], [ 39.337470361953365, 66.141646110425768 ] ], [ [ 36.150090414528051, 66.312467374082303 ], [ 36.261461379972786, 66.284481351452655 ], [ 36.150090414528051, 66.312467374082303 ], [ 36.115344702709081, 66.316401594274907 ], [ 36.040249805860128, 66.320974943650242 ], [ 36.004066171494742, 66.324883489156491 ], [ 35.934118724186874, 66.336532335320953 ], [ 35.898666577783786, 66.340150677351744 ], [ 35.808298737311759, 66.355664730595947 ], [ 35.805676840208605, 66.354794012280763 ], [ 35.804429286195443, 66.356003689841714 ], [ 35.605349555967223, 66.365830754279273 ], [ 35.568080051212519, 66.370113629760567 ], [ 35.499561247553061, 66.380964636453371 ], [ 35.462962285432525, 66.38733025133854 ], [ 35.402563610353241, 66.402730147441787 ], [ 35.36681408044285, 66.411810490913922 ], [ 35.32072644011987, 66.432339712278917 ], [ 35.284123558339047, 66.44195137450879 ], [ 35.220346480323144, 66.468662910468993 ], [ 35.2122769915361, 66.470462905214049 ], [ 35.139091109150286, 66.478718875281629 ], [ 35.095628422676668, 66.491078194245461 ], [ 35.055356746298287, 66.506938977079926 ], [ 35.008338146747406, 66.521446742088301 ], [ 34.972399873840459, 66.535544233702353 ], [ 34.919853441583541, 66.549842994776554 ], [ 34.885216283923796, 66.561301960959099 ], [ 34.82521795831309, 66.570899300248243 ], [ 34.749234151188773, 66.565791269575129 ], [ 34.6902629581665, 66.551620845843104 ], [ 34.627350912377437, 66.54526644387812 ], [ 34.622904429756943, 66.539365112679661 ], [ 34.610254978767671, 66.542232645908655 ], [ 34.553691079482689, 66.522468249939379 ], [ 34.539155533572853, 66.503662791859938 ], [ 34.494271096533396, 66.51736311608704 ], [ 34.457509615756237, 66.530026847583883 ], [ 34.409520443826807, 66.54403348360222 ], [ 34.389112100768102, 66.560430389217913 ], [ 34.336086669200938, 66.572994295842477 ], [ 34.298779231895764, 66.58749093588267 ], [ 34.276938249334421, 66.58727107784938 ], [ 34.253891189312355, 66.592244249841315 ], [ 34.202339608053819, 66.607816809177223 ], [ 34.168968692151736, 66.614792751977859 ], [ 34.152180424461221, 66.61176223105582 ], [ 34.104226915608535, 66.631255618849536 ], [ 34.091116756847271, 66.631333083103584 ], [ 34.079257979093541, 66.633974148921197 ], [ 34.041797840581694, 66.622925058007354 ], [ 33.983323086568589, 66.651499388972354 ], [ 33.982911838240398, 66.651516690064454 ], [ 33.922870845612977, 66.634100326889893 ], [ 33.867013806207751, 66.668042186298464 ], [ 33.866554409722994, 66.668143535382114 ], [ 33.864130310473115, 66.668901676879614 ], [ 33.79126797983804, 66.674020038917774 ], [ 33.746458669505046, 66.680781186776642 ], [ 33.723609289218871, 66.684006219773892 ], [ 33.680798605265466, 66.695506921489311 ], [ 33.673877185668005, 66.696141973210729 ], [ 33.665975973714865, 66.69224594498553 ], [ 33.663636343633016, 66.697127136780296 ], [ 33.598604224279597, 66.702166950563139 ], [ 33.585851116199422, 66.68253135972202 ], [ 33.51692882129953, 66.706567497414824 ], [ 33.509773434175258, 66.708911585941678 ], [ 33.460448463119235, 66.677233780152164 ], [ 33.445357715178943, 66.68334875442099 ], [ 33.401970949364909, 66.667450843597294 ], [ 33.37833358928674, 66.646099583653381 ], [ 33.38965191403156, 66.633973542514013 ], [ 33.392293900941866, 66.632827957437257 ], [ 33.395265954000138, 66.632375889166781 ], [ 33.45646183907877, 66.603386602102603 ], [ 33.462143851290591, 66.598061958968174 ], [ 33.48864026272247, 66.567016756293071 ], [ 33.465611268175962, 66.510372353688751 ], [ 33.463593208514169, 66.511092996224761 ], [ 33.467284131481961, 66.507934413719397 ], [ 33.467232750080257, 66.508265281139757 ], [ 33.524869364867243, 66.480320551767477 ], [ 33.535047506308558, 66.47737192454224 ], [ 33.573758306352261, 66.473433615028739 ], [ 33.587733351384372, 66.461338817200215 ], [ 33.611526828338242, 66.452244624932177 ], [ 33.596691597959364, 66.436902683391679 ] ], [ [ 33.624293345627052, 66.43119197697763 ], [ 33.658007107201342, 66.409230752862641 ], [ 33.659267746806336, 66.408327393190064 ], [ 33.606814780395098, 66.388100136304274 ], [ 33.604903892751963, 66.386645851598644 ], [ 33.606978966846214, 66.385678061313229 ], [ 33.66068633615879, 66.36805140393011 ], [ 33.679934427482976, 66.355252650435375 ], [ 33.728123566214833, 66.343708647211315 ], [ 33.766517787756072, 66.34457422788546 ], [ 33.826049267349845, 66.326744421050932 ], [ 33.845039183440463, 66.316972363623847 ], [ 33.891263105359712, 66.298888402379816 ], [ 33.906275298118487, 66.278815884361791 ], [ 33.935598205417932, 66.258477030933136 ], [ 33.967887514868892, 66.226558330476223 ], [ 33.999296400145852, 66.215136917648294 ] ], [ [ 34.0433945800022, 66.237710455121999 ], [ 34.067134654272195, 66.237442332320029 ], [ 34.121772064746381, 66.22607110701216 ], [ 34.127096756173501, 66.220989173036287 ] ], [ [ 37.752622498827463, 66.143359484965288 ], [ 37.681535831746487, 66.103010695893431 ], [ 37.557018730708307, 66.128942744238884 ], [ 37.49064247475286, 66.148601812004927 ], [ 37.464812541357674, 66.155108160106636 ], [ 37.399867019491467, 66.174531392054632 ], [ 37.372239447991944, 66.180954423049172 ], [ 37.310588999803144, 66.207497208393704 ], [ 37.203437471244683, 66.217023086777772 ], [ 37.175553192638233, 66.223087463935542 ], [ 37.104463164221329, 66.234285448707169 ], [ 37.072183477509498, 66.236703347181844 ], [ 36.997863132600287, 66.244449217003535 ], [ 36.962632066737171, 66.248009134316817 ], [ 36.88882728767112, 66.25596874233463 ], [ 36.774235287760575, 66.262492821741148 ], [ 36.69857350471176, 66.266389948068536 ], [ 36.659501242981889, 66.266860617848693 ], [ 36.583309887274822, 66.263491518373712 ], [ 36.546853612241534, 66.264613737425123 ], [ 36.465724732703961, 66.275474683207108 ], [ 36.440014999133268, 66.277562525647227 ], [ 36.363765417706304, 66.284396959934497 ], [ 36.275738146007768, 66.286622866357959 ], [ 36.261461379972786, 66.284481351452655 ] ], [ [ 39.257741154874111, 66.128748142394386 ], [ 39.198107626368255, 66.111356962268701 ], [ 39.16682297104029, 66.106200031354206 ], [ 39.094254556133535, 66.096074373126612 ], [ 39.062605917401754, 66.093527947872644 ], [ 38.981987880811175, 66.095389426845941 ], [ 38.952405710478274, 66.093477486443646 ], [ 38.896810118091082, 66.116025426660826 ] ], [ [ 34.370658879325845, 66.086128490564647 ], [ 34.455918418497504, 66.117276404693257 ], [ 34.4975915952881, 66.102607573164278 ], [ 34.540317025740535, 66.082072993900624 ], [ 34.574195740605319, 66.068148179649256 ], [ 34.605700604274489, 66.047989905550082 ], [ 34.635240342678117, 66.03170093231904 ], [ 34.682979118478102, 66.014897948989642 ], [ 34.709177671050611, 65.999712123637437 ], [ 34.727661142539432, 65.965862903220057 ], [ 34.766483435107887, 65.917748040621916 ], [ 34.79618602459152, 65.905200488545461 ], [ 34.830764667923802, 65.892298775201368 ], [ 34.863370608865523, 65.877003494082601 ], [ 34.878657340616712, 65.86034087755263 ], [ 34.879246679053608, 65.844096142842375 ], [ 34.887493907785938, 65.815015197076718 ], [ 34.902552255231853, 65.806557074378532 ], [ 34.947597538185676, 65.79867687403771 ], [ 34.978257095709409, 65.787469290808076 ], [ 34.970507988086979, 65.76759075980226 ], [ 34.980577903282722, 65.726290459337349 ], [ 35.026480196239618, 65.712876041623474 ], [ 35.04447994041368, 65.705127565408532 ], [ 35.047427940741613, 65.688552809690009 ], [ 35.0314246258705, 65.679726100264816 ], [ 34.984748784124349, 65.673643179761825 ], [ 34.969348669014778, 65.674192776685345 ], [ 34.961025371543258, 65.669993294781477 ], [ 34.923078550890637, 65.655864773449196 ], [ 34.906351948163206, 65.64269231012446 ], [ 34.885922649328904, 65.63058596249914 ], [ 34.8546569923991, 65.61351791831845 ], [ 34.822957180170249, 65.591571958575628 ], [ 34.815786803365938, 65.589830911864055 ], [ 34.816257682067658, 65.586570982428498 ], [ 34.820765682764659, 65.573527026572265 ], [ 34.825683279347572, 65.550600199858309 ], [ 34.823628292775027, 65.546230341642627 ], [ 34.819260461437523, 65.541929682236571 ], [ 34.79425105205803, 65.512370742930216 ], [ 34.791524098974037, 65.509390096834977 ], [ 34.787244010169957, 65.510548674676102 ], [ 34.748104861798424, 65.506510115315905 ], [ 34.72997419608032, 65.492069320360372 ], [ 34.728986179666038, 65.467187360554931 ], [ 34.729798864812437, 65.419772894383641 ], [ 34.730826537670339, 65.415835061474297 ], [ 34.72887378793439, 65.41269775386894 ], [ 34.726133920840653, 65.411118295887832 ], [ 34.674283187639048, 65.369930895118216 ], [ 34.640727214725302, 65.352983777338522 ], [ 34.618572875848997, 65.365737582687984 ], [ 34.605202950165619, 65.370583988435101 ], [ 34.595800630376743, 65.364971488437732 ], [ 34.590791212037402, 65.355715083715154 ], [ 34.589390617423248, 65.33906695139035 ], [ 34.585198444073455, 65.311718583208915 ], [ 34.575171568612177, 65.275542259085569 ], [ 34.577008074315756, 65.261432165323697 ], [ 34.588696578087195, 65.257172374520565 ], [ 34.592102074173397, 65.263155358014103 ], [ 34.660041974339947, 65.265784037794276 ], [ 34.693091179919975, 65.249023340817132 ], [ 34.714776823696866, 65.231603460517476 ], [ 34.731329479872556, 65.214894086762968 ], [ 34.755262772909362, 65.200295491478869 ], [ 34.778476819315074, 65.182790854509221 ], [ 34.781469016822768, 65.161845472059269 ], [ 34.794848090131552, 65.146741547549084 ], [ 34.782795888188787, 65.118926631126669 ], [ 34.826359459103514, 65.118996924793578 ], [ 34.838801755008546, 65.098623585945575 ], [ 34.858021995131935, 65.083090886502873 ], [ 34.887906658891382, 65.066841627791291 ], [ 34.926123319403644, 65.04095523663284 ], [ 34.933197150580668, 65.059591626762995 ], [ 34.944474654221096, 65.061656819263703 ], [ 34.957136269316152, 65.059249853904589 ], [ 34.960946663289121, 65.048857808928233 ], [ 35.006170118044906, 65.012254158718861 ], [ 35.021564712361339, 65.005911793618054 ], [ 35.070587173750994, 65.003696749641733 ], [ 35.108093513487916, 64.993707043220866 ], [ 35.113868663282915, 64.978945233757372 ], [ 35.119138689223178, 64.967099783956769 ], [ 35.13185773684279, 64.958936555558637 ], [ 35.13927791530233, 64.954245914385012 ], [ 35.139937975697649, 64.951204846860492 ], [ 35.152454415808165, 64.94619132985838 ], [ 35.150412058958807, 64.94054539468209 ], [ 35.155102230527461, 64.930525848307298 ], [ 35.158669435600132, 64.923831933832844 ], [ 35.162050829653595, 64.918543851556251 ], [ 35.159653932051754, 64.914362459094491 ], [ 35.160974893565253, 64.904038145934692 ], [ 35.154881979447168, 64.886569228867302 ], [ 35.151942041171196, 64.886314949675636 ], [ 35.137354385128788, 64.857921440154314 ], [ 35.135854781538853, 64.85774163459439 ], [ 35.135393141891655, 64.855396153929235 ], [ 35.143885315926013, 64.822355311917136 ], [ 35.14378019716861, 64.820647810891444 ], [ 35.151543509760131, 64.792058419305192 ], [ 35.155610597785994, 64.781768614804832 ], [ 35.177329072851649, 64.764318796689736 ], [ 35.184890898911874, 64.738177052946526 ], [ 35.180903585168153, 64.729911392860345 ], [ 35.184273509562274, 64.719307827719604 ], [ 35.183050067359432, 64.692123290209622 ], [ 35.188905926413099, 64.677006180529133 ], [ 35.198403195644232, 64.656660037188203 ], [ 35.212658619747288, 64.633317647429294 ], [ 35.207707775719371, 64.621367862651766 ], [ 35.233901991937671, 64.60411091032438 ], [ 35.251518323863706, 64.595743956291869 ], [ 35.289055377818784, 64.57728952316387 ], [ 35.308273111316339, 64.568853692224479 ], [ 35.309948914079541, 64.567407852024417 ], [ 35.314844954488763, 64.568464687705216 ], [ 35.366775432593272, 64.565871374055916 ], [ 35.398113300724503, 64.550891594393875 ], [ 35.422066744656149, 64.535168197195219 ], [ 35.461322633948782, 64.524617561080959 ], [ 35.494667948011625, 64.514702069311284 ], [ 35.519782658410804, 64.505890509841265 ], [ 35.548065864939076, 64.500449617800882 ], [ 35.573057784050377, 64.516107374758747 ], [ 35.588491615933265, 64.524721405352466 ], [ 35.610194526881116, 64.513505587936663 ], [ 35.633010996250619, 64.495220848068129 ], [ 35.653327378508777, 64.488831826194655 ], [ 35.677551249558064, 64.489219688039157 ], [ 35.692074579891482, 64.492513357516202 ], [ 35.723366273267857, 64.493791138025699 ], [ 35.750510381148331, 64.493561164534412 ], [ 35.765594785151734, 64.479991969580112 ], [ 35.786325299260113, 64.484070014776023 ], [ 35.807465887358319, 64.475301382379484 ], [ 35.813598275031893, 64.47185612906469 ], [ 35.857703864944995, 64.451546318145233 ], [ 35.882136720311678, 64.463932142461999 ], [ 35.887752991932757, 64.464329982845925 ], [ 35.891262635973362, 64.462039750928 ], [ 35.899098408051145, 64.456097683738449 ], [ 35.950343341980329, 64.41321622575947 ], [ 35.994698509464115, 64.403741706046503 ], [ 36.031374518766029, 64.39525985126977 ], [ 36.059354903415624, 64.394824843781066 ], [ 36.064284350511116, 64.408313868582013 ], [ 36.109016185996779, 64.421041809022483 ], [ 36.150137395124034, 64.404359599662769 ], [ 36.16460637355982, 64.389298994050534 ], [ 36.198281974290921, 64.39103906626417 ], [ 36.217303262069549, 64.391280409821775 ], [ 36.230797232484917, 64.386504841997521 ], [ 36.270606527067685, 64.362859356726403 ], [ 36.288049892164736, 64.357493350558855 ], [ 36.319878968751027, 64.343798561589324 ], [ 36.35351505001637, 64.334302360439438 ], [ 36.374142694425132, 64.328431412184955 ], [ 36.394986899460207, 64.326722387719371 ], [ 36.416147281116878, 64.325018553208906 ], [ 36.433861515040007, 64.321044658398023 ], [ 36.462627996391291, 64.325331111918842 ], [ 36.466550645133793, 64.322541750472851 ], [ 36.526221092767457, 64.31740656786144 ], [ 36.535413207303691, 64.314382226148211 ], [ 36.577236504416874, 64.31224478254444 ], [ 36.587588616347375, 64.308037626513567 ], [ 36.608162115436471, 64.302149372582903 ], [ 36.612097361393296, 64.302414333884315 ], [ 36.658701945218979, 64.296719921927604 ], [ 36.663120316929962, 64.29600576659152 ], [ 36.671898022853327, 64.293502839849907 ], [ 36.691279978294119, 64.290154622504019 ], [ 36.722459446237792, 64.284444188699126 ], [ 36.727161160414539, 64.283434798970177 ], [ 36.744564620493463, 64.277496322887714 ], [ 36.762852317718114, 64.275717317214117 ], [ 36.77689217411455, 64.272842947088179 ], [ 36.816805251982714, 64.257291569680149 ], [ 36.824143703466007, 64.255475277212042 ], [ 36.872676093661539, 64.24444398884981 ], [ 36.897072293074359, 64.237727951083912 ], [ 36.927799028467234, 64.226807203318629 ], [ 36.970664580228345, 64.222842163493624 ], [ 36.991722935075416, 64.220133209673918 ], [ 37.049470029254451, 64.213454675438811 ], [ 37.060287389080997, 64.221074427419808 ], [ 37.061483754098731, 64.247579418093721 ], [ 37.05474876300184, 64.257743377762438 ], [ 37.020933409154964, 64.297349150438492 ], [ 37.007536505093356, 64.316760389527303 ], [ 36.987775570399435, 64.359869997715577 ], [ 36.966497301974471, 64.377602058652144 ], [ 36.957456808878646, 64.38704933115531 ], [ 36.920426798364929, 64.425220403034416 ], [ 36.888694372282032, 64.460504104048653 ], [ 36.874856342699218, 64.475276590164981 ], [ 36.867166014190786, 64.483093703645977 ], [ 36.838666080358678, 64.511441086404432 ], [ 36.818644276724626, 64.524898771444214 ], [ 36.817938319995847, 64.525526340366923 ], [ 36.770751698749223, 64.567751613256519 ], [ 36.770585028009748, 64.567865063174395 ], [ 36.752490756254531, 64.581576676399152 ], [ 36.719944625634298, 64.604651564120957 ], [ 36.718647334439822, 64.605606106488267 ], [ 36.671778679933595, 64.614334580488901 ], [ 36.647078527828796, 64.633583662536864 ], [ 36.618176959418292, 64.665231994484145 ], [ 36.612192451116073, 64.671617638800058 ], [ 36.541332087864134, 64.668612381661603 ], [ 36.54020131789008, 64.696253014160902 ], [ 36.529723652208531, 64.703709421126348 ], [ 36.488860126241832, 64.733024878500146 ], [ 36.4850393782026, 64.745067592899545 ], [ 36.46506616476745, 64.777914760867191 ], [ 36.438782246673156, 64.809591049721291 ], [ 36.438080735467224, 64.815412770578519 ], [ 36.429865016113695, 64.820328739719116 ], [ 36.417973371388939, 64.858204120522714 ], [ 36.413993302186555, 64.873312850482819 ], [ 36.406332653254992, 64.903696409077384 ], [ 36.413203349052537, 64.922235976177035 ], [ 36.434766943727197, 64.942202612011727 ], [ 36.471351156691867, 64.95112559078359 ], [ 36.514181454796812, 64.958263973801081 ], [ 36.572180816813898, 64.964510058941357 ], [ 36.633749370339785, 64.967186952572945 ], [ 36.677471966321889, 64.97075614408169 ], [ 36.714948477163716, 64.979679122853554 ], [ 36.748536602934905, 64.989482984528877 ], [ 36.771711339613205, 65.00210919129313 ], [ 36.819347328794549, 65.016263335818167 ] ], [ [ 38.849220897974476, 66.103652229430452 ], [ 38.751158144622423, 66.060764027482946 ], [ 38.667827554839107, 66.056908957150995 ], [ 38.637943071552513, 66.05609407342854 ], [ 38.610941142272793, 66.055231567035662 ], [ 38.442266520235762, 66.050027547215052 ], [ 38.39186232755975, 66.057718340292979 ], [ 38.242736418432173, 66.063813031156485 ], [ 38.199203593167908, 66.060560623038327 ], [ 38.115721446629152, 66.069054589053849 ], [ 38.090167191977457, 66.070844607034985 ], [ 38.003985251349945, 66.073948334407874 ], [ 37.981277710590405, 66.075374480336905 ], [ 37.896581531901461, 66.081437871587639 ], [ 37.870595020132214, 66.083658798248905 ], [ 37.84919652257571, 66.094948055644636 ], [ 37.828467818388276, 66.121944335912815 ] ], [ [ 39.303430260724951, 64.622586469613964 ], [ 39.364785556703168, 64.64048208587343 ], [ 39.410107842245338, 64.622801215402603 ], [ 39.441366318983398, 64.61290424921026 ], [ 39.500449061647373, 64.595200698983035 ], [ 39.521838727922727, 64.58704923144262 ], [ 39.592314573971521, 64.581447110846227 ], [ 39.617603078316108, 64.58112448320054 ], [ 39.683120098145935, 64.593044737295827 ], [ 39.707268489851231, 64.596664353812344 ], [ 39.726686961198766, 64.635289157842919 ], [ 39.730265187106511, 64.655756508727791 ], [ 39.738817604672477, 64.659937093980318 ], [ 39.741042873159472, 64.710818740888612 ], [ 39.766773635688651, 64.728374409052947 ], [ 39.795058474067673, 64.712403233832561 ], [ 39.833856971897148, 64.707419185229924 ], [ 39.872748435131882, 64.719878638774389 ], [ 39.895279117487803, 64.737975733878784 ], [ 39.92317582279054, 64.753764267312306 ], [ 39.942363127039812, 64.761758810811557 ], [ 39.980145491244002, 64.778914109381844 ], [ 40.033627088596518, 64.791282050559005 ], [ 40.075576782684379, 64.79532668650802 ], [ 40.076463213750174, 64.817091826873593 ], [ 40.085956856527332, 64.835612555864031 ], [ 40.104983012649427, 64.847495522728593 ], [ 40.140419626527546, 64.876675143575994 ], [ 40.157301070582434, 64.88805565025541 ], [ 40.172710066027378, 64.904300965616073 ], [ 40.164415288722921, 64.91360452123638 ], [ 40.167378306497142, 64.95214313441835 ], [ 40.157009483277761, 64.973634071400681 ], [ 40.149527840832093, 64.99745739910577 ], [ 40.129935950309005, 65.02034354934591 ], [ 40.11656075432893, 65.042015905928679 ], [ 40.104502344743196, 65.07667584040621 ], [ 40.075369453180429, 65.101222805067835 ], [ 40.080290578035601, 65.092103325922153 ], [ 40.02420552117735, 65.104531601944529 ], [ 40.004985295271354, 65.118917181549534 ], [ 39.989827109318526, 65.147007255393078 ], [ 39.986260033990447, 65.161389903223608 ], [ 39.984858787436622, 65.180751775871727 ], [ 39.994663682918656, 65.216261990568626 ] ] ] } },
{ "type": "Feature", "properties": { "gid": 2, "objectid": 2.0, "z": 5.0, "index": 0.0, "shape_leng": 1.8989258896000001, "z1": null }, "geometry": { "type": "MultiLineString", "coordinates": [ [ [ 36.153088661783897, 65.13783802684344 ], [ 36.152214162866727, 65.136939910138722 ], [ 36.149473495607367, 65.137021290196628 ], [ 36.118383489942289, 65.124004177589256 ], [ 36.088730780014942, 65.11819059890712 ], [ 36.077929150807933, 65.115605280938723 ], [ 36.039068288650014, 65.115681113762662 ], [ 36.03742613876264, 65.115870686670064 ], [ 36.029887473603651, 65.11645740084353 ], [ 36.003053696898832, 65.110778326154247 ], [ 35.989275978907301, 65.101310813916029 ], [ 35.98219962329307, 65.08370939925976 ], [ 35.990668590806308, 65.067310175014541 ], [ 35.998111649372788, 65.067272547588914 ], [ 36.023598639527393, 65.059206847014082 ], [ 36.022074682187196, 65.046571548402454 ], [ 36.026183258931297, 65.040095317235796 ], [ 36.041282917809497, 65.026624594378632 ], [ 36.04072847371566, 65.023267959783141 ], [ 36.028959397270171, 64.996721690346078 ], [ 36.027064793394118, 64.989524564749615 ], [ 36.009761517722097, 64.980522437559813 ], [ 35.995748814122805, 64.986558854434577 ], [ 35.97848445670391, 64.992323636528567 ], [ 35.964818420325543, 64.996846227877654 ], [ 35.960641235404751, 64.998394423208339 ], [ 35.959984836809014, 64.996372036490527 ], [ 35.936852937535178, 64.986542610524367 ], [ 35.928191003419158, 64.98246843811657 ], [ 35.926347962726283, 64.981943773920932 ], [ 35.924849835443297, 64.982328257436194 ], [ 35.89484076666136, 64.978810221990102 ], [ 35.880826358217803, 64.984248028966391 ], [ 35.876950962716421, 64.984573506197478 ], [ 35.874995766193166, 64.982831794739582 ], [ 35.84441517425887, 64.972882072994224 ], [ 35.836371156779876, 64.971132440157959 ], [ 35.805147846316714, 64.961476616197643 ], [ 35.797614137263906, 64.960222581721752 ], [ 35.771683551123886, 64.953612123455997 ], [ 35.765189893500178, 64.947198600872355 ], [ 35.743938077329005, 64.943236825463998 ], [ 35.729833848017762, 64.940373539502787 ], [ 35.713812949849512, 64.935413549144982 ], [ 35.704273039431541, 64.946656468775501 ], [ 35.692853775181135, 64.953249318219605 ], [ 35.688243894634326, 64.981648230634192 ], [ 35.688861863265743, 64.982211991446434 ], [ 35.691497741165335, 64.984865849939581 ], [ 35.684307050222287, 65.00004062078375 ], [ 35.673268122002412, 65.006965643915578 ], [ 35.652227627360844, 65.011290971189851 ], [ 35.628990373123258, 65.021140419979957 ], [ 35.62283640180263, 65.022876561037322 ], [ 35.593030240139313, 65.030519855747229 ], [ 35.586458643301796, 65.031856486428552 ], [ 35.585923408070954, 65.031962867695398 ], [ 35.553534145991449, 65.044219203875457 ], [ 35.549403689525349, 65.046571269354899 ], [ 35.545404358679662, 65.048954477155405 ], [ 35.519420687444438, 65.060000073994416 ], [ 35.517948686771234, 65.061371806747218 ], [ 35.498925014792007, 65.079792588483599 ], [ 35.49217362272617, 65.093893491939696 ], [ 35.489002521964778, 65.101269736187646 ], [ 35.489374184704502, 65.11221524636494 ], [ 35.494522539273305, 65.117966937381425 ], [ 35.52043783394052, 65.114954153366966 ], [ 35.530554973360381, 65.105526160827196 ], [ 35.544260670533163, 65.106584310735343 ], [ 35.575109325014694, 65.108593410274011 ], [ 35.608069640075485, 65.144902955944417 ], [ 35.623361395686715, 65.148915356636309 ], [ 35.642162990189178, 65.154744997373228 ], [ 35.654896613690738, 65.163660048085291 ], [ 35.678180594885077, 65.173352316618605 ], [ 35.701900109197766, 65.177679656408202 ], [ 35.716582124121544, 65.179547407562666 ], [ 35.744585002277802, 65.181682247013697 ], [ 35.758124677100682, 65.182568696982344 ], [ 35.784788371326272, 65.178282366949247 ], [ 35.797908113963956, 65.177306791534647 ], [ 35.823659472094761, 65.180105852196135 ], [ 35.837355217023514, 65.182446064398448 ], [ 35.851032974707834, 65.177390545475902 ], [ 35.853995795609165, 65.167534864493064 ], [ 35.858284652596922, 65.153559578349814 ], [ 35.870515302638665, 65.143080151596394 ], [ 35.873873700460763, 65.133993063049331 ], [ 35.881212274544112, 65.123348862762356 ], [ 35.886070599677765, 65.10650614496268 ], [ 35.888461442519372, 65.097723339364109 ], [ 35.905880155230989, 65.094253563904346 ], [ 35.920585632964446, 65.098646702347196 ], [ 35.931550565628044, 65.092627091305758 ], [ 35.950063325028509, 65.106526746079908 ], [ 35.944370665415477, 65.120133077026821 ], [ 35.938952322510943, 65.124996955084669 ], [ 35.938696763609244, 65.134773047902996 ], [ 35.92228090748543, 65.143987529896549 ], [ 35.919361041364056, 65.159655636802313 ], [ 35.93635006989669, 65.171714888259999 ], [ 35.944276160473237, 65.18235220503999 ], [ 35.958994888410018, 65.182321776897993 ], [ 35.96387504568014, 65.168897952229599 ], [ 35.982310190331305, 65.167079765742528 ], [ 35.989175879614891, 65.185112376551899 ], [ 36.017779725414698, 65.187028546730346 ], [ 36.025030747900132, 65.183601211509085 ], [ 36.044967414913202, 65.173986569803702 ], [ 36.05196473724223, 65.169922705303321 ], [ 36.060345248115965, 65.161614675700548 ], [ 36.077114997402589, 65.141086628515382 ], [ 36.095157882853499, 65.145405106304793 ], [ 36.098070818363595, 65.157250365009531 ], [ 36.115689570287998, 65.16289670142578 ], [ 36.12314560994858, 65.166295965260446 ], [ 36.131010711760666, 65.161981525030626 ], [ 36.140718215262041, 65.157011532545027 ], [ 36.152628912605252, 65.139699751700419 ], [ 36.153088661783897, 65.13783802684344 ] ] ] } },
{ "type": "Feature", "properties": { "gid": 3, "objectid": 3.0, "z": 5.0, "index": 0.0, "shape_leng": 0.42261738811400001, "z1": null }, "geometry": { "type": "MultiLineString", "coordinates": [ [ [ 35.512723872598286, 64.680452109314501 ], [ 35.520267682775909, 64.68421864935948 ], [ 35.527364511916034, 64.685708739532913 ], [ 35.542337137521884, 64.686082359708905 ], [ 35.549364545935646, 64.690601566471884 ], [ 35.561052326811563, 64.694471149356218 ], [ 35.576311307944792, 64.689577676064943 ], [ 35.59346506683525, 64.679051002211111 ], [ 35.594416304360664, 64.677044669966563 ], [ 35.603171466427796, 64.669512011707496 ], [ 35.604373261449183, 64.667162448240703 ], [ 35.606561926339197, 64.667774286601457 ], [ 35.62494238042575, 64.662835417912135 ], [ 35.62673319884928, 64.661234472689159 ], [ 35.646368037560109, 64.652981905310384 ], [ 35.647908877013776, 64.6505156593484 ], [ 35.664801015242347, 64.645874099078412 ], [ 35.674841135434775, 64.643714217571016 ], [ 35.676844266781956, 64.637189630273554 ], [ 35.660594679284543, 64.624379826345915 ], [ 35.643320372983055, 64.604520586028229 ], [ 35.622502077632873, 64.606440876392298 ], [ 35.589214684703904, 64.593432670735666 ], [ 35.578813077343568, 64.600140308088243 ], [ 35.575306770959429, 64.600521870990747 ], [ 35.565657107785341, 64.605840989839578 ], [ 35.539562164398404, 64.619164837262474 ], [ 35.539538845099742, 64.619186214404323 ], [ 35.515753016516157, 64.642411999622766 ], [ 35.5150808292384, 64.643114297374268 ], [ 35.507679240952854, 64.661917595090983 ], [ 35.510585655341885, 64.670069759464241 ], [ 35.507694213942244, 64.675510785644434 ], [ 35.512723872598286, 64.680452109314501 ] ] ] } },
{ "type": "Feature", "properties": { "gid": 4, "objectid": 4.0, "z": 10.0, "index": 0.0, "shape_leng": 13.1557732195, "z1": null }, "geometry": { "type": "MultiLineString", "coordinates": [ [ [ 40.847846606198772, 66.038778258819789 ], [ 40.785354062798774, 66.026988806406791 ], [ 40.77356653979237, 66.021857441723256 ], [ 40.698619504372147, 66.000026791371113 ], [ 40.675750011200023, 65.978878741341902 ], [ 40.628951737293448, 65.958733361593005 ], [ 40.607519281751792, 65.963993301877167 ], [ 40.551990087420506, 65.932751214801243 ], [ 40.544948687194989, 65.926920513258665 ], [ 40.496760112699292, 65.892802695176329 ], [ 40.489990441958327, 65.88781074993318 ], [ 40.439554617289133, 65.853095773985956 ], [ 40.432916418169668, 65.844787429203336 ], [ 40.374425235058993, 65.811834066902748 ], [ 40.36297102324923, 65.811681060760748 ], [ 40.277392858945433, 65.78379482032318 ], [ 40.264353418024285, 65.76965832845616 ], [ 40.212100871737135, 65.748356231983053 ], [ 40.182023982677634, 65.747031275022891 ], [ 40.11544567257809, 65.720592694007962 ], [ 40.099930055061265, 65.711828358427852 ], [ 40.037105834853804, 65.691440776208765 ], [ 40.007448438700692, 65.686633724559385 ], [ 39.912551841087662, 65.641358080858765 ], [ 39.877471018695026, 65.616282434918318 ] ], [ [ 39.76237666639642, 65.421371928534526 ], [ 39.761507245725994, 65.416916147598585 ], [ 39.770430224497659, 65.325901764125547 ], [ 39.781137799023895, 65.279502274511884 ], [ 39.797826311711219, 65.237630502611808 ], [ 39.823126630305012, 65.230146982867154 ], [ 39.860129083186763, 65.192929834098493 ], [ 39.868684540925187, 65.189084129931985 ], [ 39.886444680669285, 65.145680269488622 ], [ 39.867760622597899, 65.09813798758853 ], [ 39.85747185253436, 65.079528471557097 ], [ 39.830587019954862, 65.03970575434505 ], [ 39.80490432729141, 65.011990223036548 ], [ 39.780042610175002, 64.986944496908109 ], [ 39.7422306501104, 64.961801018886177 ], [ 39.715502095365082, 64.939979423929003 ], [ 39.673831725216672, 64.918376528919964 ], [ 39.639278919130504, 64.90168645925587 ], [ 39.597320165616367, 64.884181427129334 ], [ 39.563565015734696, 64.871479455134363 ], [ 39.51961224098352, 64.857697686209548 ], [ 39.494443648567653, 64.850368075203761 ], [ 39.476705393957815, 64.846596883901213 ], [ 39.403259803250108, 64.832173568793479 ], [ 39.400310744851936, 64.831758780157685 ], [ 39.325015552764427, 64.82398359478978 ], [ 39.290186115206211, 64.822988074229215 ], [ 39.239651082738931, 64.81894155213385 ], [ 39.213107549760934, 64.819358381180848 ], [ 39.177840916760175, 64.820627751163698 ], [ 39.154396223355548, 64.819133128243323 ], [ 39.119381424898421, 64.821698020736392 ], [ 39.070746682730146, 64.824386002539541 ], [ 39.068538991865296, 64.824566027950141 ], [ 39.066753161809203, 64.824577256062241 ], [ 39.013320092272068, 64.831162556976949 ], [ 38.970648953283813, 64.834244031240843 ], [ 38.96034062953575, 64.836363779424602 ], [ 38.952011934045146, 64.836516688214033 ], [ 38.907555184530906, 64.841812628961634 ], [ 38.871929828586872, 64.844516075856632 ], [ 38.853966902563286, 64.848686666446326 ], [ 38.839288547620782, 64.848830919232512 ], [ 38.799103149300294, 64.854320616592361 ], [ 38.766230265318995, 64.856586874448226 ], [ 38.74678893911198, 64.862949152840883 ], [ 38.729682638892058, 64.861637302354325 ], [ 38.694412200828253, 64.866688393289365 ], [ 38.66478178778226, 64.868078268133161 ], [ 38.623503548006283, 64.875584707609988 ], [ 38.5940200587211, 64.882193503479414 ], [ 38.563208694104219, 64.881554281324583 ], [ 38.521444429221503, 64.892667317224607 ], [ 38.499498520715917, 64.904801334370887 ], [ 38.461723434811603, 64.903183186019362 ], [ 38.419042503839592, 64.8951004465344 ], [ 38.416981781600157, 64.895372092549394 ], [ 38.33517955963913, 64.912771030125469 ], [ 38.317170918643512, 64.907687315993996 ], [ 38.300581423697395, 64.910995789279696 ], [ 38.240311338420867, 64.928494401407193 ], [ 38.200060944684253, 64.922791474644384 ], [ 38.199010195297916, 64.923244502279147 ], [ 38.196254151713333, 64.922868668611159 ], [ 38.183415212581195, 64.925041660710292 ], [ 38.109491333366208, 64.93952455528796 ], [ 38.08709980010488, 64.943863740045401 ], [ 38.019360254242713, 64.955016701438581 ], [ 38.017234538085319, 64.955482949662979 ], [ 37.94867494737278, 64.97374413389494 ], [ 37.921895130290125, 64.981031122282729 ], [ 37.920829233146037, 64.981376847179433 ], [ 37.861274231647343, 64.997965814604413 ], [ 37.837223576949498, 65.009503201014269 ], [ 37.811836452368965, 65.021993901595152 ], [ 37.779524138182694, 65.020738748761033 ], [ 37.765448021819026, 65.034714914989422 ], [ 37.76519789201862, 65.038007019742537 ], [ 37.68406395455537, 65.062153877472156 ], [ 37.676133344633911, 65.064254774159025 ], [ 37.594749843585447, 65.085267612448661 ], [ 37.585075154885971, 65.087435376234026 ], [ 37.555029519492706, 65.09542207877314 ] ], [ [ 37.050195310932686, 65.195898437709346 ], [ 36.965225185908707, 65.207227373660885 ], [ 36.877456117189865, 65.206002751116017 ], [ 36.797739621935932, 65.204247824993161 ], [ 36.752212639549072, 65.145897780355881 ], [ 36.708264129833196, 65.131749069332841 ], [ 36.686760054144685, 65.120720348160972 ], [ 36.660866473801491, 65.109570811502778 ], [ 36.641381089197353, 65.104469209953237 ], [ 36.624246047242792, 65.095959452301059 ], [ 36.587773977691626, 65.082869737336296 ], [ 36.569576464666653, 65.077573093964077 ], [ 36.52582123830615, 65.061316792518483 ], [ 36.499277427385152, 65.056060306684316 ], [ 36.463034540123829, 65.042495061469054 ], [ 36.451991584981897, 65.037981540823239 ], [ 36.445156763307693, 65.037138311323332 ], [ 36.434210263716551, 65.034568558738243 ], [ 36.371747047960667, 65.010389657371093 ], [ 36.367607813619799, 65.010283207419121 ], [ 36.315468838380326, 65.008833904925268 ], [ 36.28235114933355, 65.016078341228365 ], [ 36.278755177001727, 65.016069026751239 ], [ 36.274991024285811, 65.017949322049532 ], [ 36.27349946285608, 65.087556772254175 ], [ 36.283132199140084, 65.123454262284326 ], [ 36.274075045541423, 65.152387887123098 ], [ 36.270279841003401, 65.157689925152368 ], [ 36.260097442442458, 65.161802612929137 ], [ 36.247858615723032, 65.172498936561112 ], [ 36.23142480436951, 65.183883247635094 ], [ 36.183775805592006, 65.18391196674213 ], [ 36.132376829831799, 65.183287895735873 ], [ 36.012018793000976, 65.21613032015739 ], [ 35.978384410860713, 65.205801778705904 ], [ 35.971632625442084, 65.201974187890414 ], [ 35.949065366192372, 65.201070483977844 ], [ 35.94274011696757, 65.203575310326471 ], [ 35.93584129100779, 65.205262154049819 ], [ 35.930619105478996, 65.201676929631503 ], [ 35.91638482626891, 65.197443996046928 ], [ 35.835545651047369, 65.19535819318844 ], [ 35.801946351232601, 65.198562641424473 ], [ 35.78585180679508, 65.200443593625209 ], [ 35.73657239372568, 65.202801893989118 ], [ 35.644380716316192, 65.189404935517814 ], [ 35.642849841009649, 65.187960144219858 ], [ 35.633664535053072, 65.181529337729501 ], [ 35.607647407014269, 65.17665417175175 ], [ 35.60615179424363, 65.1767346708221 ], [ 35.599770456174099, 65.174876044431699 ], [ 35.580894480634157, 65.172060228156624 ], [ 35.572307334849285, 65.17002003593376 ], [ 35.563431423390341, 65.168122308110554 ], [ 35.533882808478751, 65.161562704844982 ], [ 35.529050001176159, 65.161144452897247 ], [ 35.49487246261566, 65.147529233523642 ], [ 35.473868989385693, 65.143776168071781 ], [ 35.454048553583931, 65.140155959045074 ], [ 35.448292032685032, 65.140957033363549 ], [ 35.441003413128954, 65.134529876930202 ], [ 35.428876536651217, 65.131375580807912 ], [ 35.417405313564927, 65.127180775016342 ], [ 35.391125398731674, 65.117126008990482 ], [ 35.3718428372961, 65.116096866171716 ], [ 35.343301116619926, 65.117599843855743 ], [ 35.324477456146411, 65.123404282334377 ], [ 35.306179116160081, 65.142915529228077 ], [ 35.299270703806798, 65.148404859821341 ], [ 35.297437864850565, 65.149215911791657 ], [ 35.289459838735837, 65.150586327218093 ], [ 35.263608089080719, 65.150587786076358 ], [ 35.242522927219397, 65.160684010377992 ], [ 35.226216715644114, 65.166704289556947 ], [ 35.200662803749367, 65.177349449673898 ], [ 35.157243467154359, 65.174798657841421 ], [ 35.115644868390774, 65.2022527505178 ], [ 35.112364648273854, 65.204298795128125 ], [ 35.110062377163587, 65.205928622730454 ], [ 35.105595808928314, 65.208165323041612 ], [ 35.080963783169864, 65.220805237288118 ], [ 35.063382882493954, 65.230461079380035 ], [ 35.041395090811477, 65.247014669556194 ], [ 35.021141652672725, 65.262648971547861 ], [ 35.008534810389619, 65.279007261007933 ], [ 34.994329873618028, 65.297285837470668 ], [ 34.9801099807529, 65.317553261149556 ], [ 34.958927833344717, 65.354797929249003 ], [ 34.968253485931228, 65.38278390959033 ], [ 34.957931691373489, 65.424933505055435 ], [ 34.95305546432806, 65.434363137523405 ], [ 34.968944760534271, 65.484639260379566 ], [ 34.972518637441709, 65.501625826640691 ], [ 34.986145940274724, 65.524820736071234 ], [ 34.991688402340543, 65.539706676150729 ], [ 34.993771380759853, 65.572811776713991 ], [ 35.010907784424603, 65.597027398718637 ], [ 35.036332378513208, 65.615165239112741 ], [ 35.045349931490023, 65.622775618277956 ], [ 35.105622046540248, 65.64570548888878 ], [ 35.091846183059545, 65.681433014964682 ], [ 35.09001669386646, 65.717112811879019 ], [ 35.069219556171447, 65.761251439689659 ], [ 35.066336708696468, 65.763490377372761 ], [ 35.067497002499891, 65.765880890743659 ], [ 35.061590293335087, 65.815945346403169 ], [ 35.022002228274488, 65.845835366548386 ], [ 35.019000878921617, 65.851530915009874 ], [ 35.014937154934188, 65.857612669613616 ], [ 34.986107851596955, 65.88950221241987 ], [ 34.970623933884809, 65.910712850833193 ], [ 34.952202264438625, 65.928234345614442 ], [ 34.942052058483625, 65.946102052068596 ], [ 34.927896297347672, 65.967112977130398 ], [ 34.918072138956688, 65.98201539441709 ], [ 34.911292722696174, 66.00853707185891 ], [ 34.901426426150579, 66.044058669387709 ], [ 34.901126866622462, 66.063809844257889 ], [ 34.898119378282672, 66.121284878070725 ], [ 34.899289723340871, 66.125668308755962 ], [ 34.903360681215474, 66.149914265464815 ], [ 34.908967121082696, 66.184032157631009 ], [ 34.909171716630254, 66.188641172819189 ], [ 34.911611208401126, 66.191731356928301 ], [ 34.937531253934424, 66.223497238767038 ], [ 34.950174899175209, 66.234420019056557 ], [ 34.971161796740631, 66.252552296791862 ], [ 35.034138951974853, 66.276783084264309 ], [ 35.039105238160147, 66.278752519880157 ], [ 35.129143912534403, 66.302909340301994 ], [ 35.130108684636213, 66.303168321042847 ], [ 35.130172318357097, 66.303175578010325 ], [ 35.130409148158407, 66.3032007596195 ], [ 35.232144365829782, 66.313658800849282 ], [ 35.257132959057458, 66.318535874525111 ], [ 35.333466373558707, 66.328122342311104 ], [ 35.394621643790799, 66.332254644934551 ], [ 35.437220111300149, 66.324290255681404 ], [ 35.54952397008347, 66.309900327120431 ], [ 35.665604535286576, 66.301407296079674 ], [ 35.78100544230341, 66.29152310514479 ], [ 35.895143934336488, 66.278333461523431 ], [ 36.009222722408623, 66.266268479201415 ], [ 36.123438634007982, 66.254716113821047 ], [ 36.235789877580885, 66.252596223290368 ], [ 36.349393814889538, 66.228934874263416 ], [ 36.463799631150408, 66.220130973117193 ], [ 36.581310951427469, 66.211983786342927 ], [ 36.699410216562711, 66.209617291169735 ], [ 36.815972731332465, 66.203752400280905 ], [ 36.83431373436224, 66.202979553956538 ], [ 36.951135557567142, 66.192495469586135 ], [ 37.015787271561095, 66.195429509804541 ], [ 37.023248306268471, 66.194651900332929 ], [ 37.107855705398975, 66.209376346101749 ], [ 37.114165790655733, 66.208382391792867 ], [ 37.197818626402352, 66.190189260261974 ], [ 37.214338721052769, 66.189065129641733 ], [ 37.299377537129004, 66.173222415440421 ], [ 37.313404556655001, 66.167183269106459 ], [ 37.396287271229255, 66.147914176137419 ], [ 37.41270383681703, 66.143004480269212 ], [ 37.490193636986334, 66.123485436008139 ], [ 37.510442404891734, 66.117488232747235 ], [ 37.586725669578385, 66.100900766701727 ], [ 37.612471433502037, 66.095133694325483 ], [ 37.690333707942017, 66.083072087654841 ], [ 37.762682070897597, 66.094700259898815 ], [ 37.769245134608326, 66.089372010159593 ], [ 37.785831249072118, 66.092492607480551 ], [ 37.831391273139275, 66.068456394772738 ], [ 37.909350808404326, 66.061793614760944 ], [ 37.943053970404463, 66.05938080686613 ], [ 38.020825695494096, 66.054496369659432 ], [ 38.055327788693944, 66.053253821112008 ], [ 38.131990552618873, 66.047883767154588 ], [ 38.166014017159029, 66.044422018851293 ], [ 38.240815756551626, 66.038058869977334 ], [ 38.389119990810457, 66.031620048379466 ], [ 38.468585773430448, 66.032462641611488 ], [ 38.534449639511905, 66.034494701103483 ], [ 38.615455427410865, 66.037082220282343 ], [ 38.705108877286079, 66.039526871449198 ], [ 38.73678064660669, 66.040992082460576 ], [ 38.816033327559154, 66.054790653535804 ], [ 38.839161692900632, 66.063921384557204 ], [ 38.910399487140353, 66.069046190678023 ], [ 38.938683344182238, 66.068572459305841 ], [ 39.027429855152235, 66.074308280513179 ], [ 39.047543964916372, 66.073843843594716 ], [ 39.142489881138488, 66.081483119400275 ], [ 39.158235125854901, 66.083680094030569 ], [ 39.252089091795028, 66.099150886802931 ], [ 39.261787041105123, 66.101979141109439 ], [ 39.360821465874409, 66.118427668610877 ], [ 39.365468049451408, 66.119113529261483 ], [ 39.369772815378752, 66.120021037306401 ], [ 39.476163975894735, 66.133212626897404 ], [ 39.485815500972166, 66.13288159498191 ], [ 39.492888707725797, 66.134400473631217 ], [ 39.585233166042855, 66.135867476157784 ], [ 39.613682869065258, 66.134032851638096 ], [ 39.628633434753425, 66.139430506242263 ], [ 39.697349809255627, 66.148455960254182 ], [ 39.727082929501364, 66.147969766811002 ], [ 39.741781839606489, 66.153347109575463 ], [ 39.806128990574564, 66.160643225332024 ], [ 39.834369094067398, 66.160444057154052 ], [ 39.850466914475078, 66.166846834894386 ], [ 39.907453568215885, 66.175361111643838 ], [ 39.968910634852506, 66.185801140018299 ], [ 40.073632436484473, 66.20708833864785 ], [ 40.110746145350305, 66.215926462566244 ], [ 40.180765078723198, 66.234344839467781 ], [ 40.204725468487709, 66.240520393024838 ], [ 40.281966004753571, 66.265455889472037 ], [ 40.295861542821513, 66.269926405817642 ], [ 40.375919128520877, 66.297368192841503 ], [ 40.388946577179013, 66.301253976227628 ], [ 40.463911211554688, 66.328008967335336 ], [ 40.487280575427718, 66.336729925838938 ], [ 40.544816804744244, 66.359936444802003 ], [ 40.578416441028878, 66.373941337835532 ], [ 40.609224316809645, 66.388909223271327 ], [ 40.650207752300382, 66.406859873529299 ] ] ] } },
{ "type": "Feature", "properties": { "gid": 5, "objectid": 5.0, "z": 15.0, "index": 0.0, "shape_leng": 12.388128824100001, "z1": null }, "geometry": { "type": "MultiLineString", "coordinates": [ [ [ 40.813701865815737, 66.102369252827913 ], [ 40.811106886234512, 66.101809113097318 ], [ 40.703664507935343, 66.094434653976492 ], [ 40.699033794400918, 66.095237599191165 ], [ 40.698139385190075, 66.093490403553005 ], [ 40.669902755689719, 66.089451473861374 ], [ 40.590972462960195, 66.087538462612571 ], [ 40.551876932819312, 66.079215513556903 ], [ 40.493060881839654, 66.049813513542148 ], [ 40.487052891898401, 66.041465912742012 ], [ 40.477286705907261, 66.031529764703151 ], [ 40.432752769207724, 65.999271578068175 ], [ 40.419587283540864, 65.993414198441343 ], [ 40.411208681820568, 65.989479088268126 ], [ 40.35595998038491, 65.94836948007304 ], [ 40.342419130684362, 65.940175541647477 ], [ 40.29530883749274, 65.903938435513226 ], [ 40.272358646718374, 65.888807439740333 ], [ 40.229377529118466, 65.856934488125205 ], [ 40.162225338091957, 65.806597610600903 ], [ 40.156611950093094, 65.802254513444495 ], [ 40.151289656409091, 65.798168048350021 ], [ 40.075781097591999, 65.758546854674876 ], [ 40.042189780842136, 65.739402406965439 ], [ 39.99514456551691, 65.713560048010663 ], [ 39.955283511066341, 65.686628708223054 ], [ 39.912073358485969, 65.674737008157535 ], [ 39.90876942280741, 65.671632648125581 ], [ 39.841723982681287, 65.645117522261245 ], [ 39.816973557550938, 65.644294274985498 ], [ 39.810602583035177, 65.64070481114328 ], [ 39.743818438888582, 65.608434932073578 ], [ 39.704400181586436, 65.547191637667623 ], [ 39.677494625154537, 65.486196673839117 ], [ 39.665139074990208, 65.390147211282965 ], [ 39.664038013594165, 65.313325395109189 ], [ 39.660908807854895, 65.305993197078408 ], [ 39.645526768436127, 65.264900723093945 ], [ 39.640593678254106, 65.251201202685536 ], [ 39.638393704895947, 65.24772665525964 ], [ 39.607806523199656, 65.202890546424925 ], [ 39.575689684861715, 65.169752950576594 ], [ 39.561359452579154, 65.155252192664307 ], [ 39.525140785772493, 65.122280308263726 ], [ 39.50852651946505, 65.109503695130229 ], [ 39.465696201863466, 65.083412399559222 ], [ 39.44498560983692, 65.069889840844667 ], [ 39.407541856591678, 65.054201081948179 ], [ 39.370556406953312, 65.037906002777561 ], [ 39.353185572967107, 65.03230401907075 ], [ 39.323753748191052, 65.025223648961344 ], [ 39.298566798883371, 65.019368342618804 ], [ 39.288883048138928, 65.016776278178384 ], [ 39.23876596750074, 65.010130534836264 ], [ 39.205169397493847, 65.005015196773627 ], [ 39.127418817123072, 64.998263213943517 ], [ 39.121031288756228, 64.997719711536945 ], [ 39.117871079972304, 64.997085378592743 ], [ 39.107415413542242, 64.996579381215383 ], [ 39.008720005309499, 64.990944182092903 ], [ 38.909737260328285, 64.988142386951978 ], [ 38.89728610063321, 64.987734135560686 ], [ 38.872829141721269, 64.988729310353079 ], [ 38.787663869677232, 64.993283557429208 ], [ 38.762952510616884, 64.995261000687776 ], [ 38.680163671626417, 65.000941617327044 ], [ 38.624736017387562, 65.005436616251416 ], [ 38.574892018165144, 65.009167201860748 ], [ 38.497734988239415, 65.018895713874514 ], [ 38.469948505560893, 65.021759651484956 ], [ 38.438805993850167, 65.02321297704475 ], [ 38.376677988184611, 65.033184576139263 ], [ 38.361659063550292, 65.03516329423303 ], [ 38.329196775201183, 65.037646215773009 ], [ 38.260688970767717, 65.049900978687674 ], [ 38.243249537132385, 65.052458932943438 ], [ 38.189482407644533, 65.061959863844123 ], [ 38.153274437762121, 65.067596560591511 ], [ 38.142097870251888, 65.069351918165978 ], [ 38.090019518626036, 65.077142846639759 ], [ 38.052389846635748, 65.08582039133762 ], [ 38.0279217222851, 65.090453999539164 ], [ 37.98313147386969, 65.101055309511196 ], [ 37.972885445153338, 65.102911545880488 ], [ 37.968339204744666, 65.103891595455991 ], [ 37.907421317009778, 65.114517513080756 ], [ 37.8771737897479, 65.122422283369872 ], [ 37.841388188302744, 65.128353902633592 ], [ 37.782105550112306, 65.141418045343414 ], [ 37.76392980173128, 65.14475299362681 ], [ 37.684433147616915, 65.159642404673178 ], [ 37.683210860414135, 65.159807492367804 ], [ 37.67818861299034, 65.160586736805271 ], [ 37.588932732222133, 65.173176809927099 ], [ 37.558877041316691, 65.177193622148593 ], [ 37.492770787925366, 65.184291319848967 ], [ 37.424699329465483, 65.191375970243826 ], [ 37.395507128589145, 65.193771802398373 ], [ 37.319690172517113, 65.200849463741434 ], [ 37.299812907469658, 65.202650703402469 ], [ 37.298442881976996, 65.204829515205461 ], [ 37.293457735853877, 65.203329954340148 ], [ 37.206740462875985, 65.209675478385179 ], [ 37.174923298153573, 65.212272585937455 ], [ 37.138521444998361, 65.211959894310041 ], [ 37.110011675220619, 65.214392079593438 ], [ 37.072459831702901, 65.221803108404885 ], [ 37.039715383871282, 65.224570890946836 ], [ 36.999182191328288, 65.221298142889395 ], [ 36.961709622846683, 65.218638595542984 ], [ 36.944838723196938, 65.218696722659075 ], [ 36.917947107082057, 65.216284443522483 ], [ 36.875133372523379, 65.21950081695104 ], [ 36.853819679905598, 65.217927382953349 ], [ 36.792362413689432, 65.223714889885684 ], [ 36.746074787647132, 65.212543795874836 ], [ 36.725069816762698, 65.194308783378915 ], [ 36.700522890678371, 65.185798918028041 ], [ 36.658383896123496, 65.176395592498267 ], [ 36.643604168523012, 65.171538275579479 ], [ 36.609082301628092, 65.164607400802197 ], [ 36.584958406820249, 65.160942445276334 ], [ 36.570730292965834, 65.159958862612314 ], [ 36.542225420010539, 65.151806601686928 ], [ 36.521347030241287, 65.147647990263209 ], [ 36.506706175438097, 65.145483190164725 ], [ 36.464169543513208, 65.138283450593093 ], [ 36.42661602082083, 65.135394149372587 ], [ 36.424613528768674, 65.135538988121056 ], [ 36.422553157739486, 65.135205310783931 ], [ 36.419325063616299, 65.135433006507867 ], [ 36.371262054774121, 65.140164912256353 ], [ 36.361062663374526, 65.143288991472303 ], [ 36.355085639370429, 65.150704915067877 ], [ 36.341615793688931, 65.16195120867647 ], [ 36.299379431322791, 65.184112570976538 ], [ 36.249929426558197, 65.200562136465976 ], [ 36.243350066666636, 65.200468481183691 ], [ 36.22589099832129, 65.202327296341565 ], [ 36.194670778873899, 65.209853079708523 ], [ 36.193926919572334, 65.210131061103368 ], [ 36.190374597878105, 65.210717092646689 ], [ 36.165168580192415, 65.214954505470871 ], [ 36.147554579482318, 65.217738479259594 ], [ 36.127631108465835, 65.219509948743593 ], [ 36.099887795426611, 65.221388827107205 ], [ 36.096896327086199, 65.221548743706137 ], [ 36.056116221385366, 65.223094952874987 ], [ 36.040836073255292, 65.223204153299008 ], [ 36.02766821919127, 65.226039964967896 ], [ 36.018877000620733, 65.22667779360205 ], [ 36.01129649255077, 65.226412595075089 ], [ 35.992719651665595, 65.229236881190474 ], [ 35.975427569064919, 65.226343223970872 ], [ 35.97059246736265, 65.226716174817085 ], [ 35.962326135850162, 65.226021682116368 ], [ 35.930994452486885, 65.224758486219855 ], [ 35.897584077363831, 65.226569423030128 ], [ 35.89746149726858, 65.226578848509234 ], [ 35.8971419435548, 65.226556709778407 ], [ 35.86386055755429, 65.225630887202072 ], [ 35.854416498317903, 65.226671187570957 ], [ 35.84425126701538, 65.226301014219757 ], [ 35.825432988116631, 65.230500339748716 ], [ 35.809236344968724, 65.227809215313783 ], [ 35.798837642243683, 65.228940566346864 ], [ 35.789943912081071, 65.228517126059216 ], [ 35.769851764576686, 65.23212541073741 ], [ 35.751685496390621, 65.229967829524128 ], [ 35.742012197792235, 65.231125228136136 ], [ 35.732316183159242, 65.230675065002345 ], [ 35.710806233604728, 65.233819588640586 ], [ 35.697426963539385, 65.231228988253918 ], [ 35.680508583012852, 65.232560649383231 ], [ 35.661188877260685, 65.230690164549685 ], [ 35.650039205837004, 65.231706364939015 ], [ 35.645013999383195, 65.230300509822371 ], [ 35.620147311987239, 65.229679655312907 ], [ 35.592416919607928, 65.231123610617885 ], [ 35.569851002306734, 65.232380082859891 ], [ 35.531605606680472, 65.233253688551514 ], [ 35.527267178783205, 65.233274077880338 ], [ 35.522695884879965, 65.232963275207965 ], [ 35.468039515602868, 65.241200509859738 ], [ 35.46231644632681, 65.240533998076017 ], [ 35.447472006693744, 65.243320342400722 ], [ 35.430149906620443, 65.247445610177294 ], [ 35.41271068662175, 65.251940580754365 ], [ 35.389539616619146, 65.267666201936692 ], [ 35.385767629326665, 65.269151764761801 ], [ 35.340584176810978, 65.28694127389457 ], [ 35.329328386914227, 65.295431769132875 ], [ 35.309439281641943, 65.312415319232997 ], [ 35.30015603758514, 65.321678522508734 ], [ 35.285196359443916, 65.337735427471017 ], [ 35.257948495345914, 65.383447831118247 ], [ 35.257046102648076, 65.384931393768227 ], [ 35.256964963453385, 65.385197800395105 ], [ 35.237746507424276, 65.445108557658386 ], [ 35.237447153980725, 65.446725272966489 ], [ 35.237447570572982, 65.44963719529926 ], [ 35.236193469812889, 65.503766270674646 ], [ 35.234878127812436, 65.530859439168267 ], [ 35.237294374164946, 65.563416188160801 ], [ 35.23675603316218, 65.594382418596069 ], [ 35.249872622895111, 65.624193987881938 ], [ 35.250532029444059, 65.659796076593949 ], [ 35.243967331189367, 65.692085884133377 ], [ 35.246321749611553, 65.71221003776003 ], [ 35.240031822788438, 65.741715017546539 ], [ 35.23926840283093, 65.753352728206806 ], [ 35.238844774765568, 65.765171366932947 ], [ 35.234966842617894, 65.795432500163258 ], [ 35.236774405640176, 65.831006894688585 ], [ 35.236731435201335, 65.840045637465749 ], [ 35.236112431113895, 65.845549934863868 ], [ 35.238165095157456, 65.886509792428228 ], [ 35.238466415103545, 65.911264477137593 ], [ 35.249619751746764, 65.952065881778481 ], [ 35.257388601123381, 65.990758931060952 ], [ 35.308136441308449, 66.047677063033944 ], [ 35.312552903284228, 66.053956559582787 ], [ 35.382463125395674, 66.091117540097969 ], [ 35.390525404247512, 66.095753888090428 ], [ 35.470190019972875, 66.121572152827923 ], [ 35.485547802629299, 66.128338409922776 ], [ 35.553942474769457, 66.142117620809614 ], [ 35.588280113617685, 66.150973453899752 ], [ 35.634057057497898, 66.1553185068625 ], [ 35.696929202342517, 66.16592034806672 ], [ 35.728831587723249, 66.166957440393219 ], [ 35.781202461177855, 66.168145776653887 ], [ 35.811394249991395, 66.171589203935724 ], [ 35.909365949846801, 66.173378383682831 ], [ 35.919770014385961, 66.173413610842658 ], [ 35.926250402349922, 66.173852187581303 ], [ 35.98346648461316, 66.170735172505431 ], [ 36.041562588143535, 66.171326829135069 ], [ 36.050033409774301, 66.170784723362914 ], [ 36.061001825728511, 66.170030355395511 ], [ 36.112134739334721, 66.166093815627562 ], [ 36.156805551945581, 66.165923948385171 ], [ 36.176661330522649, 66.165242418632346 ], [ 36.203401192469897, 66.163526124335419 ], [ 36.240482517023366, 66.161641470302243 ], [ 36.271673979441459, 66.161229344375982 ], [ 36.30316672330099, 66.160688827658532 ], [ 36.344949491540575, 66.15820314529995 ], [ 36.367877139215182, 66.157412374683304 ], [ 36.387707219590141, 66.157250348536877 ], [ 36.429046427759459, 66.157175011874585 ], [ 36.478565378202035, 66.153407858379126 ], [ 36.492789179392361, 66.152556459666926 ], [ 36.507112665582753, 66.152503373014156 ], [ 36.552088375669115, 66.1522583586775 ], [ 36.603480288366114, 66.148478802613852 ], [ 36.615969420978274, 66.147829784633473 ], [ 36.629175443129441, 66.147607083199659 ], [ 36.674381206219692, 66.147802460691423 ], [ 36.73047248960944, 66.145183988570523 ], [ 36.739763823803543, 66.144816007203218 ], [ 36.749354791318325, 66.144640939936068 ], [ 36.79665982641751, 66.143446258996988 ], [ 36.858418377509309, 66.140040458398317 ], [ 36.862949362053854, 66.139783929625992 ], [ 36.86748045780422, 66.139660166722081 ], [ 36.919077417609515, 66.136817164500883 ], [ 36.980413213867564, 66.134407472534917 ], [ 36.985014125530597, 66.133908535222986 ], [ 36.992805631846096, 66.133744337727023 ], [ 37.046430611779812, 66.13076291477779 ], [ 37.087316331875712, 66.13046349144139 ], [ 37.098950248546487, 66.128458297986185 ], [ 37.141091941957768, 66.126760498387853 ], [ 37.172635518785853, 66.123787025441061 ], [ 37.19221966977068, 66.123327096691611 ], [ 37.282965041581321, 66.119348111824507 ], [ 37.288339495964721, 66.119039478726393 ], [ 37.290406736094212, 66.118850503262507 ], [ 37.294137064847803, 66.118493603629929 ], [ 37.392613537043218, 66.109815399308047 ], [ 37.453302136811601, 66.104601255283399 ], [ 37.465239873416294, 66.101309883512386 ], [ 37.522979394065459, 66.097959152716072 ], [ 37.558549700097643, 66.084164107132352 ], [ 37.577585388144257, 66.073456532606087 ], [ 37.608667142412742, 66.053132647764926 ], [ 37.735362014515061, 66.053717638220462 ], [ 37.836213493444177, 66.02863526975878 ], [ 37.952236203578764, 66.020567921994399 ], [ 38.06782009459863, 66.013323542792932 ], [ 38.18278084212227, 66.005012120265889 ], [ 38.305399208286047, 66.01934679292026 ], [ 38.415763627839709, 65.9957159681218 ], [ 38.648698132572406, 66.001263966565716 ], [ 38.759783786488811, 66.004264290139133 ], [ 38.866781861695898, 66.023922971275226 ], [ 38.991718676814486, 66.029250685140397 ], [ 39.054720080239491, 66.041488368864691 ], [ 39.109925148150097, 66.037097203268758 ], [ 39.175031418359083, 66.043021444333192 ], [ 39.218497809590332, 66.051503612572702 ], [ 39.226596927721545, 66.048842697622632 ], [ 39.230738867030738, 66.052273037406906 ], [ 39.29526462726119, 66.046568014091463 ], [ 39.330754620459999, 66.052602855532427 ], [ 39.349508010855772, 66.050690362404623 ], [ 39.380413173057633, 66.052868864310113 ], [ 39.417877439598726, 66.050270083404286 ], [ 39.43352833141418, 66.05255092577147 ], [ 39.478809481879608, 66.04822825390147 ], [ 39.540562000096628, 66.054753895863712 ], [ 39.542404908075952, 66.054478503530959 ], [ 39.5462167004153, 66.054815003182767 ], [ 39.605951348174386, 66.051667397448966 ], [ 39.649150542885849, 66.056117081942034 ], [ 39.66747795889421, 66.053447680693353 ], [ 39.703143436869198, 66.056938997891905 ], [ 39.735524045871131, 66.055833310893036 ], [ 39.762285841934613, 66.060591383895485 ], [ 39.791998607630518, 66.059079968894537 ], [ 39.84759748791123, 66.064558383761323 ], [ 39.863413705621412, 66.064118194786829 ], [ 39.876332641739339, 66.067068467382455 ], [ 39.919183261125141, 66.064110571591414 ], [ 39.98342513790729, 66.077262553837642 ], [ 39.990700823036633, 66.078203622310014 ], [ 40.047890421250742, 66.073106321942817 ], [ 40.094079343121962, 66.083146850738558 ], [ 40.106357596538231, 66.079647762584585 ], [ 40.141544674508708, 66.086559442148541 ], [ 40.174673555288024, 66.086696830068774 ], [ 40.19448043634489, 66.092623055010506 ], [ 40.284013815122307, 66.107474225587907 ], [ 40.288433956448699, 66.107791540489529 ], [ 40.29170048475595, 66.109086090713561 ], [ 40.368136789853565, 66.106849998162943 ], [ 40.393714614285528, 66.12161844973167 ], [ 40.400541380586958, 66.119873312942275 ], [ 40.428734498782688, 66.120119045110243 ], [ 40.485763060481986, 66.136081908029382 ], [ 40.50330762253742, 66.138136627647469 ], [ 40.578060206535611, 66.16478191199721 ], [ 40.601618998364017, 66.176336622549684 ], [ 40.633043603142141, 66.196428910276239 ], [ 40.639665280221521, 66.211755695520026 ], [ 40.672230444834241, 66.238334120833258 ], [ 40.721558571834066, 66.273976463477211 ] ] ] } },
{ "type": "Feature", "properties": { "gid": 7, "objectid": 7.0, "z": 25.0, "index": 0.0, "shape_leng": 7.0747735707399997, "z1": null }, "geometry": { "type": "MultiLineString", "coordinates": [ [ [ 38.528163851253396, 65.292792867257987 ], [ 38.51732533102043, 65.293898517775261 ], [ 38.44997769992915, 65.302196617572974 ], [ 38.426076396484888, 65.305120220160489 ], [ 38.394737503331299, 65.308944997217651 ], [ 38.326841930378549, 65.314208403069699 ], [ 38.324722523699222, 65.314588113265955 ], [ 38.322094592469568, 65.314644641504884 ], [ 38.256823904142976, 65.321420775100734 ], [ 38.222949962204524, 65.326308526055072 ], [ 38.180346901281183, 65.332354693236994 ], [ 38.113455209619161, 65.33698917877345 ], [ 38.1091231333412, 65.337965840415563 ], [ 38.101336561478092, 65.338102769179415 ], [ 38.027443166691285, 65.347528235914098 ], [ 38.00113760399114, 65.351257090034835 ], [ 37.937675477878713, 65.363805497370777 ], [ 37.890942748432309, 65.368570003411179 ], [ 37.846965712436941, 65.377772970940015 ], [ 37.778518839797528, 65.383637534279842 ], [ 37.759912399371444, 65.386164733718033 ], [ 37.666138531480073, 65.400827426041417 ], [ 37.661555773098399, 65.4016565043421 ], [ 37.622462193045124, 65.41384934920643 ], [ 37.5615746337281, 65.414447205868782 ], [ 37.547311945207184, 65.415829343270161 ], [ 37.517494552841583, 65.424113666798831 ], [ 37.458151187267561, 65.427061266716976 ], [ 37.42572793801088, 65.425633304112154 ], [ 37.381209351500814, 65.426388952531937 ], [ 37.33481711852076, 65.4294709795941 ], [ 37.313692375581041, 65.427845271056867 ], [ 37.280103632088867, 65.428414832887967 ], [ 37.22330819290076, 65.427393906895333 ], [ 37.198441827058531, 65.428576353340787 ], [ 37.174936121344274, 65.428994022644474 ], [ 37.102824366680608, 65.432858280037237 ], [ 37.079084194178051, 65.42770318414847 ], [ 37.064995876338855, 65.428200865033432 ], [ 37.053193304687795, 65.428129983207327 ], [ 36.988307500258173, 65.432081047081795 ], [ 36.97416764355151, 65.428830116987228 ], [ 36.960373113513981, 65.429256063463981 ], [ 36.943866120229472, 65.428995271009654 ], [ 36.878502861800399, 65.429067098637489 ], [ 36.801376378978631, 65.429378474946191 ], [ 36.778136877837881, 65.429531959758634 ], [ 36.746395738024205, 65.429867915838344 ], [ 36.683859141252412, 65.43022232862134 ], [ 36.632699491921869, 65.430367725726711 ], [ 36.596238780766782, 65.429986850445857 ], [ 36.56938296263985, 65.430841475506924 ], [ 36.512444754960654, 65.433131221856456 ], [ 36.450377539746171, 65.436197744449601 ], [ 36.439948812971181, 65.43758892751066 ], [ 36.427590536375703, 65.439096282643732 ], [ 36.386856465440388, 65.44444364492665 ], [ 36.352695715133422, 65.445528327385574 ], [ 36.346306705614637, 65.446044857628323 ], [ 36.33430865961418, 65.448209755399176 ], [ 36.279953637713419, 65.458649842054058 ], [ 36.232459746155712, 65.469339852235862 ], [ 36.199583267720357, 65.474897030537278 ], [ 36.126501466278626, 65.49758542612841 ], [ 36.126018122871841, 65.497729794136859 ], [ 36.125912332325299, 65.497770175599754 ], [ 36.104837398772418, 65.510455014446052 ], [ 36.077899287149194, 65.522592343535536 ], [ 36.03776323319471, 65.545873570255935 ], [ 36.015891142204083, 65.555924335727497 ], [ 35.984731614618823, 65.584959725747495 ], [ 35.967897839014796, 65.601670360265445 ], [ 35.945988417632265, 65.63223282904076 ], [ 35.947637882112815, 65.663938787722174 ], [ 35.942979252344287, 65.684407609951478 ], [ 35.968194804547323, 65.711542788092657 ], [ 35.972634756675745, 65.726323670707671 ], [ 35.997449722330288, 65.740123365307227 ], [ 36.031033597682864, 65.761946391925449 ], [ 36.067414947567215, 65.775564540672434 ], [ 36.11403782293209, 65.789071226652595 ], [ 36.171291390957833, 65.809572412108565 ], [ 36.184299956614268, 65.811358505452517 ], [ 36.270009848944085, 65.825549211876933 ], [ 36.271173505738261, 65.825635170011083 ], [ 36.272478792889217, 65.825813636780424 ], [ 36.31214545082193, 65.827679331356222 ], [ 36.358934543197478, 65.836381718487246 ], [ 36.386433813560927, 65.838793617978837 ], [ 36.420694449087108, 65.84078375068205 ], [ 36.43615362726274, 65.840201930826908 ], [ 36.457432601091654, 65.842949945377796 ], [ 36.506319715161283, 65.845174240894266 ], [ 36.557637227291735, 65.847783344608615 ], [ 36.559843642346095, 65.847763037236291 ], [ 36.56213269761065, 65.847885014169208 ], [ 36.631895408660114, 65.84964014365687 ], [ 36.660074679792103, 65.852006449291366 ], [ 36.675082510089908, 65.851971321142628 ], [ 36.694057136846851, 65.852801783083152 ], [ 36.756403756677201, 65.85502951896342 ], [ 36.798769381581309, 65.853899325433332 ], [ 36.859406173855064, 65.860255632404005 ], [ 36.870854384018514, 65.860291218748898 ], [ 36.93026161738095, 65.855089331787894 ], [ 36.967023536490245, 65.856874637902422 ], [ 37.045302258440671, 65.856901272738469 ], [ 37.062855065320122, 65.856642298153076 ], [ 37.07178745094285, 65.856344972227816 ], [ 37.104349828630802, 65.856887034111452 ], [ 37.182213928230368, 65.855109394557076 ], [ 37.254332585536758, 65.856406209830311 ], [ 37.296878280583798, 65.85581940204429 ], [ 37.352089996624272, 65.855811468951316 ], [ 37.409830109842062, 65.854273316595965 ], [ 37.42109237302796, 65.853664114241866 ], [ 37.443989270861579, 65.854222124937252 ], [ 37.52221430637303, 65.853005450684634 ], [ 37.553954529023031, 65.850566931534559 ], [ 37.611246078537164, 65.851743541381467 ], [ 37.632754554419165, 65.851500400065589 ], [ 37.637117940204945, 65.851729690781212 ], [ 37.693809044678346, 65.850396626454369 ], [ 37.751144454407097, 65.850876779251905 ], [ 37.757414812935224, 65.850674560526414 ], [ 37.766417092221758, 65.850817990882234 ], [ 37.829391407693123, 65.850910217079274 ], [ 37.867272314091707, 65.85272545472256 ], [ 37.889397659047972, 65.852541982007097 ], [ 37.922121463023416, 65.853755654636217 ], [ 37.959840221607067, 65.853149590533661 ], [ 37.983567756658914, 65.854445428980426 ], [ 38.018995994221825, 65.852216781509981 ], [ 38.071061059134138, 65.855189913956593 ], [ 38.089077635406369, 65.854561010390228 ], [ 38.101429523245372, 65.855007753300043 ], [ 38.147508327034387, 65.850513245386537 ], [ 38.205863805764324, 65.851793545662133 ], [ 38.216431643944816, 65.851217657225817 ], [ 38.224529501807524, 65.851351239573006 ], [ 38.275345344009196, 65.848168248354369 ], [ 38.333051785215588, 65.84732832267764 ], [ 38.343285694849328, 65.846620864569616 ], [ 38.352746223448861, 65.845957665704219 ], [ 38.401246435270991, 65.842394619452563 ], [ 38.452836170064984, 65.842311997126757 ], [ 38.469564359867945, 65.841842524387175 ], [ 38.484686218085699, 65.841323455708334 ], [ 38.526780623811675, 65.837729109596722 ], [ 38.566036436124705, 65.836740888582426 ], [ 38.594212132768035, 65.834378605490201 ], [ 38.625619212238263, 65.832398435974056 ], [ 38.650473908288461, 65.829691064733197 ], [ 38.670401148221657, 65.828472902896522 ], [ 38.717155058446309, 65.823617295347532 ], [ 38.771673711424313, 65.819812935136753 ], [ 38.773699589277413, 65.819494283947307 ], [ 38.776246412307955, 65.819332957413309 ], [ 38.839536920801066, 65.811660945968498 ], [ 38.868235136644216, 65.807171269043465 ], [ 38.904476633833838, 65.799109322222648 ], [ 38.96009969958692, 65.792181266311701 ], [ 38.960306898472567, 65.792132512724493 ], [ 39.021346530236855, 65.778486520357575 ], [ 39.057392051152505, 65.771270169381808 ], [ 39.095678293713775, 65.760356000697385 ], [ 39.17278067070589, 65.735357221070444 ], [ 39.184880384913527, 65.730424728579294 ], [ 39.194763065999723, 65.719951688632193 ], [ 39.216673292670805, 65.71565801980617 ], [ 39.249527948239177, 65.700051546198665 ], [ 39.259064992511441, 65.69574252302121 ], [ 39.268959415028888, 65.685242216553945 ], [ 39.273785833807892, 65.647087427234538 ], [ 39.27964609621273, 65.618413706746679 ], [ 39.277311815414549, 65.591218248591815 ], [ 39.268275898735737, 65.555145410253346 ], [ 39.251461890948121, 65.516553716734052 ], [ 39.242158948050928, 65.504674445168348 ], [ 39.223881762285657, 65.471630939820926 ], [ 39.221068026978173, 65.467787079556757 ], [ 39.185735750899823, 65.427234270406245 ], [ 39.159916424716414, 65.400796190311667 ], [ 39.141706252237839, 65.385355234524496 ], [ 39.12584067734133, 65.377098648765269 ], [ 39.088606620542095, 65.362268072669394 ], [ 39.029941877699457, 65.335944348684308 ], [ 38.983392862079199, 65.324531350575882 ], [ 38.939427345918489, 65.315671003467287 ], [ 38.920394529704964, 65.313202617515373 ], [ 38.857103977992722, 65.30119239227497 ], [ 38.846196730810419, 65.299772239101031 ], [ 38.841174440705828, 65.298323342343821 ], [ 38.778531118936456, 65.291878415300744 ], [ 38.743021002650494, 65.288130401691916 ], [ 38.679675665800517, 65.286485327989823 ], [ 38.628446682254548, 65.288881179134506 ], [ 38.604402774886694, 65.292029260934243 ], [ 38.537095195657514, 65.292478965144284 ], [ 38.532090363645779, 65.292620545646088 ], [ 38.528163851253396, 65.292792867257987 ] ] ] } },
{ "type": "Feature", "properties": { "gid": 6, "objectid": 6.0, "z": 20.0, "index": 1.0, "shape_leng": 9.1485625494599994, "z1": 1.0 }, "geometry": { "type": "MultiLineString", "coordinates": [ [ [ 35.607855363530717, 65.869788306983537 ], [ 35.678982428536983, 65.91930957887962 ], [ 35.690496616778603, 65.927695731268614 ], [ 35.7591423611739, 65.959507168372596 ], [ 35.767907565197703, 65.964147534206887 ], [ 35.770400629699026, 65.965160942912917 ], [ 35.857181491359427, 65.992660011484986 ], [ 35.866987419009149, 65.996405860030819 ], [ 35.884428686302272, 66.000602972970256 ], [ 35.981338472629488, 66.014216126859566 ], [ 36.102379927862813, 66.021374233896495 ], [ 36.102901416321487, 66.021394419411109 ], [ 36.103018742753221, 66.021394013470882 ], [ 36.103221529527161, 66.021405589766829 ], [ 36.203996466807496, 66.02361671050312 ], [ 36.220094729185888, 66.026922097415138 ], [ 36.251875311805719, 66.026710270889453 ], [ 36.288129133696259, 66.027706430526479 ], [ 36.323483927801249, 66.026612190238666 ], [ 36.338522078862326, 66.028878146200441 ], [ 36.391427638998778, 66.027999836456758 ], [ 36.44063537358312, 66.030458742141519 ], [ 36.449163117475194, 66.0299415902264 ], [ 36.453774249923356, 66.030564684449985 ], [ 36.521872485056576, 66.027849872291 ], [ 36.573021014017314, 66.030556084442708 ], [ 36.577381068549641, 66.030391013919143 ], [ 36.581870596564869, 66.030282617313816 ], [ 36.649228533307962, 66.025153980212053 ], [ 36.696117779647523, 66.027457837772118 ], [ 36.705229446452023, 66.027198420808446 ], [ 36.71529846797057, 66.02686757739869 ], [ 36.771028005838247, 66.022026917780778 ], [ 36.818270657007901, 66.023341920081322 ], [ 36.836108812960447, 66.022603850418875 ], [ 36.857889285791373, 66.022038376570038 ], [ 36.895531725429521, 66.017557871338795 ], [ 36.931582803532422, 66.019004814501386 ], [ 36.963470385686406, 66.017392228997778 ], [ 37.011442722214269, 66.016834043344744 ], [ 37.026428310870045, 66.015014733027812 ], [ 37.039593850087925, 66.015427878010087 ], [ 37.090112815494678, 66.011945718026254 ], [ 37.142829245509404, 66.011360876204009 ], [ 37.152973164047637, 66.010533720647828 ], [ 37.172341983605293, 66.010235862384434 ], [ 37.21485545056936, 66.006978913705098 ], [ 37.242720473805122, 66.008133216266316 ], [ 37.275410780101168, 66.006902164954226 ], [ 37.339621854669531, 66.007161204805072 ], [ 37.341214989443017, 66.007017302879859 ], [ 37.343770411796925, 66.007080140829231 ], [ 37.395701544708601, 66.002951773276465 ], [ 37.43594914436116, 66.003848183710943 ], [ 37.460212105346784, 66.001526789492345 ], [ 37.499002220298337, 66.003236396063585 ], [ 37.517084969498796, 66.002007715593209 ], [ 37.531987631155033, 66.002332413860131 ], [ 37.579502951222821, 65.997358034059317 ], [ 37.631565851057644, 66.001088652061355 ], [ 37.640274272780573, 66.00028182470129 ], [ 37.648823579962539, 66.000673746078974 ], [ 37.6997264427483, 65.995129589064248 ], [ 37.738830212867526, 65.996734821485063 ], [ 37.762182858263316, 65.993856048793532 ], [ 37.783994850396965, 65.995722410341841 ], [ 37.819628172132155, 65.992753575992538 ], [ 37.849069999996573, 65.992889999994105 ], [ 37.882641183707193, 65.98732328393092 ], [ 37.913462635988225, 65.991381073399708 ], [ 37.939323928600118, 65.990020855708281 ], [ 37.960739456422857, 65.989939194929377 ], [ 38.003168301060271, 65.982075773004937 ], [ 38.040238335161149, 65.987545318726944 ], [ 38.05789867255956, 65.986472749878942 ], [ 38.072907137655534, 65.986536912503681 ], [ 38.122479068071669, 65.977247532544482 ], [ 38.167925232482958, 65.984685067727781 ], [ 38.175615928863493, 65.984336469555274 ], [ 38.181966443560697, 65.984587687431485 ], [ 38.241952482814725, 65.973658021510374 ], [ 38.293613878151547, 65.982506319938722 ], [ 38.293997079366875, 65.982335280656116 ], [ 38.294566146752942, 65.982446616952103 ], [ 38.361565968632959, 65.968715460025152 ], [ 38.412922685412923, 65.979835075937473 ], [ 38.413113178321623, 65.979822636945812 ], [ 38.413320762381773, 65.979822044726461 ], [ 38.480786656058626, 65.964895560464441 ], [ 38.523483616925716, 65.975588752116892 ], [ 38.532944421153047, 65.974901632303983 ], [ 38.544414199015591, 65.97487930905487 ], [ 38.600957489776306, 65.964221066795318 ], [ 38.632288692388101, 65.971998321430959 ], [ 38.653563127532891, 65.970572715261426 ], [ 38.681200467937771, 65.970675372183933 ], [ 38.722905924703866, 65.964109186432353 ], [ 38.740319751668721, 65.969405144132935 ], [ 38.771150041269777, 65.967070565544446 ], [ 38.828567459102516, 65.966568184710923 ], [ 38.842988132586498, 65.964380245786742 ], [ 38.845367028727225, 65.965195342985709 ], [ 38.900147619278926, 65.956255470853677 ], [ 38.945725732061078, 65.958378744107904 ], [ 38.963501716614786, 65.955552746512694 ], [ 39.004315173253445, 65.954320548757096 ], [ 39.03205899363104, 65.950404451330542 ], [ 39.048965131689357, 65.951200565847159 ], [ 39.088783935687417, 65.944671096338425 ], [ 39.150906302384101, 65.943686874961713 ], [ 39.158675560422097, 65.942088800191442 ], [ 39.177207920438377, 65.940851470426452 ], [ 39.216107694504956, 65.93441101226199 ], [ 39.24537082824105, 65.934735189352097 ], [ 39.277117388483106, 65.928296171085151 ], [ 39.337639701450883, 65.924961614349769 ], [ 39.342998674939764, 65.923702556290664 ], [ 39.355822787503769, 65.922042957667145 ], [ 39.400038810621567, 65.912734416400809 ], [ 39.424624025632539, 65.913069548783824 ], [ 39.459362832989399, 65.902695602155291 ], [ 39.522665647411515, 65.893386708135949 ], [ 39.531996128804252, 65.890277460232056 ], [ 39.555551271609176, 65.880545058273157 ], [ 39.60178824732435, 65.864424536077422 ], [ 39.621158233014285, 65.856506197174923 ], [ 39.647196305362797, 65.839086562613375 ], [ 39.67819313306245, 65.812770998774823 ], [ 39.70262296401782, 65.771103610124584 ], [ 39.70640597787866, 65.766465718377788 ], [ 39.706045544124322, 65.759056560054887 ], [ 39.701564876813904, 65.710140228475268 ], [ 39.686449760964081, 65.662205160508222 ], [ 39.681097864537207, 65.644901002320694 ], [ 39.646095387070091, 65.601603807779611 ], [ 39.633446014209824, 65.588036982255346 ], [ 39.606656125295586, 65.554217270444497 ], [ 39.594655272245291, 65.530307488894351 ], [ 39.576180293734126, 65.509035185939894 ], [ 39.560006613523058, 65.484422873138129 ], [ 39.54374081798602, 65.470798568523634 ], [ 39.518236971358505, 65.431505483036773 ], [ 39.517642286649817, 65.430475683620926 ], [ 39.51640224593578, 65.427796967749629 ], [ 39.477158810870634, 65.369310867477935 ], [ 39.453098037498535, 65.338903905154467 ], [ 39.423436406214137, 65.314709113517893 ], [ 39.391109022268211, 65.286621315448485 ], [ 39.351336419567872, 65.258752320660278 ], [ 39.325425218849091, 65.24355370370904 ], [ 39.287570781773013, 65.226441262711944 ], [ 39.251391964731823, 65.2093300836423 ], [ 39.226055226521567, 65.199598745064606 ], [ 39.169692559182266, 65.180355401913403 ], [ 39.167783480035808, 65.179827483691071 ], [ 39.163687052205262, 65.178747793586808 ], [ 39.109878127026661, 65.163604313522285 ], [ 39.082820720868824, 65.157269244300579 ], [ 39.045232194373995, 65.150139744888293 ], [ 38.989144833176397, 65.141985101945522 ], [ 38.979548510513354, 65.141223237878904 ], [ 38.961241045020898, 65.13963555684316 ], [ 38.918446132505778, 65.136501137880288 ], [ 38.898227106110454, 65.134998810710442 ], [ 38.861032868619105, 65.134191140081413 ], [ 38.814696589455764, 65.128740492757089 ], [ 38.809503167780434, 65.128858923082646 ], [ 38.802100826083915, 65.128718082094593 ], [ 38.76138326026566, 65.130762334927567 ], [ 38.722918266779715, 65.130576772542582 ], [ 38.699846104107593, 65.132773610574077 ], [ 38.667909209194534, 65.134476640014356 ], [ 38.648607444294612, 65.136297113887878 ], [ 38.622881563744187, 65.137600944974139 ], [ 38.588257389419624, 65.141793908609628 ], [ 38.53576801640159, 65.144455024565104 ], [ 38.529812556051269, 65.144970154331531 ], [ 38.52414428221536, 65.145559402939455 ], [ 38.519048410627875, 65.14600960181275 ], [ 38.468732029214209, 65.153320297060475 ], [ 38.418014972267031, 65.15785003377826 ], [ 38.407261205647984, 65.159130554093309 ], [ 38.391072905913489, 65.161002388762455 ], [ 38.336717623329605, 65.168297542244545 ], [ 38.310541591970861, 65.172472173318994 ], [ 38.265551347460161, 65.179564306556159 ], [ 38.209768992688623, 65.186675190925598 ], [ 38.199676736301683, 65.187953091255622 ], [ 38.18260234259651, 65.190087959228578 ], [ 38.136648479529043, 65.196111685203533 ], [ 38.117126603101582, 65.200187959242612 ], [ 38.069570665422418, 65.209392186996411 ], [ 38.026767492934653, 65.217078659290621 ], [ 37.935435578387114, 65.233907309841044 ], [ 37.932870673233992, 65.234349207414198 ], [ 37.926158946589595, 65.235371038317737 ], [ 37.836782319718623, 65.248863234475721 ], [ 37.804783174287905, 65.254286631781724 ], [ 37.739086043831719, 65.263396005510003 ], [ 37.675130034243949, 65.272213028365542 ], [ 37.640217135049141, 65.27655296503508 ], [ 37.546667157526855, 65.285304386139671 ], [ 37.541843689497938, 65.285751360017485 ], [ 37.540436265349882, 65.285933915511123 ], [ 37.462767213131997, 65.290322991480963 ], [ 37.434359432401891, 65.292197283968619 ], [ 37.366839908354507, 65.292509213206387 ], [ 37.336265819394725, 65.293529518865455 ], [ 37.318913197130342, 65.297698238689918 ], [ 37.263464475210753, 65.299004634842277 ], [ 37.230055662148544, 65.296365090325708 ], [ 37.225788509851583, 65.296578660330908 ], [ 37.222809704544517, 65.296386274683783 ], [ 37.160028922589873, 65.298724060296109 ], [ 37.126130151737101, 65.295102370786481 ], [ 37.108883515524212, 65.296054577891482 ], [ 37.098450698642495, 65.294425301675801 ], [ 37.056768731315969, 65.295948576240335 ], [ 37.028751003323151, 65.292253548919717 ], [ 37.000036376426607, 65.293337716677343 ], [ 36.98789810907337, 65.288634442797047 ], [ 36.962083495906001, 65.288554579863586 ], [ 36.935426577780191, 65.286168096019566 ], [ 36.893637308909149, 65.284231869431096 ], [ 36.826274452832905, 65.278223334520618 ], [ 36.801984221907333, 65.275014699000224 ], [ 36.733873415025386, 65.266539268108346 ], [ 36.720988805464089, 65.265204608964268 ], [ 36.713548200510587, 65.264754740026603 ], [ 36.646105723411864, 65.261883498678827 ], [ 36.594998880187632, 65.257934189910884 ], [ 36.583489473283407, 65.257490322808735 ], [ 36.574791108432777, 65.256947115543937 ], [ 36.541372534498834, 65.2562540492072 ], [ 36.493758485987286, 65.256029866723139 ], [ 36.48855879198527, 65.255646620600601 ], [ 36.474838556649104, 65.25602418363269 ], [ 36.425665499074967, 65.256868803771795 ], [ 36.412501675498788, 65.257196910664788 ], [ 36.367110774561326, 65.266540266311495 ], [ 36.353105434056573, 65.269721416858403 ], [ 36.340721170316158, 65.271093760529766 ], [ 36.316885596985287, 65.277055945291096 ], [ 36.298668279414386, 65.27867832496122 ], [ 36.282161807350349, 65.281289638718619 ], [ 36.265280496387305, 65.282613135597813 ], [ 36.244969668245147, 65.2861026546598 ], [ 36.228147587418874, 65.28697474155345 ], [ 36.210054237904956, 65.289302764926106 ], [ 36.1935116019595, 65.290070979812327 ], [ 36.17397541440738, 65.294259310991094 ], [ 36.156096773949713, 65.295393520500539 ], [ 36.141017718400775, 65.298502972131246 ], [ 36.125467335150489, 65.299614822142786 ], [ 36.104590066403091, 65.302537337265676 ], [ 36.081921699835334, 65.302943908172949 ], [ 36.071017197929962, 65.304710595111885 ], [ 36.05887682287721, 65.305599191517132 ], [ 36.034067206768754, 65.309079662110889 ], [ 36.014214852009985, 65.309726961641047 ], [ 35.999648806537095, 65.312075831447146 ], [ 35.978659082931813, 65.313491515567875 ], [ 35.961910427111462, 65.315806972634221 ], [ 35.952339176830748, 65.316165827724035 ], [ 35.924756363354419, 65.321305857112804 ], [ 35.895026144222442, 65.324866100418177 ], [ 35.885526674188498, 65.32783375684815 ], [ 35.860905458626775, 65.331975192384647 ], [ 35.844068699632828, 65.335706853875308 ], [ 35.837403803991123, 65.336940998095088 ], [ 35.800748730180231, 65.347093792050202 ], [ 35.776090983927247, 65.350764196875417 ], [ 35.760167315151193, 65.357862081902567 ], [ 35.713002648932246, 65.366828808997553 ], [ 35.708319340803428, 65.369220203239877 ], [ 35.69267001179108, 65.374660489149448 ], [ 35.668596904608478, 65.385010026540868 ], [ 35.660162296480905, 65.38680517254403 ], [ 35.63351064312161, 65.402711746341083 ], [ 35.601414961740375, 65.426993401080864 ], [ 35.579044664613377, 65.459968933093478 ], [ 35.567969184354325, 65.475678379574731 ], [ 35.56222981098108, 65.485879063824598 ], [ 35.542688469489804, 65.520567000785405 ], [ 35.532863110973295, 65.547902638325496 ], [ 35.525332969788025, 65.572552709854847 ], [ 35.514520797558447, 65.616401312538102 ], [ 35.511271322408049, 65.635612836747924 ], [ 35.510933793819305, 65.677353184408332 ], [ 35.513021342645601, 65.702469322641321 ], [ 35.518863261386343, 65.725183503629609 ], [ 35.526846654654975, 65.748240396817039 ], [ 35.531010068065399, 65.766968966592714 ], [ 35.545920724194758, 65.793386323421146 ], [ 35.555905746310572, 65.808100230395212 ], [ 35.595279486748041, 65.854570660085329 ], [ 35.607855363530717, 65.869788306983537 ] ] ] } }
]
}
